<?xml version="1.0" encoding="UTF-8"?>
<gpx version="1.1" creator="run-together-e2e" xmlns="http://www.topografix.com/GPX/1/1">
  <metadata><time>2025-03-23T07:00:00Z</time></metadata>
  <trk>
    <name>Boucle déposée e2e</name>
    <type>running</type>
    <trkseg>
      <trkpt lat="48.856600" lon="2.352200"><ele>35</ele><time>2025-03-23T07:00:00Z</time></trkpt>
      <trkpt lat="48.856735" lon="2.352202"><ele>35.3</ele><time>2025-03-23T07:00:05Z</time></trkpt>
      <trkpt lat="48.856870" lon="2.352209"><ele>35.5</ele><time>2025-03-23T07:00:10Z</time></trkpt>
      <trkpt lat="48.857004" lon="2.352220"><ele>35.8</ele><time>2025-03-23T07:00:15Z</time></trkpt>
      <trkpt lat="48.857139" lon="2.352235"><ele>36</ele><time>2025-03-23T07:00:20Z</time></trkpt>
      <trkpt lat="48.857273" lon="2.352255"><ele>36.3</ele><time>2025-03-23T07:00:25Z</time></trkpt>
      <trkpt lat="48.857407" lon="2.352279"><ele>36.5</ele><time>2025-03-23T07:00:30Z</time></trkpt>
      <trkpt lat="48.857540" lon="2.352307"><ele>36.8</ele><time>2025-03-23T07:00:35Z</time></trkpt>
      <trkpt lat="48.857673" lon="2.352340"><ele>37</ele><time>2025-03-23T07:00:40Z</time></trkpt>
      <trkpt lat="48.857806" lon="2.352377"><ele>37.3</ele><time>2025-03-23T07:00:45Z</time></trkpt>
      <trkpt lat="48.857938" lon="2.352419"><ele>37.5</ele><time>2025-03-23T07:00:50Z</time></trkpt>
      <trkpt lat="48.858070" lon="2.352465"><ele>37.7</ele><time>2025-03-23T07:00:55Z</time></trkpt>
      <trkpt lat="48.858200" lon="2.352515"><ele>38</ele><time>2025-03-23T07:01:00Z</time></trkpt>
      <trkpt lat="48.858330" lon="2.352569"><ele>38.2</ele><time>2025-03-23T07:01:05Z</time></trkpt>
      <trkpt lat="48.858460" lon="2.352627"><ele>38.4</ele><time>2025-03-23T07:01:10Z</time></trkpt>
      <trkpt lat="48.858588" lon="2.352690"><ele>38.6</ele><time>2025-03-23T07:01:15Z</time></trkpt>
      <trkpt lat="48.858715" lon="2.352757"><ele>38.8</ele><time>2025-03-23T07:01:20Z</time></trkpt>
      <trkpt lat="48.858842" lon="2.352828"><ele>39</ele><time>2025-03-23T07:01:25Z</time></trkpt>
      <trkpt lat="48.858967" lon="2.352903"><ele>39.2</ele><time>2025-03-23T07:01:30Z</time></trkpt>
      <trkpt lat="48.859092" lon="2.352982"><ele>39.4</ele><time>2025-03-23T07:01:35Z</time></trkpt>
      <trkpt lat="48.859215" lon="2.353066"><ele>39.5</ele><time>2025-03-23T07:01:40Z</time></trkpt>
      <trkpt lat="48.859337" lon="2.353153"><ele>39.7</ele><time>2025-03-23T07:01:45Z</time></trkpt>
      <trkpt lat="48.859458" lon="2.353244"><ele>39.9</ele><time>2025-03-23T07:01:50Z</time></trkpt>
      <trkpt lat="48.859577" lon="2.353339"><ele>40</ele><time>2025-03-23T07:01:55Z</time></trkpt>
      <trkpt lat="48.859695" lon="2.353438"><ele>40.1</ele><time>2025-03-23T07:02:00Z</time></trkpt>
      <trkpt lat="48.859812" lon="2.353541"><ele>40.3</ele><time>2025-03-23T07:02:05Z</time></trkpt>
      <trkpt lat="48.859927" lon="2.353647"><ele>40.4</ele><time>2025-03-23T07:02:10Z</time></trkpt>
      <trkpt lat="48.860041" lon="2.353758"><ele>40.5</ele><time>2025-03-23T07:02:15Z</time></trkpt>
      <trkpt lat="48.860153" lon="2.353872"><ele>40.6</ele><time>2025-03-23T07:02:20Z</time></trkpt>
      <trkpt lat="48.860263" lon="2.353989"><ele>40.7</ele><time>2025-03-23T07:02:25Z</time></trkpt>
      <trkpt lat="48.860372" lon="2.354110"><ele>40.8</ele><time>2025-03-23T07:02:30Z</time></trkpt>
      <trkpt lat="48.860479" lon="2.354235"><ele>40.8</ele><time>2025-03-23T07:02:35Z</time></trkpt>
      <trkpt lat="48.860584" lon="2.354363"><ele>40.9</ele><time>2025-03-23T07:02:40Z</time></trkpt>
      <trkpt lat="48.860688" lon="2.354495"><ele>40.9</ele><time>2025-03-23T07:02:45Z</time></trkpt>
      <trkpt lat="48.860789" lon="2.354630"><ele>41</ele><time>2025-03-23T07:02:50Z</time></trkpt>
      <trkpt lat="48.860889" lon="2.354768"><ele>41</ele><time>2025-03-23T07:02:55Z</time></trkpt>
      <trkpt lat="48.860986" lon="2.354909"><ele>41</ele><time>2025-03-23T07:03:00Z</time></trkpt>
      <trkpt lat="48.861082" lon="2.355054"><ele>41</ele><time>2025-03-23T07:03:05Z</time></trkpt>
      <trkpt lat="48.861176" lon="2.355201"><ele>41</ele><time>2025-03-23T07:03:10Z</time></trkpt>
      <trkpt lat="48.861267" lon="2.355352"><ele>41</ele><time>2025-03-23T07:03:15Z</time></trkpt>
      <trkpt lat="48.861356" lon="2.355506"><ele>40.9</ele><time>2025-03-23T07:03:20Z</time></trkpt>
      <trkpt lat="48.861443" lon="2.355662"><ele>40.9</ele><time>2025-03-23T07:03:25Z</time></trkpt>
      <trkpt lat="48.861528" lon="2.355821"><ele>40.8</ele><time>2025-03-23T07:03:30Z</time></trkpt>
      <trkpt lat="48.861611" lon="2.355983"><ele>40.8</ele><time>2025-03-23T07:03:35Z</time></trkpt>
      <trkpt lat="48.861691" lon="2.356148"><ele>40.7</ele><time>2025-03-23T07:03:40Z</time></trkpt>
      <trkpt lat="48.861769" lon="2.356315"><ele>40.6</ele><time>2025-03-23T07:03:45Z</time></trkpt>
      <trkpt lat="48.861845" lon="2.356485"><ele>40.5</ele><time>2025-03-23T07:03:50Z</time></trkpt>
      <trkpt lat="48.861918" lon="2.356657"><ele>40.4</ele><time>2025-03-23T07:03:55Z</time></trkpt>
      <trkpt lat="48.861989" lon="2.356832"><ele>40.3</ele><time>2025-03-23T07:04:00Z</time></trkpt>
      <trkpt lat="48.862057" lon="2.357008"><ele>40.2</ele><time>2025-03-23T07:04:05Z</time></trkpt>
      <trkpt lat="48.862123" lon="2.357187"><ele>40</ele><time>2025-03-23T07:04:10Z</time></trkpt>
      <trkpt lat="48.862186" lon="2.357368"><ele>39.9</ele><time>2025-03-23T07:04:15Z</time></trkpt>
      <trkpt lat="48.862247" lon="2.357551"><ele>39.7</ele><time>2025-03-23T07:04:20Z</time></trkpt>
      <trkpt lat="48.862305" lon="2.357736"><ele>39.6</ele><time>2025-03-23T07:04:25Z</time></trkpt>
      <trkpt lat="48.862360" lon="2.357923"><ele>39.4</ele><time>2025-03-23T07:04:30Z</time></trkpt>
      <trkpt lat="48.862413" lon="2.358112"><ele>39.2</ele><time>2025-03-23T07:04:35Z</time></trkpt>
      <trkpt lat="48.862463" lon="2.358302"><ele>39</ele><time>2025-03-23T07:04:40Z</time></trkpt>
      <trkpt lat="48.862510" lon="2.358494"><ele>38.9</ele><time>2025-03-23T07:04:45Z</time></trkpt>
      <trkpt lat="48.862555" lon="2.358687"><ele>38.7</ele><time>2025-03-23T07:04:50Z</time></trkpt>
      <trkpt lat="48.862597" lon="2.358882"><ele>38.4</ele><time>2025-03-23T07:04:55Z</time></trkpt>
      <trkpt lat="48.862636" lon="2.359078"><ele>38.2</ele><time>2025-03-23T07:05:00Z</time></trkpt>
      <trkpt lat="48.862672" lon="2.359275"><ele>38</ele><time>2025-03-23T07:05:05Z</time></trkpt>
      <trkpt lat="48.862706" lon="2.359474"><ele>37.8</ele><time>2025-03-23T07:05:10Z</time></trkpt>
      <trkpt lat="48.862737" lon="2.359673"><ele>37.6</ele><time>2025-03-23T07:05:15Z</time></trkpt>
      <trkpt lat="48.862765" lon="2.359874"><ele>37.3</ele><time>2025-03-23T07:05:20Z</time></trkpt>
      <trkpt lat="48.862790" lon="2.360075"><ele>37.1</ele><time>2025-03-23T07:05:25Z</time></trkpt>
      <trkpt lat="48.862812" lon="2.360277"><ele>36.8</ele><time>2025-03-23T07:05:30Z</time></trkpt>
      <trkpt lat="48.862832" lon="2.360480"><ele>36.6</ele><time>2025-03-23T07:05:35Z</time></trkpt>
      <trkpt lat="48.862848" lon="2.360684"><ele>36.3</ele><time>2025-03-23T07:05:40Z</time></trkpt>
      <trkpt lat="48.862862" lon="2.360887"><ele>36.1</ele><time>2025-03-23T07:05:45Z</time></trkpt>
      <trkpt lat="48.862873" lon="2.361092"><ele>35.8</ele><time>2025-03-23T07:05:50Z</time></trkpt>
      <trkpt lat="48.862881" lon="2.361296"><ele>35.6</ele><time>2025-03-23T07:05:55Z</time></trkpt>
      <trkpt lat="48.862886" lon="2.361501"><ele>35.3</ele><time>2025-03-23T07:06:00Z</time></trkpt>
      <trkpt lat="48.862888" lon="2.361706"><ele>35.1</ele><time>2025-03-23T07:06:05Z</time></trkpt>
      <trkpt lat="48.862887" lon="2.361911"><ele>34.8</ele><time>2025-03-23T07:06:10Z</time></trkpt>
      <trkpt lat="48.862884" lon="2.362116"><ele>34.6</ele><time>2025-03-23T07:06:15Z</time></trkpt>
      <trkpt lat="48.862877" lon="2.362321"><ele>34.3</ele><time>2025-03-23T07:06:20Z</time></trkpt>
      <trkpt lat="48.862868" lon="2.362525"><ele>34</ele><time>2025-03-23T07:06:25Z</time></trkpt>
      <trkpt lat="48.862856" lon="2.362729"><ele>33.8</ele><time>2025-03-23T07:06:30Z</time></trkpt>
      <trkpt lat="48.862840" lon="2.362933"><ele>33.5</ele><time>2025-03-23T07:06:35Z</time></trkpt>
      <trkpt lat="48.862822" lon="2.363136"><ele>33.3</ele><time>2025-03-23T07:06:40Z</time></trkpt>
      <trkpt lat="48.862802" lon="2.363338"><ele>33</ele><time>2025-03-23T07:06:45Z</time></trkpt>
      <trkpt lat="48.862778" lon="2.363540"><ele>32.8</ele><time>2025-03-23T07:06:50Z</time></trkpt>
      <trkpt lat="48.862751" lon="2.363741"><ele>32.6</ele><time>2025-03-23T07:06:55Z</time></trkpt>
      <trkpt lat="48.862722" lon="2.363941"><ele>32.3</ele><time>2025-03-23T07:07:00Z</time></trkpt>
      <trkpt lat="48.862690" lon="2.364140"><ele>32.1</ele><time>2025-03-23T07:07:05Z</time></trkpt>
      <trkpt lat="48.862655" lon="2.364338"><ele>31.9</ele><time>2025-03-23T07:07:10Z</time></trkpt>
      <trkpt lat="48.862617" lon="2.364535"><ele>31.7</ele><time>2025-03-23T07:07:15Z</time></trkpt>
      <trkpt lat="48.862576" lon="2.364730"><ele>31.5</ele><time>2025-03-23T07:07:20Z</time></trkpt>
      <trkpt lat="48.862533" lon="2.364924"><ele>31.2</ele><time>2025-03-23T07:07:25Z</time></trkpt>
      <trkpt lat="48.862487" lon="2.365117"><ele>31.1</ele><time>2025-03-23T07:07:30Z</time></trkpt>
      <trkpt lat="48.862438" lon="2.365308"><ele>30.9</ele><time>2025-03-23T07:07:35Z</time></trkpt>
      <trkpt lat="48.862387" lon="2.365497"><ele>30.7</ele><time>2025-03-23T07:07:40Z</time></trkpt>
      <trkpt lat="48.862333" lon="2.365685"><ele>30.5</ele><time>2025-03-23T07:07:45Z</time></trkpt>
      <trkpt lat="48.862276" lon="2.365871"><ele>30.3</ele><time>2025-03-23T07:07:50Z</time></trkpt>
      <trkpt lat="48.862217" lon="2.366055"><ele>30.2</ele><time>2025-03-23T07:07:55Z</time></trkpt>
      <trkpt lat="48.862155" lon="2.366237"><ele>30</ele><time>2025-03-23T07:08:00Z</time></trkpt>
      <trkpt lat="48.862090" lon="2.366417"><ele>29.9</ele><time>2025-03-23T07:08:05Z</time></trkpt>
      <trkpt lat="48.862023" lon="2.366595"><ele>29.8</ele><time>2025-03-23T07:08:10Z</time></trkpt>
      <trkpt lat="48.861954" lon="2.366771"><ele>29.6</ele><time>2025-03-23T07:08:15Z</time></trkpt>
      <trkpt lat="48.861882" lon="2.366944"><ele>29.5</ele><time>2025-03-23T07:08:20Z</time></trkpt>
      <trkpt lat="48.861807" lon="2.367115"><ele>29.4</ele><time>2025-03-23T07:08:25Z</time></trkpt>
      <trkpt lat="48.861730" lon="2.367283"><ele>29.3</ele><time>2025-03-23T07:08:30Z</time></trkpt>
      <trkpt lat="48.861651" lon="2.367449"><ele>29.3</ele><time>2025-03-23T07:08:35Z</time></trkpt>
      <trkpt lat="48.861570" lon="2.367613"><ele>29.2</ele><time>2025-03-23T07:08:40Z</time></trkpt>
      <trkpt lat="48.861486" lon="2.367773"><ele>29.1</ele><time>2025-03-23T07:08:45Z</time></trkpt>
      <trkpt lat="48.861400" lon="2.367931"><ele>29.1</ele><time>2025-03-23T07:08:50Z</time></trkpt>
      <trkpt lat="48.861312" lon="2.368086"><ele>29</ele><time>2025-03-23T07:08:55Z</time></trkpt>
      <trkpt lat="48.861222" lon="2.368238"><ele>29</ele><time>2025-03-23T07:09:00Z</time></trkpt>
      <trkpt lat="48.861129" lon="2.368387"><ele>29</ele><time>2025-03-23T07:09:05Z</time></trkpt>
      <trkpt lat="48.861034" lon="2.368533"><ele>29</ele><time>2025-03-23T07:09:10Z</time></trkpt>
      <trkpt lat="48.860938" lon="2.368676"><ele>29</ele><time>2025-03-23T07:09:15Z</time></trkpt>
      <trkpt lat="48.860839" lon="2.368816"><ele>29</ele><time>2025-03-23T07:09:20Z</time></trkpt>
      <trkpt lat="48.860739" lon="2.368953"><ele>29.1</ele><time>2025-03-23T07:09:25Z</time></trkpt>
      <trkpt lat="48.860636" lon="2.369086"><ele>29.1</ele><time>2025-03-23T07:09:30Z</time></trkpt>
      <trkpt lat="48.860532" lon="2.369216"><ele>29.1</ele><time>2025-03-23T07:09:35Z</time></trkpt>
      <trkpt lat="48.860426" lon="2.369342"><ele>29.2</ele><time>2025-03-23T07:09:40Z</time></trkpt>
      <trkpt lat="48.860318" lon="2.369465"><ele>29.3</ele><time>2025-03-23T07:09:45Z</time></trkpt>
      <trkpt lat="48.860208" lon="2.369585"><ele>29.4</ele><time>2025-03-23T07:09:50Z</time></trkpt>
      <trkpt lat="48.860097" lon="2.369700"><ele>29.5</ele><time>2025-03-23T07:09:55Z</time></trkpt>
      <trkpt lat="48.859984" lon="2.369812"><ele>29.6</ele><time>2025-03-23T07:10:00Z</time></trkpt>
      <trkpt lat="48.859870" lon="2.369921"><ele>29.7</ele><time>2025-03-23T07:10:05Z</time></trkpt>
      <trkpt lat="48.859754" lon="2.370026"><ele>29.8</ele><time>2025-03-23T07:10:10Z</time></trkpt>
      <trkpt lat="48.859636" lon="2.370126"><ele>29.9</ele><time>2025-03-23T07:10:15Z</time></trkpt>
      <trkpt lat="48.859518" lon="2.370224"><ele>30.1</ele><time>2025-03-23T07:10:20Z</time></trkpt>
      <trkpt lat="48.859398" lon="2.370317"><ele>30.2</ele><time>2025-03-23T07:10:25Z</time></trkpt>
      <trkpt lat="48.859276" lon="2.370406"><ele>30.4</ele><time>2025-03-23T07:10:30Z</time></trkpt>
      <trkpt lat="48.859154" lon="2.370491"><ele>30.5</ele><time>2025-03-23T07:10:35Z</time></trkpt>
      <trkpt lat="48.859030" lon="2.370572"><ele>30.7</ele><time>2025-03-23T07:10:40Z</time></trkpt>
      <trkpt lat="48.858905" lon="2.370649"><ele>30.9</ele><time>2025-03-23T07:10:45Z</time></trkpt>
      <trkpt lat="48.858779" lon="2.370723"><ele>31.1</ele><time>2025-03-23T07:10:50Z</time></trkpt>
      <trkpt lat="48.858652" lon="2.370791"><ele>31.3</ele><time>2025-03-23T07:10:55Z</time></trkpt>
      <trkpt lat="48.858524" lon="2.370856"><ele>31.5</ele><time>2025-03-23T07:11:00Z</time></trkpt>
      <trkpt lat="48.858395" lon="2.370917"><ele>31.7</ele><time>2025-03-23T07:11:05Z</time></trkpt>
      <trkpt lat="48.858265" lon="2.370973"><ele>31.9</ele><time>2025-03-23T07:11:10Z</time></trkpt>
      <trkpt lat="48.858135" lon="2.371025"><ele>32.2</ele><time>2025-03-23T07:11:15Z</time></trkpt>
      <trkpt lat="48.858004" lon="2.371073"><ele>32.4</ele><time>2025-03-23T07:11:20Z</time></trkpt>
      <trkpt lat="48.857872" lon="2.371117"><ele>32.6</ele><time>2025-03-23T07:11:25Z</time></trkpt>
      <trkpt lat="48.857740" lon="2.371156"><ele>32.9</ele><time>2025-03-23T07:11:30Z</time></trkpt>
      <trkpt lat="48.857607" lon="2.371191"><ele>33.1</ele><time>2025-03-23T07:11:35Z</time></trkpt>
      <trkpt lat="48.857474" lon="2.371222"><ele>33.3</ele><time>2025-03-23T07:11:40Z</time></trkpt>
      <trkpt lat="48.857340" lon="2.371248"><ele>33.6</ele><time>2025-03-23T07:11:45Z</time></trkpt>
      <trkpt lat="48.857206" lon="2.371270"><ele>33.8</ele><time>2025-03-23T07:11:50Z</time></trkpt>
      <trkpt lat="48.857072" lon="2.371288"><ele>34.1</ele><time>2025-03-23T07:11:55Z</time></trkpt>
      <trkpt lat="48.856937" lon="2.371301"><ele>34.4</ele><time>2025-03-23T07:12:00Z</time></trkpt>
      <trkpt lat="48.856802" lon="2.371310"><ele>34.6</ele><time>2025-03-23T07:12:05Z</time></trkpt>
      <trkpt lat="48.856667" lon="2.371314"><ele>34.9</ele><time>2025-03-23T07:12:10Z</time></trkpt>
      <trkpt lat="48.856533" lon="2.371314"><ele>35.1</ele><time>2025-03-23T07:12:15Z</time></trkpt>
      <trkpt lat="48.856398" lon="2.371310"><ele>35.4</ele><time>2025-03-23T07:12:20Z</time></trkpt>
      <trkpt lat="48.856263" lon="2.371301"><ele>35.6</ele><time>2025-03-23T07:12:25Z</time></trkpt>
      <trkpt lat="48.856128" lon="2.371288"><ele>35.9</ele><time>2025-03-23T07:12:30Z</time></trkpt>
      <trkpt lat="48.855994" lon="2.371270"><ele>36.2</ele><time>2025-03-23T07:12:35Z</time></trkpt>
      <trkpt lat="48.855860" lon="2.371248"><ele>36.4</ele><time>2025-03-23T07:12:40Z</time></trkpt>
      <trkpt lat="48.855726" lon="2.371222"><ele>36.7</ele><time>2025-03-23T07:12:45Z</time></trkpt>
      <trkpt lat="48.855593" lon="2.371191"><ele>36.9</ele><time>2025-03-23T07:12:50Z</time></trkpt>
      <trkpt lat="48.855460" lon="2.371156"><ele>37.1</ele><time>2025-03-23T07:12:55Z</time></trkpt>
      <trkpt lat="48.855328" lon="2.371117"><ele>37.4</ele><time>2025-03-23T07:13:00Z</time></trkpt>
      <trkpt lat="48.855196" lon="2.371073"><ele>37.6</ele><time>2025-03-23T07:13:05Z</time></trkpt>
      <trkpt lat="48.855065" lon="2.371025"><ele>37.8</ele><time>2025-03-23T07:13:10Z</time></trkpt>
      <trkpt lat="48.854935" lon="2.370973"><ele>38.1</ele><time>2025-03-23T07:13:15Z</time></trkpt>
      <trkpt lat="48.854805" lon="2.370917"><ele>38.3</ele><time>2025-03-23T07:13:20Z</time></trkpt>
      <trkpt lat="48.854676" lon="2.370856"><ele>38.5</ele><time>2025-03-23T07:13:25Z</time></trkpt>
      <trkpt lat="48.854548" lon="2.370791"><ele>38.7</ele><time>2025-03-23T07:13:30Z</time></trkpt>
      <trkpt lat="48.854421" lon="2.370723"><ele>38.9</ele><time>2025-03-23T07:13:35Z</time></trkpt>
      <trkpt lat="48.854295" lon="2.370649"><ele>39.1</ele><time>2025-03-23T07:13:40Z</time></trkpt>
      <trkpt lat="48.854170" lon="2.370572"><ele>39.3</ele><time>2025-03-23T07:13:45Z</time></trkpt>
      <trkpt lat="48.854046" lon="2.370491"><ele>39.5</ele><time>2025-03-23T07:13:50Z</time></trkpt>
      <trkpt lat="48.853924" lon="2.370406"><ele>39.6</ele><time>2025-03-23T07:13:55Z</time></trkpt>
      <trkpt lat="48.853802" lon="2.370317"><ele>39.8</ele><time>2025-03-23T07:14:00Z</time></trkpt>
      <trkpt lat="48.853682" lon="2.370224"><ele>39.9</ele><time>2025-03-23T07:14:05Z</time></trkpt>
      <trkpt lat="48.853564" lon="2.370126"><ele>40.1</ele><time>2025-03-23T07:14:10Z</time></trkpt>
      <trkpt lat="48.853446" lon="2.370026"><ele>40.2</ele><time>2025-03-23T07:14:15Z</time></trkpt>
      <trkpt lat="48.853330" lon="2.369921"><ele>40.3</ele><time>2025-03-23T07:14:20Z</time></trkpt>
      <trkpt lat="48.853216" lon="2.369812"><ele>40.4</ele><time>2025-03-23T07:14:25Z</time></trkpt>
      <trkpt lat="48.853103" lon="2.369700"><ele>40.5</ele><time>2025-03-23T07:14:30Z</time></trkpt>
      <trkpt lat="48.852992" lon="2.369585"><ele>40.6</ele><time>2025-03-23T07:14:35Z</time></trkpt>
      <trkpt lat="48.852882" lon="2.369465"><ele>40.7</ele><time>2025-03-23T07:14:40Z</time></trkpt>
      <trkpt lat="48.852774" lon="2.369342"><ele>40.8</ele><time>2025-03-23T07:14:45Z</time></trkpt>
      <trkpt lat="48.852668" lon="2.369216"><ele>40.9</ele><time>2025-03-23T07:14:50Z</time></trkpt>
      <trkpt lat="48.852564" lon="2.369086"><ele>40.9</ele><time>2025-03-23T07:14:55Z</time></trkpt>
      <trkpt lat="48.852461" lon="2.368953"><ele>40.9</ele><time>2025-03-23T07:15:00Z</time></trkpt>
      <trkpt lat="48.852361" lon="2.368816"><ele>41</ele><time>2025-03-23T07:15:05Z</time></trkpt>
      <trkpt lat="48.852262" lon="2.368676"><ele>41</ele><time>2025-03-23T07:15:10Z</time></trkpt>
      <trkpt lat="48.852166" lon="2.368533"><ele>41</ele><time>2025-03-23T07:15:15Z</time></trkpt>
      <trkpt lat="48.852071" lon="2.368387"><ele>41</ele><time>2025-03-23T07:15:20Z</time></trkpt>
      <trkpt lat="48.851978" lon="2.368238"><ele>41</ele><time>2025-03-23T07:15:25Z</time></trkpt>
      <trkpt lat="48.851888" lon="2.368086"><ele>41</ele><time>2025-03-23T07:15:30Z</time></trkpt>
      <trkpt lat="48.851800" lon="2.367931"><ele>40.9</ele><time>2025-03-23T07:15:35Z</time></trkpt>
      <trkpt lat="48.851714" lon="2.367773"><ele>40.9</ele><time>2025-03-23T07:15:40Z</time></trkpt>
      <trkpt lat="48.851630" lon="2.367613"><ele>40.8</ele><time>2025-03-23T07:15:45Z</time></trkpt>
      <trkpt lat="48.851549" lon="2.367449"><ele>40.7</ele><time>2025-03-23T07:15:50Z</time></trkpt>
      <trkpt lat="48.851470" lon="2.367283"><ele>40.7</ele><time>2025-03-23T07:15:55Z</time></trkpt>
      <trkpt lat="48.851393" lon="2.367115"><ele>40.6</ele><time>2025-03-23T07:16:00Z</time></trkpt>
      <trkpt lat="48.851318" lon="2.366944"><ele>40.5</ele><time>2025-03-23T07:16:05Z</time></trkpt>
      <trkpt lat="48.851246" lon="2.366771"><ele>40.4</ele><time>2025-03-23T07:16:10Z</time></trkpt>
      <trkpt lat="48.851177" lon="2.366595"><ele>40.2</ele><time>2025-03-23T07:16:15Z</time></trkpt>
      <trkpt lat="48.851110" lon="2.366417"><ele>40.1</ele><time>2025-03-23T07:16:20Z</time></trkpt>
      <trkpt lat="48.851045" lon="2.366237"><ele>40</ele><time>2025-03-23T07:16:25Z</time></trkpt>
      <trkpt lat="48.850983" lon="2.366055"><ele>39.8</ele><time>2025-03-23T07:16:30Z</time></trkpt>
      <trkpt lat="48.850924" lon="2.365871"><ele>39.7</ele><time>2025-03-23T07:16:35Z</time></trkpt>
      <trkpt lat="48.850867" lon="2.365685"><ele>39.5</ele><time>2025-03-23T07:16:40Z</time></trkpt>
      <trkpt lat="48.850813" lon="2.365497"><ele>39.3</ele><time>2025-03-23T07:16:45Z</time></trkpt>
      <trkpt lat="48.850762" lon="2.365308"><ele>39.1</ele><time>2025-03-23T07:16:50Z</time></trkpt>
      <trkpt lat="48.850713" lon="2.365117"><ele>38.9</ele><time>2025-03-23T07:16:55Z</time></trkpt>
      <trkpt lat="48.850667" lon="2.364924"><ele>38.8</ele><time>2025-03-23T07:17:00Z</time></trkpt>
      <trkpt lat="48.850624" lon="2.364730"><ele>38.5</ele><time>2025-03-23T07:17:05Z</time></trkpt>
      <trkpt lat="48.850583" lon="2.364535"><ele>38.3</ele><time>2025-03-23T07:17:10Z</time></trkpt>
      <trkpt lat="48.850545" lon="2.364338"><ele>38.1</ele><time>2025-03-23T07:17:15Z</time></trkpt>
      <trkpt lat="48.850510" lon="2.364140"><ele>37.9</ele><time>2025-03-23T07:17:20Z</time></trkpt>
      <trkpt lat="48.850478" lon="2.363941"><ele>37.7</ele><time>2025-03-23T07:17:25Z</time></trkpt>
      <trkpt lat="48.850449" lon="2.363741"><ele>37.4</ele><time>2025-03-23T07:17:30Z</time></trkpt>
      <trkpt lat="48.850422" lon="2.363540"><ele>37.2</ele><time>2025-03-23T07:17:35Z</time></trkpt>
      <trkpt lat="48.850398" lon="2.363338"><ele>37</ele><time>2025-03-23T07:17:40Z</time></trkpt>
      <trkpt lat="48.850378" lon="2.363136"><ele>36.7</ele><time>2025-03-23T07:17:45Z</time></trkpt>
      <trkpt lat="48.850360" lon="2.362933"><ele>36.5</ele><time>2025-03-23T07:17:50Z</time></trkpt>
      <trkpt lat="48.850344" lon="2.362729"><ele>36.2</ele><time>2025-03-23T07:17:55Z</time></trkpt>
      <trkpt lat="48.850332" lon="2.362525"><ele>36</ele><time>2025-03-23T07:18:00Z</time></trkpt>
      <trkpt lat="48.850323" lon="2.362321"><ele>35.7</ele><time>2025-03-23T07:18:05Z</time></trkpt>
      <trkpt lat="48.850316" lon="2.362116"><ele>35.4</ele><time>2025-03-23T07:18:10Z</time></trkpt>
      <trkpt lat="48.850313" lon="2.361911"><ele>35.2</ele><time>2025-03-23T07:18:15Z</time></trkpt>
      <trkpt lat="48.850312" lon="2.361706"><ele>34.9</ele><time>2025-03-23T07:18:20Z</time></trkpt>
      <trkpt lat="48.850314" lon="2.361501"><ele>34.7</ele><time>2025-03-23T07:18:25Z</time></trkpt>
      <trkpt lat="48.850319" lon="2.361296"><ele>34.4</ele><time>2025-03-23T07:18:30Z</time></trkpt>
      <trkpt lat="48.850327" lon="2.361092"><ele>34.2</ele><time>2025-03-23T07:18:35Z</time></trkpt>
      <trkpt lat="48.850338" lon="2.360887"><ele>33.9</ele><time>2025-03-23T07:18:40Z</time></trkpt>
      <trkpt lat="48.850352" lon="2.360684"><ele>33.7</ele><time>2025-03-23T07:18:45Z</time></trkpt>
      <trkpt lat="48.850368" lon="2.360480"><ele>33.4</ele><time>2025-03-23T07:18:50Z</time></trkpt>
      <trkpt lat="48.850388" lon="2.360277"><ele>33.2</ele><time>2025-03-23T07:18:55Z</time></trkpt>
      <trkpt lat="48.850410" lon="2.360075"><ele>32.9</ele><time>2025-03-23T07:19:00Z</time></trkpt>
      <trkpt lat="48.850435" lon="2.359874"><ele>32.7</ele><time>2025-03-23T07:19:05Z</time></trkpt>
      <trkpt lat="48.850463" lon="2.359673"><ele>32.4</ele><time>2025-03-23T07:19:10Z</time></trkpt>
      <trkpt lat="48.850494" lon="2.359474"><ele>32.2</ele><time>2025-03-23T07:19:15Z</time></trkpt>
      <trkpt lat="48.850528" lon="2.359275"><ele>32</ele><time>2025-03-23T07:19:20Z</time></trkpt>
      <trkpt lat="48.850564" lon="2.359078"><ele>31.8</ele><time>2025-03-23T07:19:25Z</time></trkpt>
      <trkpt lat="48.850603" lon="2.358882"><ele>31.6</ele><time>2025-03-23T07:19:30Z</time></trkpt>
      <trkpt lat="48.850645" lon="2.358687"><ele>31.3</ele><time>2025-03-23T07:19:35Z</time></trkpt>
      <trkpt lat="48.850690" lon="2.358494"><ele>31.1</ele><time>2025-03-23T07:19:40Z</time></trkpt>
      <trkpt lat="48.850737" lon="2.358302"><ele>31</ele><time>2025-03-23T07:19:45Z</time></trkpt>
      <trkpt lat="48.850787" lon="2.358112"><ele>30.8</ele><time>2025-03-23T07:19:50Z</time></trkpt>
      <trkpt lat="48.850840" lon="2.357923"><ele>30.6</ele><time>2025-03-23T07:19:55Z</time></trkpt>
      <trkpt lat="48.850895" lon="2.357736"><ele>30.4</ele><time>2025-03-23T07:20:00Z</time></trkpt>
      <trkpt lat="48.850953" lon="2.357551"><ele>30.3</ele><time>2025-03-23T07:20:05Z</time></trkpt>
      <trkpt lat="48.851014" lon="2.357368"><ele>30.1</ele><time>2025-03-23T07:20:10Z</time></trkpt>
      <trkpt lat="48.851077" lon="2.357187"><ele>30</ele><time>2025-03-23T07:20:15Z</time></trkpt>
      <trkpt lat="48.851143" lon="2.357008"><ele>29.8</ele><time>2025-03-23T07:20:20Z</time></trkpt>
      <trkpt lat="48.851211" lon="2.356832"><ele>29.7</ele><time>2025-03-23T07:20:25Z</time></trkpt>
      <trkpt lat="48.851282" lon="2.356657"><ele>29.6</ele><time>2025-03-23T07:20:30Z</time></trkpt>
      <trkpt lat="48.851355" lon="2.356485"><ele>29.5</ele><time>2025-03-23T07:20:35Z</time></trkpt>
      <trkpt lat="48.851431" lon="2.356315"><ele>29.4</ele><time>2025-03-23T07:20:40Z</time></trkpt>
      <trkpt lat="48.851509" lon="2.356148"><ele>29.3</ele><time>2025-03-23T07:20:45Z</time></trkpt>
      <trkpt lat="48.851589" lon="2.355983"><ele>29.2</ele><time>2025-03-23T07:20:50Z</time></trkpt>
      <trkpt lat="48.851672" lon="2.355821"><ele>29.2</ele><time>2025-03-23T07:20:55Z</time></trkpt>
      <trkpt lat="48.851757" lon="2.355662"><ele>29.1</ele><time>2025-03-23T07:21:00Z</time></trkpt>
      <trkpt lat="48.851844" lon="2.355506"><ele>29.1</ele><time>2025-03-23T07:21:05Z</time></trkpt>
      <trkpt lat="48.851933" lon="2.355352"><ele>29</ele><time>2025-03-23T07:21:10Z</time></trkpt>
      <trkpt lat="48.852024" lon="2.355201"><ele>29</ele><time>2025-03-23T07:21:15Z</time></trkpt>
      <trkpt lat="48.852118" lon="2.355054"><ele>29</ele><time>2025-03-23T07:21:20Z</time></trkpt>
      <trkpt lat="48.852214" lon="2.354909"><ele>29</ele><time>2025-03-23T07:21:25Z</time></trkpt>
      <trkpt lat="48.852311" lon="2.354768"><ele>29</ele><time>2025-03-23T07:21:30Z</time></trkpt>
      <trkpt lat="48.852411" lon="2.354630"><ele>29</ele><time>2025-03-23T07:21:35Z</time></trkpt>
      <trkpt lat="48.852512" lon="2.354495"><ele>29.1</ele><time>2025-03-23T07:21:40Z</time></trkpt>
      <trkpt lat="48.852616" lon="2.354363"><ele>29.1</ele><time>2025-03-23T07:21:45Z</time></trkpt>
      <trkpt lat="48.852721" lon="2.354235"><ele>29.2</ele><time>2025-03-23T07:21:50Z</time></trkpt>
      <trkpt lat="48.852828" lon="2.354110"><ele>29.2</ele><time>2025-03-23T07:21:55Z</time></trkpt>
      <trkpt lat="48.852937" lon="2.353989"><ele>29.3</ele><time>2025-03-23T07:22:00Z</time></trkpt>
      <trkpt lat="48.853047" lon="2.353872"><ele>29.4</ele><time>2025-03-23T07:22:05Z</time></trkpt>
      <trkpt lat="48.853159" lon="2.353758"><ele>29.5</ele><time>2025-03-23T07:22:10Z</time></trkpt>
      <trkpt lat="48.853273" lon="2.353647"><ele>29.6</ele><time>2025-03-23T07:22:15Z</time></trkpt>
      <trkpt lat="48.853388" lon="2.353541"><ele>29.7</ele><time>2025-03-23T07:22:20Z</time></trkpt>
      <trkpt lat="48.853505" lon="2.353438"><ele>29.9</ele><time>2025-03-23T07:22:25Z</time></trkpt>
      <trkpt lat="48.853623" lon="2.353339"><ele>30</ele><time>2025-03-23T07:22:30Z</time></trkpt>
      <trkpt lat="48.853742" lon="2.353244"><ele>30.1</ele><time>2025-03-23T07:22:35Z</time></trkpt>
      <trkpt lat="48.853863" lon="2.353153"><ele>30.3</ele><time>2025-03-23T07:22:40Z</time></trkpt>
      <trkpt lat="48.853985" lon="2.353066"><ele>30.5</ele><time>2025-03-23T07:22:45Z</time></trkpt>
      <trkpt lat="48.854108" lon="2.352982"><ele>30.6</ele><time>2025-03-23T07:22:50Z</time></trkpt>
      <trkpt lat="48.854233" lon="2.352903"><ele>30.8</ele><time>2025-03-23T07:22:55Z</time></trkpt>
      <trkpt lat="48.854358" lon="2.352828"><ele>31</ele><time>2025-03-23T07:23:00Z</time></trkpt>
      <trkpt lat="48.854485" lon="2.352757"><ele>31.2</ele><time>2025-03-23T07:23:05Z</time></trkpt>
      <trkpt lat="48.854612" lon="2.352690"><ele>31.4</ele><time>2025-03-23T07:23:10Z</time></trkpt>
      <trkpt lat="48.854740" lon="2.352627"><ele>31.6</ele><time>2025-03-23T07:23:15Z</time></trkpt>
      <trkpt lat="48.854870" lon="2.352569"><ele>31.8</ele><time>2025-03-23T07:23:20Z</time></trkpt>
      <trkpt lat="48.855000" lon="2.352515"><ele>32</ele><time>2025-03-23T07:23:25Z</time></trkpt>
      <trkpt lat="48.855130" lon="2.352465"><ele>32.3</ele><time>2025-03-23T07:23:30Z</time></trkpt>
      <trkpt lat="48.855262" lon="2.352419"><ele>32.5</ele><time>2025-03-23T07:23:35Z</time></trkpt>
      <trkpt lat="48.855394" lon="2.352377"><ele>32.7</ele><time>2025-03-23T07:23:40Z</time></trkpt>
      <trkpt lat="48.855527" lon="2.352340"><ele>33</ele><time>2025-03-23T07:23:45Z</time></trkpt>
      <trkpt lat="48.855660" lon="2.352307"><ele>33.2</ele><time>2025-03-23T07:23:50Z</time></trkpt>
      <trkpt lat="48.855793" lon="2.352279"><ele>33.5</ele><time>2025-03-23T07:23:55Z</time></trkpt>
      <trkpt lat="48.855927" lon="2.352255"><ele>33.7</ele><time>2025-03-23T07:24:00Z</time></trkpt>
      <trkpt lat="48.856061" lon="2.352235"><ele>34</ele><time>2025-03-23T07:24:05Z</time></trkpt>
      <trkpt lat="48.856196" lon="2.352220"><ele>34.2</ele><time>2025-03-23T07:24:10Z</time></trkpt>
      <trkpt lat="48.856330" lon="2.352209"><ele>34.5</ele><time>2025-03-23T07:24:15Z</time></trkpt>
      <trkpt lat="48.856465" lon="2.352202"><ele>34.7</ele><time>2025-03-23T07:24:20Z</time></trkpt>
      <trkpt lat="48.856600" lon="2.352200"><ele>35</ele><time>2025-03-23T07:24:25Z</time></trkpt>
    </trkseg>
  </trk>
</gpx>
