<?xml version="1.0" encoding="UTF-8"?>
<gpx version="1.1" creator="run-together-e2e" xmlns="http://www.topografix.com/GPX/1/1">
  <metadata><time>2025-03-30T07:00:00Z</time></metadata>
  <trk>
    <name>Boucle du fil e2e</name>
    <type>running</type>
    <trkseg>
      <trkpt lat="48.856600" lon="2.352200"><ele>35</ele><time>2025-03-30T07:00:00Z</time></trkpt>
      <trkpt lat="48.856735" lon="2.352202"><ele>35.2</ele><time>2025-03-30T07:00:05Z</time></trkpt>
      <trkpt lat="48.856870" lon="2.352208"><ele>35.5</ele><time>2025-03-30T07:00:10Z</time></trkpt>
      <trkpt lat="48.857004" lon="2.352218"><ele>35.7</ele><time>2025-03-30T07:00:15Z</time></trkpt>
      <trkpt lat="48.857139" lon="2.352233"><ele>36</ele><time>2025-03-30T07:00:20Z</time></trkpt>
      <trkpt lat="48.857273" lon="2.352251"><ele>36.2</ele><time>2025-03-30T07:00:25Z</time></trkpt>
      <trkpt lat="48.857407" lon="2.352274"><ele>36.4</ele><time>2025-03-30T07:00:30Z</time></trkpt>
      <trkpt lat="48.857541" lon="2.352300"><ele>36.7</ele><time>2025-03-30T07:00:35Z</time></trkpt>
      <trkpt lat="48.857674" lon="2.352331"><ele>36.9</ele><time>2025-03-30T07:00:40Z</time></trkpt>
      <trkpt lat="48.857807" lon="2.352366"><ele>37.1</ele><time>2025-03-30T07:00:45Z</time></trkpt>
      <trkpt lat="48.857939" lon="2.352404"><ele>37.3</ele><time>2025-03-30T07:00:50Z</time></trkpt>
      <trkpt lat="48.858071" lon="2.352447"><ele>37.6</ele><time>2025-03-30T07:00:55Z</time></trkpt>
      <trkpt lat="48.858202" lon="2.352494"><ele>37.8</ele><time>2025-03-30T07:01:00Z</time></trkpt>
      <trkpt lat="48.858333" lon="2.352545"><ele>38</ele><time>2025-03-30T07:01:05Z</time></trkpt>
      <trkpt lat="48.858463" lon="2.352599"><ele>38.2</ele><time>2025-03-30T07:01:10Z</time></trkpt>
      <trkpt lat="48.858592" lon="2.352658"><ele>38.4</ele><time>2025-03-30T07:01:15Z</time></trkpt>
      <trkpt lat="48.858720" lon="2.352720"><ele>38.6</ele><time>2025-03-30T07:01:20Z</time></trkpt>
      <trkpt lat="48.858848" lon="2.352787"><ele>38.8</ele><time>2025-03-30T07:01:25Z</time></trkpt>
      <trkpt lat="48.858975" lon="2.352857"><ele>39</ele><time>2025-03-30T07:01:30Z</time></trkpt>
      <trkpt lat="48.859100" lon="2.352931"><ele>39.1</ele><time>2025-03-30T07:01:35Z</time></trkpt>
      <trkpt lat="48.859225" lon="2.353009"><ele>39.3</ele><time>2025-03-30T07:01:40Z</time></trkpt>
      <trkpt lat="48.859349" lon="2.353091"><ele>39.5</ele><time>2025-03-30T07:01:45Z</time></trkpt>
      <trkpt lat="48.859471" lon="2.353176"><ele>39.6</ele><time>2025-03-30T07:01:50Z</time></trkpt>
      <trkpt lat="48.859592" lon="2.353265"><ele>39.8</ele><time>2025-03-30T07:01:55Z</time></trkpt>
      <trkpt lat="48.859713" lon="2.353358"><ele>39.9</ele><time>2025-03-30T07:02:00Z</time></trkpt>
      <trkpt lat="48.859832" lon="2.353455"><ele>40.1</ele><time>2025-03-30T07:02:05Z</time></trkpt>
      <trkpt lat="48.859949" lon="2.353555"><ele>40.2</ele><time>2025-03-30T07:02:10Z</time></trkpt>
      <trkpt lat="48.860065" lon="2.353658"><ele>40.3</ele><time>2025-03-30T07:02:15Z</time></trkpt>
      <trkpt lat="48.860180" lon="2.353766"><ele>40.4</ele><time>2025-03-30T07:02:20Z</time></trkpt>
      <trkpt lat="48.860294" lon="2.353876"><ele>40.5</ele><time>2025-03-30T07:02:25Z</time></trkpt>
      <trkpt lat="48.860406" lon="2.353990"><ele>40.6</ele><time>2025-03-30T07:02:30Z</time></trkpt>
      <trkpt lat="48.860516" lon="2.354108"><ele>40.7</ele><time>2025-03-30T07:02:35Z</time></trkpt>
      <trkpt lat="48.860625" lon="2.354229"><ele>40.7</ele><time>2025-03-30T07:02:40Z</time></trkpt>
      <trkpt lat="48.860733" lon="2.354353"><ele>40.8</ele><time>2025-03-30T07:02:45Z</time></trkpt>
      <trkpt lat="48.860838" lon="2.354480"><ele>40.9</ele><time>2025-03-30T07:02:50Z</time></trkpt>
      <trkpt lat="48.860942" lon="2.354610"><ele>40.9</ele><time>2025-03-30T07:02:55Z</time></trkpt>
      <trkpt lat="48.861044" lon="2.354744"><ele>40.9</ele><time>2025-03-30T07:03:00Z</time></trkpt>
      <trkpt lat="48.861145" lon="2.354881"><ele>41</ele><time>2025-03-30T07:03:05Z</time></trkpt>
      <trkpt lat="48.861243" lon="2.355020"><ele>41</ele><time>2025-03-30T07:03:10Z</time></trkpt>
      <trkpt lat="48.861340" lon="2.355163"><ele>41</ele><time>2025-03-30T07:03:15Z</time></trkpt>
      <trkpt lat="48.861435" lon="2.355309"><ele>41</ele><time>2025-03-30T07:03:20Z</time></trkpt>
      <trkpt lat="48.861528" lon="2.355457"><ele>41</ele><time>2025-03-30T07:03:25Z</time></trkpt>
      <trkpt lat="48.861619" lon="2.355608"><ele>41</ele><time>2025-03-30T07:03:30Z</time></trkpt>
      <trkpt lat="48.861708" lon="2.355762"><ele>40.9</ele><time>2025-03-30T07:03:35Z</time></trkpt>
      <trkpt lat="48.861795" lon="2.355919"><ele>40.9</ele><time>2025-03-30T07:03:40Z</time></trkpt>
      <trkpt lat="48.861879" lon="2.356078"><ele>40.8</ele><time>2025-03-30T07:03:45Z</time></trkpt>
      <trkpt lat="48.861962" lon="2.356240"><ele>40.8</ele><time>2025-03-30T07:03:50Z</time></trkpt>
      <trkpt lat="48.862043" lon="2.356404"><ele>40.7</ele><time>2025-03-30T07:03:55Z</time></trkpt>
      <trkpt lat="48.862121" lon="2.356571"><ele>40.6</ele><time>2025-03-30T07:04:00Z</time></trkpt>
      <trkpt lat="48.862197" lon="2.356740"><ele>40.5</ele><time>2025-03-30T07:04:05Z</time></trkpt>
      <trkpt lat="48.862271" lon="2.356912"><ele>40.5</ele><time>2025-03-30T07:04:10Z</time></trkpt>
      <trkpt lat="48.862343" lon="2.357085"><ele>40.3</ele><time>2025-03-30T07:04:15Z</time></trkpt>
      <trkpt lat="48.862412" lon="2.357261"><ele>40.2</ele><time>2025-03-30T07:04:20Z</time></trkpt>
      <trkpt lat="48.862479" lon="2.357439"><ele>40.1</ele><time>2025-03-30T07:04:25Z</time></trkpt>
      <trkpt lat="48.862544" lon="2.357619"><ele>40</ele><time>2025-03-30T07:04:30Z</time></trkpt>
      <trkpt lat="48.862606" lon="2.357800"><ele>39.8</ele><time>2025-03-30T07:04:35Z</time></trkpt>
      <trkpt lat="48.862666" lon="2.357984"><ele>39.7</ele><time>2025-03-30T07:04:40Z</time></trkpt>
      <trkpt lat="48.862723" lon="2.358169"><ele>39.5</ele><time>2025-03-30T07:04:45Z</time></trkpt>
      <trkpt lat="48.862778" lon="2.358356"><ele>39.4</ele><time>2025-03-30T07:04:50Z</time></trkpt>
      <trkpt lat="48.862831" lon="2.358545"><ele>39.2</ele><time>2025-03-30T07:04:55Z</time></trkpt>
      <trkpt lat="48.862881" lon="2.358735"><ele>39</ele><time>2025-03-30T07:05:00Z</time></trkpt>
      <trkpt lat="48.862928" lon="2.358927"><ele>38.9</ele><time>2025-03-30T07:05:05Z</time></trkpt>
      <trkpt lat="48.862973" lon="2.359120"><ele>38.7</ele><time>2025-03-30T07:05:10Z</time></trkpt>
      <trkpt lat="48.863016" lon="2.359315"><ele>38.5</ele><time>2025-03-30T07:05:15Z</time></trkpt>
      <trkpt lat="48.863056" lon="2.359510"><ele>38.3</ele><time>2025-03-30T07:05:20Z</time></trkpt>
      <trkpt lat="48.863093" lon="2.359707"><ele>38.1</ele><time>2025-03-30T07:05:25Z</time></trkpt>
      <trkpt lat="48.863128" lon="2.359905"><ele>37.9</ele><time>2025-03-30T07:05:30Z</time></trkpt>
      <trkpt lat="48.863160" lon="2.360104"><ele>37.7</ele><time>2025-03-30T07:05:35Z</time></trkpt>
      <trkpt lat="48.863189" lon="2.360304"><ele>37.4</ele><time>2025-03-30T07:05:40Z</time></trkpt>
      <trkpt lat="48.863216" lon="2.360505"><ele>37.2</ele><time>2025-03-30T07:05:45Z</time></trkpt>
      <trkpt lat="48.863240" lon="2.360707"><ele>37</ele><time>2025-03-30T07:05:50Z</time></trkpt>
      <trkpt lat="48.863262" lon="2.360909"><ele>36.8</ele><time>2025-03-30T07:05:55Z</time></trkpt>
      <trkpt lat="48.863280" lon="2.361112"><ele>36.5</ele><time>2025-03-30T07:06:00Z</time></trkpt>
      <trkpt lat="48.863297" lon="2.361315"><ele>36.3</ele><time>2025-03-30T07:06:05Z</time></trkpt>
      <trkpt lat="48.863310" lon="2.361519"><ele>36.1</ele><time>2025-03-30T07:06:10Z</time></trkpt>
      <trkpt lat="48.863321" lon="2.361723"><ele>35.8</ele><time>2025-03-30T07:06:15Z</time></trkpt>
      <trkpt lat="48.863329" lon="2.361928"><ele>35.6</ele><time>2025-03-30T07:06:20Z</time></trkpt>
      <trkpt lat="48.863334" lon="2.362133"><ele>35.4</ele><time>2025-03-30T07:06:25Z</time></trkpt>
      <trkpt lat="48.863337" lon="2.362338"><ele>35.1</ele><time>2025-03-30T07:06:30Z</time></trkpt>
      <trkpt lat="48.863337" lon="2.362542"><ele>34.9</ele><time>2025-03-30T07:06:35Z</time></trkpt>
      <trkpt lat="48.863334" lon="2.362747"><ele>34.6</ele><time>2025-03-30T07:06:40Z</time></trkpt>
      <trkpt lat="48.863329" lon="2.362952"><ele>34.4</ele><time>2025-03-30T07:06:45Z</time></trkpt>
      <trkpt lat="48.863321" lon="2.363157"><ele>34.2</ele><time>2025-03-30T07:06:50Z</time></trkpt>
      <trkpt lat="48.863310" lon="2.363361"><ele>33.9</ele><time>2025-03-30T07:06:55Z</time></trkpt>
      <trkpt lat="48.863297" lon="2.363565"><ele>33.7</ele><time>2025-03-30T07:07:00Z</time></trkpt>
      <trkpt lat="48.863280" lon="2.363768"><ele>33.5</ele><time>2025-03-30T07:07:05Z</time></trkpt>
      <trkpt lat="48.863262" lon="2.363971"><ele>33.2</ele><time>2025-03-30T07:07:10Z</time></trkpt>
      <trkpt lat="48.863240" lon="2.364173"><ele>33</ele><time>2025-03-30T07:07:15Z</time></trkpt>
      <trkpt lat="48.863216" lon="2.364375"><ele>32.8</ele><time>2025-03-30T07:07:20Z</time></trkpt>
      <trkpt lat="48.863189" lon="2.364576"><ele>32.6</ele><time>2025-03-30T07:07:25Z</time></trkpt>
      <trkpt lat="48.863160" lon="2.364776"><ele>32.3</ele><time>2025-03-30T07:07:30Z</time></trkpt>
      <trkpt lat="48.863128" lon="2.364975"><ele>32.1</ele><time>2025-03-30T07:07:35Z</time></trkpt>
      <trkpt lat="48.863093" lon="2.365173"><ele>31.9</ele><time>2025-03-30T07:07:40Z</time></trkpt>
      <trkpt lat="48.863056" lon="2.365370"><ele>31.7</ele><time>2025-03-30T07:07:45Z</time></trkpt>
      <trkpt lat="48.863016" lon="2.365565"><ele>31.5</ele><time>2025-03-30T07:07:50Z</time></trkpt>
      <trkpt lat="48.862973" lon="2.365760"><ele>31.3</ele><time>2025-03-30T07:07:55Z</time></trkpt>
      <trkpt lat="48.862928" lon="2.365953"><ele>31.1</ele><time>2025-03-30T07:08:00Z</time></trkpt>
      <trkpt lat="48.862881" lon="2.366145"><ele>31</ele><time>2025-03-30T07:08:05Z</time></trkpt>
      <trkpt lat="48.862831" lon="2.366335"><ele>30.8</ele><time>2025-03-30T07:08:10Z</time></trkpt>
      <trkpt lat="48.862778" lon="2.366524"><ele>30.6</ele><time>2025-03-30T07:08:15Z</time></trkpt>
      <trkpt lat="48.862723" lon="2.366711"><ele>30.5</ele><time>2025-03-30T07:08:20Z</time></trkpt>
      <trkpt lat="48.862666" lon="2.366896"><ele>30.3</ele><time>2025-03-30T07:08:25Z</time></trkpt>
      <trkpt lat="48.862606" lon="2.367080"><ele>30.2</ele><time>2025-03-30T07:08:30Z</time></trkpt>
      <trkpt lat="48.862544" lon="2.367261"><ele>30</ele><time>2025-03-30T07:08:35Z</time></trkpt>
      <trkpt lat="48.862479" lon="2.367441"><ele>29.9</ele><time>2025-03-30T07:08:40Z</time></trkpt>
      <trkpt lat="48.862412" lon="2.367619"><ele>29.8</ele><time>2025-03-30T07:08:45Z</time></trkpt>
      <trkpt lat="48.862343" lon="2.367795"><ele>29.7</ele><time>2025-03-30T07:08:50Z</time></trkpt>
      <trkpt lat="48.862271" lon="2.367968"><ele>29.5</ele><time>2025-03-30T07:08:55Z</time></trkpt>
      <trkpt lat="48.862197" lon="2.368140"><ele>29.5</ele><time>2025-03-30T07:09:00Z</time></trkpt>
      <trkpt lat="48.862121" lon="2.368309"><ele>29.4</ele><time>2025-03-30T07:09:05Z</time></trkpt>
      <trkpt lat="48.862043" lon="2.368475"><ele>29.3</ele><time>2025-03-30T07:09:10Z</time></trkpt>
      <trkpt lat="48.861962" lon="2.368640"><ele>29.2</ele><time>2025-03-30T07:09:15Z</time></trkpt>
      <trkpt lat="48.861879" lon="2.368802"><ele>29.2</ele><time>2025-03-30T07:09:20Z</time></trkpt>
      <trkpt lat="48.861795" lon="2.368961"><ele>29.1</ele><time>2025-03-30T07:09:25Z</time></trkpt>
      <trkpt lat="48.861708" lon="2.369117"><ele>29.1</ele><time>2025-03-30T07:09:30Z</time></trkpt>
      <trkpt lat="48.861619" lon="2.369271"><ele>29</ele><time>2025-03-30T07:09:35Z</time></trkpt>
      <trkpt lat="48.861528" lon="2.369423"><ele>29</ele><time>2025-03-30T07:09:40Z</time></trkpt>
      <trkpt lat="48.861435" lon="2.369571"><ele>29</ele><time>2025-03-30T07:09:45Z</time></trkpt>
      <trkpt lat="48.861340" lon="2.369717"><ele>29</ele><time>2025-03-30T07:09:50Z</time></trkpt>
      <trkpt lat="48.861243" lon="2.369860"><ele>29</ele><time>2025-03-30T07:09:55Z</time></trkpt>
      <trkpt lat="48.861145" lon="2.369999"><ele>29</ele><time>2025-03-30T07:10:00Z</time></trkpt>
      <trkpt lat="48.861044" lon="2.370136"><ele>29.1</ele><time>2025-03-30T07:10:05Z</time></trkpt>
      <trkpt lat="48.860942" lon="2.370270"><ele>29.1</ele><time>2025-03-30T07:10:10Z</time></trkpt>
      <trkpt lat="48.860838" lon="2.370400"><ele>29.1</ele><time>2025-03-30T07:10:15Z</time></trkpt>
      <trkpt lat="48.860733" lon="2.370527"><ele>29.2</ele><time>2025-03-30T07:10:20Z</time></trkpt>
      <trkpt lat="48.860625" lon="2.370651"><ele>29.3</ele><time>2025-03-30T07:10:25Z</time></trkpt>
      <trkpt lat="48.860516" lon="2.370772"><ele>29.3</ele><time>2025-03-30T07:10:30Z</time></trkpt>
      <trkpt lat="48.860406" lon="2.370890"><ele>29.4</ele><time>2025-03-30T07:10:35Z</time></trkpt>
      <trkpt lat="48.860294" lon="2.371004"><ele>29.5</ele><time>2025-03-30T07:10:40Z</time></trkpt>
      <trkpt lat="48.860180" lon="2.371114"><ele>29.6</ele><time>2025-03-30T07:10:45Z</time></trkpt>
      <trkpt lat="48.860065" lon="2.371221"><ele>29.7</ele><time>2025-03-30T07:10:50Z</time></trkpt>
      <trkpt lat="48.859949" lon="2.371325"><ele>29.8</ele><time>2025-03-30T07:10:55Z</time></trkpt>
      <trkpt lat="48.859832" lon="2.371425"><ele>29.9</ele><time>2025-03-30T07:11:00Z</time></trkpt>
      <trkpt lat="48.859713" lon="2.371522"><ele>30.1</ele><time>2025-03-30T07:11:05Z</time></trkpt>
      <trkpt lat="48.859592" lon="2.371614"><ele>30.2</ele><time>2025-03-30T07:11:10Z</time></trkpt>
      <trkpt lat="48.859471" lon="2.371704"><ele>30.4</ele><time>2025-03-30T07:11:15Z</time></trkpt>
      <trkpt lat="48.859349" lon="2.371789"><ele>30.5</ele><time>2025-03-30T07:11:20Z</time></trkpt>
      <trkpt lat="48.859225" lon="2.371871"><ele>30.7</ele><time>2025-03-30T07:11:25Z</time></trkpt>
      <trkpt lat="48.859100" lon="2.371949"><ele>30.9</ele><time>2025-03-30T07:11:30Z</time></trkpt>
      <trkpt lat="48.858975" lon="2.372023"><ele>31</ele><time>2025-03-30T07:11:35Z</time></trkpt>
      <trkpt lat="48.858848" lon="2.372093"><ele>31.2</ele><time>2025-03-30T07:11:40Z</time></trkpt>
      <trkpt lat="48.858720" lon="2.372160"><ele>31.4</ele><time>2025-03-30T07:11:45Z</time></trkpt>
      <trkpt lat="48.858592" lon="2.372222"><ele>31.6</ele><time>2025-03-30T07:11:50Z</time></trkpt>
      <trkpt lat="48.858463" lon="2.372281"><ele>31.8</ele><time>2025-03-30T07:11:55Z</time></trkpt>
      <trkpt lat="48.858333" lon="2.372335"><ele>32</ele><time>2025-03-30T07:12:00Z</time></trkpt>
      <trkpt lat="48.858202" lon="2.372386"><ele>32.2</ele><time>2025-03-30T07:12:05Z</time></trkpt>
      <trkpt lat="48.858071" lon="2.372433"><ele>32.4</ele><time>2025-03-30T07:12:10Z</time></trkpt>
      <trkpt lat="48.857939" lon="2.372476"><ele>32.7</ele><time>2025-03-30T07:12:15Z</time></trkpt>
      <trkpt lat="48.857807" lon="2.372514"><ele>32.9</ele><time>2025-03-30T07:12:20Z</time></trkpt>
      <trkpt lat="48.857674" lon="2.372549"><ele>33.1</ele><time>2025-03-30T07:12:25Z</time></trkpt>
      <trkpt lat="48.857541" lon="2.372580"><ele>33.3</ele><time>2025-03-30T07:12:30Z</time></trkpt>
      <trkpt lat="48.857407" lon="2.372606"><ele>33.6</ele><time>2025-03-30T07:12:35Z</time></trkpt>
      <trkpt lat="48.857273" lon="2.372629"><ele>33.8</ele><time>2025-03-30T07:12:40Z</time></trkpt>
      <trkpt lat="48.857139" lon="2.372647"><ele>34</ele><time>2025-03-30T07:12:45Z</time></trkpt>
      <trkpt lat="48.857004" lon="2.372661"><ele>34.3</ele><time>2025-03-30T07:12:50Z</time></trkpt>
      <trkpt lat="48.856870" lon="2.372672"><ele>34.5</ele><time>2025-03-30T07:12:55Z</time></trkpt>
      <trkpt lat="48.856735" lon="2.372678"><ele>34.8</ele><time>2025-03-30T07:13:00Z</time></trkpt>
      <trkpt lat="48.856600" lon="2.372680"><ele>35</ele><time>2025-03-30T07:13:05Z</time></trkpt>
      <trkpt lat="48.856465" lon="2.372678"><ele>35.2</ele><time>2025-03-30T07:13:10Z</time></trkpt>
      <trkpt lat="48.856330" lon="2.372672"><ele>35.5</ele><time>2025-03-30T07:13:15Z</time></trkpt>
      <trkpt lat="48.856196" lon="2.372661"><ele>35.7</ele><time>2025-03-30T07:13:20Z</time></trkpt>
      <trkpt lat="48.856061" lon="2.372647"><ele>36</ele><time>2025-03-30T07:13:25Z</time></trkpt>
      <trkpt lat="48.855927" lon="2.372629"><ele>36.2</ele><time>2025-03-30T07:13:30Z</time></trkpt>
      <trkpt lat="48.855793" lon="2.372606"><ele>36.4</ele><time>2025-03-30T07:13:35Z</time></trkpt>
      <trkpt lat="48.855659" lon="2.372580"><ele>36.7</ele><time>2025-03-30T07:13:40Z</time></trkpt>
      <trkpt lat="48.855526" lon="2.372549"><ele>36.9</ele><time>2025-03-30T07:13:45Z</time></trkpt>
      <trkpt lat="48.855393" lon="2.372514"><ele>37.1</ele><time>2025-03-30T07:13:50Z</time></trkpt>
      <trkpt lat="48.855261" lon="2.372476"><ele>37.3</ele><time>2025-03-30T07:13:55Z</time></trkpt>
      <trkpt lat="48.855129" lon="2.372433"><ele>37.6</ele><time>2025-03-30T07:14:00Z</time></trkpt>
      <trkpt lat="48.854998" lon="2.372386"><ele>37.8</ele><time>2025-03-30T07:14:05Z</time></trkpt>
      <trkpt lat="48.854867" lon="2.372335"><ele>38</ele><time>2025-03-30T07:14:10Z</time></trkpt>
      <trkpt lat="48.854737" lon="2.372281"><ele>38.2</ele><time>2025-03-30T07:14:15Z</time></trkpt>
      <trkpt lat="48.854608" lon="2.372222"><ele>38.4</ele><time>2025-03-30T07:14:20Z</time></trkpt>
      <trkpt lat="48.854480" lon="2.372160"><ele>38.6</ele><time>2025-03-30T07:14:25Z</time></trkpt>
      <trkpt lat="48.854352" lon="2.372093"><ele>38.8</ele><time>2025-03-30T07:14:30Z</time></trkpt>
      <trkpt lat="48.854225" lon="2.372023"><ele>39</ele><time>2025-03-30T07:14:35Z</time></trkpt>
      <trkpt lat="48.854100" lon="2.371949"><ele>39.1</ele><time>2025-03-30T07:14:40Z</time></trkpt>
      <trkpt lat="48.853975" lon="2.371871"><ele>39.3</ele><time>2025-03-30T07:14:45Z</time></trkpt>
      <trkpt lat="48.853851" lon="2.371789"><ele>39.5</ele><time>2025-03-30T07:14:50Z</time></trkpt>
      <trkpt lat="48.853729" lon="2.371704"><ele>39.6</ele><time>2025-03-30T07:14:55Z</time></trkpt>
      <trkpt lat="48.853608" lon="2.371614"><ele>39.8</ele><time>2025-03-30T07:15:00Z</time></trkpt>
      <trkpt lat="48.853487" lon="2.371522"><ele>39.9</ele><time>2025-03-30T07:15:05Z</time></trkpt>
      <trkpt lat="48.853368" lon="2.371425"><ele>40.1</ele><time>2025-03-30T07:15:10Z</time></trkpt>
      <trkpt lat="48.853251" lon="2.371325"><ele>40.2</ele><time>2025-03-30T07:15:15Z</time></trkpt>
      <trkpt lat="48.853135" lon="2.371221"><ele>40.3</ele><time>2025-03-30T07:15:20Z</time></trkpt>
      <trkpt lat="48.853020" lon="2.371114"><ele>40.4</ele><time>2025-03-30T07:15:25Z</time></trkpt>
      <trkpt lat="48.852906" lon="2.371004"><ele>40.5</ele><time>2025-03-30T07:15:30Z</time></trkpt>
      <trkpt lat="48.852794" lon="2.370890"><ele>40.6</ele><time>2025-03-30T07:15:35Z</time></trkpt>
      <trkpt lat="48.852684" lon="2.370772"><ele>40.7</ele><time>2025-03-30T07:15:40Z</time></trkpt>
      <trkpt lat="48.852575" lon="2.370651"><ele>40.7</ele><time>2025-03-30T07:15:45Z</time></trkpt>
      <trkpt lat="48.852467" lon="2.370527"><ele>40.8</ele><time>2025-03-30T07:15:50Z</time></trkpt>
      <trkpt lat="48.852362" lon="2.370400"><ele>40.9</ele><time>2025-03-30T07:15:55Z</time></trkpt>
      <trkpt lat="48.852258" lon="2.370270"><ele>40.9</ele><time>2025-03-30T07:16:00Z</time></trkpt>
      <trkpt lat="48.852156" lon="2.370136"><ele>40.9</ele><time>2025-03-30T07:16:05Z</time></trkpt>
      <trkpt lat="48.852055" lon="2.369999"><ele>41</ele><time>2025-03-30T07:16:10Z</time></trkpt>
      <trkpt lat="48.851957" lon="2.369860"><ele>41</ele><time>2025-03-30T07:16:15Z</time></trkpt>
      <trkpt lat="48.851860" lon="2.369717"><ele>41</ele><time>2025-03-30T07:16:20Z</time></trkpt>
      <trkpt lat="48.851765" lon="2.369571"><ele>41</ele><time>2025-03-30T07:16:25Z</time></trkpt>
      <trkpt lat="48.851672" lon="2.369423"><ele>41</ele><time>2025-03-30T07:16:30Z</time></trkpt>
      <trkpt lat="48.851581" lon="2.369271"><ele>41</ele><time>2025-03-30T07:16:35Z</time></trkpt>
      <trkpt lat="48.851492" lon="2.369117"><ele>40.9</ele><time>2025-03-30T07:16:40Z</time></trkpt>
      <trkpt lat="48.851405" lon="2.368961"><ele>40.9</ele><time>2025-03-30T07:16:45Z</time></trkpt>
      <trkpt lat="48.851321" lon="2.368802"><ele>40.8</ele><time>2025-03-30T07:16:50Z</time></trkpt>
      <trkpt lat="48.851238" lon="2.368640"><ele>40.8</ele><time>2025-03-30T07:16:55Z</time></trkpt>
      <trkpt lat="48.851157" lon="2.368475"><ele>40.7</ele><time>2025-03-30T07:17:00Z</time></trkpt>
      <trkpt lat="48.851079" lon="2.368309"><ele>40.6</ele><time>2025-03-30T07:17:05Z</time></trkpt>
      <trkpt lat="48.851003" lon="2.368140"><ele>40.5</ele><time>2025-03-30T07:17:10Z</time></trkpt>
      <trkpt lat="48.850929" lon="2.367968"><ele>40.5</ele><time>2025-03-30T07:17:15Z</time></trkpt>
      <trkpt lat="48.850857" lon="2.367795"><ele>40.3</ele><time>2025-03-30T07:17:20Z</time></trkpt>
      <trkpt lat="48.850788" lon="2.367619"><ele>40.2</ele><time>2025-03-30T07:17:25Z</time></trkpt>
      <trkpt lat="48.850721" lon="2.367441"><ele>40.1</ele><time>2025-03-30T07:17:30Z</time></trkpt>
      <trkpt lat="48.850656" lon="2.367261"><ele>40</ele><time>2025-03-30T07:17:35Z</time></trkpt>
      <trkpt lat="48.850594" lon="2.367080"><ele>39.8</ele><time>2025-03-30T07:17:40Z</time></trkpt>
      <trkpt lat="48.850534" lon="2.366896"><ele>39.7</ele><time>2025-03-30T07:17:45Z</time></trkpt>
      <trkpt lat="48.850477" lon="2.366711"><ele>39.5</ele><time>2025-03-30T07:17:50Z</time></trkpt>
      <trkpt lat="48.850422" lon="2.366524"><ele>39.4</ele><time>2025-03-30T07:17:55Z</time></trkpt>
      <trkpt lat="48.850369" lon="2.366335"><ele>39.2</ele><time>2025-03-30T07:18:00Z</time></trkpt>
      <trkpt lat="48.850319" lon="2.366145"><ele>39</ele><time>2025-03-30T07:18:05Z</time></trkpt>
      <trkpt lat="48.850272" lon="2.365953"><ele>38.9</ele><time>2025-03-30T07:18:10Z</time></trkpt>
      <trkpt lat="48.850227" lon="2.365760"><ele>38.7</ele><time>2025-03-30T07:18:15Z</time></trkpt>
      <trkpt lat="48.850184" lon="2.365565"><ele>38.5</ele><time>2025-03-30T07:18:20Z</time></trkpt>
      <trkpt lat="48.850144" lon="2.365370"><ele>38.3</ele><time>2025-03-30T07:18:25Z</time></trkpt>
      <trkpt lat="48.850107" lon="2.365173"><ele>38.1</ele><time>2025-03-30T07:18:30Z</time></trkpt>
      <trkpt lat="48.850072" lon="2.364975"><ele>37.9</ele><time>2025-03-30T07:18:35Z</time></trkpt>
      <trkpt lat="48.850040" lon="2.364776"><ele>37.7</ele><time>2025-03-30T07:18:40Z</time></trkpt>
      <trkpt lat="48.850011" lon="2.364576"><ele>37.4</ele><time>2025-03-30T07:18:45Z</time></trkpt>
      <trkpt lat="48.849984" lon="2.364375"><ele>37.2</ele><time>2025-03-30T07:18:50Z</time></trkpt>
      <trkpt lat="48.849960" lon="2.364173"><ele>37</ele><time>2025-03-30T07:18:55Z</time></trkpt>
      <trkpt lat="48.849938" lon="2.363971"><ele>36.8</ele><time>2025-03-30T07:19:00Z</time></trkpt>
      <trkpt lat="48.849920" lon="2.363768"><ele>36.5</ele><time>2025-03-30T07:19:05Z</time></trkpt>
      <trkpt lat="48.849903" lon="2.363565"><ele>36.3</ele><time>2025-03-30T07:19:10Z</time></trkpt>
      <trkpt lat="48.849890" lon="2.363361"><ele>36.1</ele><time>2025-03-30T07:19:15Z</time></trkpt>
      <trkpt lat="48.849879" lon="2.363157"><ele>35.8</ele><time>2025-03-30T07:19:20Z</time></trkpt>
      <trkpt lat="48.849871" lon="2.362952"><ele>35.6</ele><time>2025-03-30T07:19:25Z</time></trkpt>
      <trkpt lat="48.849866" lon="2.362747"><ele>35.4</ele><time>2025-03-30T07:19:30Z</time></trkpt>
      <trkpt lat="48.849863" lon="2.362542"><ele>35.1</ele><time>2025-03-30T07:19:35Z</time></trkpt>
      <trkpt lat="48.849863" lon="2.362338"><ele>34.9</ele><time>2025-03-30T07:19:40Z</time></trkpt>
      <trkpt lat="48.849866" lon="2.362133"><ele>34.6</ele><time>2025-03-30T07:19:45Z</time></trkpt>
      <trkpt lat="48.849871" lon="2.361928"><ele>34.4</ele><time>2025-03-30T07:19:50Z</time></trkpt>
      <trkpt lat="48.849879" lon="2.361723"><ele>34.2</ele><time>2025-03-30T07:19:55Z</time></trkpt>
      <trkpt lat="48.849890" lon="2.361519"><ele>33.9</ele><time>2025-03-30T07:20:00Z</time></trkpt>
      <trkpt lat="48.849903" lon="2.361315"><ele>33.7</ele><time>2025-03-30T07:20:05Z</time></trkpt>
      <trkpt lat="48.849920" lon="2.361112"><ele>33.5</ele><time>2025-03-30T07:20:10Z</time></trkpt>
      <trkpt lat="48.849938" lon="2.360909"><ele>33.2</ele><time>2025-03-30T07:20:15Z</time></trkpt>
      <trkpt lat="48.849960" lon="2.360707"><ele>33</ele><time>2025-03-30T07:20:20Z</time></trkpt>
      <trkpt lat="48.849984" lon="2.360505"><ele>32.8</ele><time>2025-03-30T07:20:25Z</time></trkpt>
      <trkpt lat="48.850011" lon="2.360304"><ele>32.6</ele><time>2025-03-30T07:20:30Z</time></trkpt>
      <trkpt lat="48.850040" lon="2.360104"><ele>32.3</ele><time>2025-03-30T07:20:35Z</time></trkpt>
      <trkpt lat="48.850072" lon="2.359905"><ele>32.1</ele><time>2025-03-30T07:20:40Z</time></trkpt>
      <trkpt lat="48.850107" lon="2.359707"><ele>31.9</ele><time>2025-03-30T07:20:45Z</time></trkpt>
      <trkpt lat="48.850144" lon="2.359510"><ele>31.7</ele><time>2025-03-30T07:20:50Z</time></trkpt>
      <trkpt lat="48.850184" lon="2.359315"><ele>31.5</ele><time>2025-03-30T07:20:55Z</time></trkpt>
      <trkpt lat="48.850227" lon="2.359120"><ele>31.3</ele><time>2025-03-30T07:21:00Z</time></trkpt>
      <trkpt lat="48.850272" lon="2.358927"><ele>31.1</ele><time>2025-03-30T07:21:05Z</time></trkpt>
      <trkpt lat="48.850319" lon="2.358735"><ele>31</ele><time>2025-03-30T07:21:10Z</time></trkpt>
      <trkpt lat="48.850369" lon="2.358545"><ele>30.8</ele><time>2025-03-30T07:21:15Z</time></trkpt>
      <trkpt lat="48.850422" lon="2.358356"><ele>30.6</ele><time>2025-03-30T07:21:20Z</time></trkpt>
      <trkpt lat="48.850477" lon="2.358169"><ele>30.5</ele><time>2025-03-30T07:21:25Z</time></trkpt>
      <trkpt lat="48.850534" lon="2.357984"><ele>30.3</ele><time>2025-03-30T07:21:30Z</time></trkpt>
      <trkpt lat="48.850594" lon="2.357800"><ele>30.2</ele><time>2025-03-30T07:21:35Z</time></trkpt>
      <trkpt lat="48.850656" lon="2.357619"><ele>30</ele><time>2025-03-30T07:21:40Z</time></trkpt>
      <trkpt lat="48.850721" lon="2.357439"><ele>29.9</ele><time>2025-03-30T07:21:45Z</time></trkpt>
      <trkpt lat="48.850788" lon="2.357261"><ele>29.8</ele><time>2025-03-30T07:21:50Z</time></trkpt>
      <trkpt lat="48.850857" lon="2.357085"><ele>29.7</ele><time>2025-03-30T07:21:55Z</time></trkpt>
      <trkpt lat="48.850929" lon="2.356912"><ele>29.5</ele><time>2025-03-30T07:22:00Z</time></trkpt>
      <trkpt lat="48.851003" lon="2.356740"><ele>29.5</ele><time>2025-03-30T07:22:05Z</time></trkpt>
      <trkpt lat="48.851079" lon="2.356571"><ele>29.4</ele><time>2025-03-30T07:22:10Z</time></trkpt>
      <trkpt lat="48.851157" lon="2.356404"><ele>29.3</ele><time>2025-03-30T07:22:15Z</time></trkpt>
      <trkpt lat="48.851238" lon="2.356240"><ele>29.2</ele><time>2025-03-30T07:22:20Z</time></trkpt>
      <trkpt lat="48.851321" lon="2.356078"><ele>29.2</ele><time>2025-03-30T07:22:25Z</time></trkpt>
      <trkpt lat="48.851405" lon="2.355919"><ele>29.1</ele><time>2025-03-30T07:22:30Z</time></trkpt>
      <trkpt lat="48.851492" lon="2.355762"><ele>29.1</ele><time>2025-03-30T07:22:35Z</time></trkpt>
      <trkpt lat="48.851581" lon="2.355608"><ele>29</ele><time>2025-03-30T07:22:40Z</time></trkpt>
      <trkpt lat="48.851672" lon="2.355457"><ele>29</ele><time>2025-03-30T07:22:45Z</time></trkpt>
      <trkpt lat="48.851765" lon="2.355309"><ele>29</ele><time>2025-03-30T07:22:50Z</time></trkpt>
      <trkpt lat="48.851860" lon="2.355163"><ele>29</ele><time>2025-03-30T07:22:55Z</time></trkpt>
      <trkpt lat="48.851957" lon="2.355020"><ele>29</ele><time>2025-03-30T07:23:00Z</time></trkpt>
      <trkpt lat="48.852055" lon="2.354881"><ele>29</ele><time>2025-03-30T07:23:05Z</time></trkpt>
      <trkpt lat="48.852156" lon="2.354744"><ele>29.1</ele><time>2025-03-30T07:23:10Z</time></trkpt>
      <trkpt lat="48.852258" lon="2.354610"><ele>29.1</ele><time>2025-03-30T07:23:15Z</time></trkpt>
      <trkpt lat="48.852362" lon="2.354480"><ele>29.1</ele><time>2025-03-30T07:23:20Z</time></trkpt>
      <trkpt lat="48.852467" lon="2.354353"><ele>29.2</ele><time>2025-03-30T07:23:25Z</time></trkpt>
      <trkpt lat="48.852575" lon="2.354229"><ele>29.3</ele><time>2025-03-30T07:23:30Z</time></trkpt>
      <trkpt lat="48.852684" lon="2.354108"><ele>29.3</ele><time>2025-03-30T07:23:35Z</time></trkpt>
      <trkpt lat="48.852794" lon="2.353990"><ele>29.4</ele><time>2025-03-30T07:23:40Z</time></trkpt>
      <trkpt lat="48.852906" lon="2.353876"><ele>29.5</ele><time>2025-03-30T07:23:45Z</time></trkpt>
      <trkpt lat="48.853020" lon="2.353766"><ele>29.6</ele><time>2025-03-30T07:23:50Z</time></trkpt>
      <trkpt lat="48.853135" lon="2.353658"><ele>29.7</ele><time>2025-03-30T07:23:55Z</time></trkpt>
      <trkpt lat="48.853251" lon="2.353555"><ele>29.8</ele><time>2025-03-30T07:24:00Z</time></trkpt>
      <trkpt lat="48.853368" lon="2.353455"><ele>29.9</ele><time>2025-03-30T07:24:05Z</time></trkpt>
      <trkpt lat="48.853487" lon="2.353358"><ele>30.1</ele><time>2025-03-30T07:24:10Z</time></trkpt>
      <trkpt lat="48.853608" lon="2.353265"><ele>30.2</ele><time>2025-03-30T07:24:15Z</time></trkpt>
      <trkpt lat="48.853729" lon="2.353176"><ele>30.4</ele><time>2025-03-30T07:24:20Z</time></trkpt>
      <trkpt lat="48.853851" lon="2.353091"><ele>30.5</ele><time>2025-03-30T07:24:25Z</time></trkpt>
      <trkpt lat="48.853975" lon="2.353009"><ele>30.7</ele><time>2025-03-30T07:24:30Z</time></trkpt>
      <trkpt lat="48.854100" lon="2.352931"><ele>30.9</ele><time>2025-03-30T07:24:35Z</time></trkpt>
      <trkpt lat="48.854225" lon="2.352857"><ele>31</ele><time>2025-03-30T07:24:40Z</time></trkpt>
      <trkpt lat="48.854352" lon="2.352787"><ele>31.2</ele><time>2025-03-30T07:24:45Z</time></trkpt>
      <trkpt lat="48.854480" lon="2.352720"><ele>31.4</ele><time>2025-03-30T07:24:50Z</time></trkpt>
      <trkpt lat="48.854608" lon="2.352658"><ele>31.6</ele><time>2025-03-30T07:24:55Z</time></trkpt>
      <trkpt lat="48.854737" lon="2.352599"><ele>31.8</ele><time>2025-03-30T07:25:00Z</time></trkpt>
      <trkpt lat="48.854867" lon="2.352545"><ele>32</ele><time>2025-03-30T07:25:05Z</time></trkpt>
      <trkpt lat="48.854998" lon="2.352494"><ele>32.2</ele><time>2025-03-30T07:25:10Z</time></trkpt>
      <trkpt lat="48.855129" lon="2.352447"><ele>32.4</ele><time>2025-03-30T07:25:15Z</time></trkpt>
      <trkpt lat="48.855261" lon="2.352404"><ele>32.7</ele><time>2025-03-30T07:25:20Z</time></trkpt>
      <trkpt lat="48.855393" lon="2.352366"><ele>32.9</ele><time>2025-03-30T07:25:25Z</time></trkpt>
      <trkpt lat="48.855526" lon="2.352331"><ele>33.1</ele><time>2025-03-30T07:25:30Z</time></trkpt>
      <trkpt lat="48.855659" lon="2.352300"><ele>33.3</ele><time>2025-03-30T07:25:35Z</time></trkpt>
      <trkpt lat="48.855793" lon="2.352274"><ele>33.6</ele><time>2025-03-30T07:25:40Z</time></trkpt>
      <trkpt lat="48.855927" lon="2.352251"><ele>33.8</ele><time>2025-03-30T07:25:45Z</time></trkpt>
      <trkpt lat="48.856061" lon="2.352233"><ele>34</ele><time>2025-03-30T07:25:50Z</time></trkpt>
      <trkpt lat="48.856196" lon="2.352218"><ele>34.3</ele><time>2025-03-30T07:25:55Z</time></trkpt>
      <trkpt lat="48.856330" lon="2.352208"><ele>34.5</ele><time>2025-03-30T07:26:00Z</time></trkpt>
      <trkpt lat="48.856465" lon="2.352202"><ele>34.8</ele><time>2025-03-30T07:26:05Z</time></trkpt>
      <trkpt lat="48.856600" lon="2.352200"><ele>35</ele><time>2025-03-30T07:26:10Z</time></trkpt>
    </trkseg>
  </trk>
</gpx>
