<?xml version="1.0" encoding="UTF-8"?>
<gpx version="1.1" creator="run-together-e2e" xmlns="http://www.topografix.com/GPX/1/1">
  <metadata><time>2025-03-02T07:00:00Z</time></metadata>
  <trk>
    <name>Boucle GPX e2e</name>
    <type>running</type>
    <trkseg>
      <trkpt lat="48.856600" lon="2.352200"><ele>35</ele><time>2025-03-02T07:00:00Z</time></trkpt>
      <trkpt lat="48.856735" lon="2.352202"><ele>35.2</ele><time>2025-03-02T07:00:05Z</time></trkpt>
      <trkpt lat="48.856870" lon="2.352208"><ele>35.4</ele><time>2025-03-02T07:00:10Z</time></trkpt>
      <trkpt lat="48.857004" lon="2.352217"><ele>35.7</ele><time>2025-03-02T07:00:15Z</time></trkpt>
      <trkpt lat="48.857139" lon="2.352231"><ele>35.9</ele><time>2025-03-02T07:00:20Z</time></trkpt>
      <trkpt lat="48.857273" lon="2.352248"><ele>36.1</ele><time>2025-03-02T07:00:25Z</time></trkpt>
      <trkpt lat="48.857407" lon="2.352269"><ele>36.3</ele><time>2025-03-02T07:00:30Z</time></trkpt>
      <trkpt lat="48.857541" lon="2.352294"><ele>36.6</ele><time>2025-03-02T07:00:35Z</time></trkpt>
      <trkpt lat="48.857674" lon="2.352323"><ele>36.8</ele><time>2025-03-02T07:00:40Z</time></trkpt>
      <trkpt lat="48.857807" lon="2.352355"><ele>37</ele><time>2025-03-02T07:00:45Z</time></trkpt>
      <trkpt lat="48.857940" lon="2.352392"><ele>37.2</ele><time>2025-03-02T07:00:50Z</time></trkpt>
      <trkpt lat="48.858072" lon="2.352432"><ele>37.4</ele><time>2025-03-02T07:00:55Z</time></trkpt>
      <trkpt lat="48.858204" lon="2.352475"><ele>37.6</ele><time>2025-03-02T07:01:00Z</time></trkpt>
      <trkpt lat="48.858335" lon="2.352523"><ele>37.8</ele><time>2025-03-02T07:01:05Z</time></trkpt>
      <trkpt lat="48.858465" lon="2.352574"><ele>38</ele><time>2025-03-02T07:01:10Z</time></trkpt>
      <trkpt lat="48.858595" lon="2.352629"><ele>38.2</ele><time>2025-03-02T07:01:15Z</time></trkpt>
      <trkpt lat="48.858724" lon="2.352688"><ele>38.4</ele><time>2025-03-02T07:01:20Z</time></trkpt>
      <trkpt lat="48.858853" lon="2.352751"><ele>38.6</ele><time>2025-03-02T07:01:25Z</time></trkpt>
      <trkpt lat="48.858980" lon="2.352817"><ele>38.8</ele><time>2025-03-02T07:01:30Z</time></trkpt>
      <trkpt lat="48.859107" lon="2.352886"><ele>38.9</ele><time>2025-03-02T07:01:35Z</time></trkpt>
      <trkpt lat="48.859233" lon="2.352960"><ele>39.1</ele><time>2025-03-02T07:01:40Z</time></trkpt>
      <trkpt lat="48.859358" lon="2.353036"><ele>39.3</ele><time>2025-03-02T07:01:45Z</time></trkpt>
      <trkpt lat="48.859482" lon="2.353117"><ele>39.4</ele><time>2025-03-02T07:01:50Z</time></trkpt>
      <trkpt lat="48.859605" lon="2.353201"><ele>39.6</ele><time>2025-03-02T07:01:55Z</time></trkpt>
      <trkpt lat="48.859727" lon="2.353288"><ele>39.7</ele><time>2025-03-02T07:02:00Z</time></trkpt>
      <trkpt lat="48.859848" lon="2.353379"><ele>39.8</ele><time>2025-03-02T07:02:05Z</time></trkpt>
      <trkpt lat="48.859967" lon="2.353473"><ele>40</ele><time>2025-03-02T07:02:10Z</time></trkpt>
      <trkpt lat="48.860086" lon="2.353571"><ele>40.1</ele><time>2025-03-02T07:02:15Z</time></trkpt>
      <trkpt lat="48.860203" lon="2.353672"><ele>40.2</ele><time>2025-03-02T07:02:20Z</time></trkpt>
      <trkpt lat="48.860319" lon="2.353776"><ele>40.3</ele><time>2025-03-02T07:02:25Z</time></trkpt>
      <trkpt lat="48.860434" lon="2.353884"><ele>40.4</ele><time>2025-03-02T07:02:30Z</time></trkpt>
      <trkpt lat="48.860547" lon="2.353995"><ele>40.5</ele><time>2025-03-02T07:02:35Z</time></trkpt>
      <trkpt lat="48.860659" lon="2.354109"><ele>40.6</ele><time>2025-03-02T07:02:40Z</time></trkpt>
      <trkpt lat="48.860769" lon="2.354226"><ele>40.7</ele><time>2025-03-02T07:02:45Z</time></trkpt>
      <trkpt lat="48.860878" lon="2.354347"><ele>40.7</ele><time>2025-03-02T07:02:50Z</time></trkpt>
      <trkpt lat="48.860986" lon="2.354470"><ele>40.8</ele><time>2025-03-02T07:02:55Z</time></trkpt>
      <trkpt lat="48.861092" lon="2.354597"><ele>40.9</ele><time>2025-03-02T07:03:00Z</time></trkpt>
      <trkpt lat="48.861196" lon="2.354726"><ele>40.9</ele><time>2025-03-02T07:03:05Z</time></trkpt>
      <trkpt lat="48.861299" lon="2.354859"><ele>40.9</ele><time>2025-03-02T07:03:10Z</time></trkpt>
      <trkpt lat="48.861400" lon="2.354994"><ele>41</ele><time>2025-03-02T07:03:15Z</time></trkpt>
      <trkpt lat="48.861500" lon="2.355132"><ele>41</ele><time>2025-03-02T07:03:20Z</time></trkpt>
      <trkpt lat="48.861598" lon="2.355273"><ele>41</ele><time>2025-03-02T07:03:25Z</time></trkpt>
      <trkpt lat="48.861694" lon="2.355417"><ele>41</ele><time>2025-03-02T07:03:30Z</time></trkpt>
      <trkpt lat="48.861788" lon="2.355564"><ele>41</ele><time>2025-03-02T07:03:35Z</time></trkpt>
      <trkpt lat="48.861880" lon="2.355713"><ele>41</ele><time>2025-03-02T07:03:40Z</time></trkpt>
      <trkpt lat="48.861971" lon="2.355865"><ele>41</ele><time>2025-03-02T07:03:45Z</time></trkpt>
      <trkpt lat="48.862059" lon="2.356019"><ele>40.9</ele><time>2025-03-02T07:03:50Z</time></trkpt>
      <trkpt lat="48.862146" lon="2.356176"><ele>40.9</ele><time>2025-03-02T07:03:55Z</time></trkpt>
      <trkpt lat="48.862231" lon="2.356335"><ele>40.8</ele><time>2025-03-02T07:04:00Z</time></trkpt>
      <trkpt lat="48.862313" lon="2.356497"><ele>40.8</ele><time>2025-03-02T07:04:05Z</time></trkpt>
      <trkpt lat="48.862394" lon="2.356661"><ele>40.7</ele><time>2025-03-02T07:04:10Z</time></trkpt>
      <trkpt lat="48.862473" lon="2.356827"><ele>40.7</ele><time>2025-03-02T07:04:15Z</time></trkpt>
      <trkpt lat="48.862549" lon="2.356996"><ele>40.6</ele><time>2025-03-02T07:04:20Z</time></trkpt>
      <trkpt lat="48.862624" lon="2.357167"><ele>40.5</ele><time>2025-03-02T07:04:25Z</time></trkpt>
      <trkpt lat="48.862696" lon="2.357339"><ele>40.4</ele><time>2025-03-02T07:04:30Z</time></trkpt>
      <trkpt lat="48.862767" lon="2.357514"><ele>40.3</ele><time>2025-03-02T07:04:35Z</time></trkpt>
      <trkpt lat="48.862835" lon="2.357691"><ele>40.2</ele><time>2025-03-02T07:04:40Z</time></trkpt>
      <trkpt lat="48.862901" lon="2.357870"><ele>40.1</ele><time>2025-03-02T07:04:45Z</time></trkpt>
      <trkpt lat="48.862965" lon="2.358050"><ele>39.9</ele><time>2025-03-02T07:04:50Z</time></trkpt>
      <trkpt lat="48.863026" lon="2.358232"><ele>39.8</ele><time>2025-03-02T07:04:55Z</time></trkpt>
      <trkpt lat="48.863085" lon="2.358416"><ele>39.7</ele><time>2025-03-02T07:05:00Z</time></trkpt>
      <trkpt lat="48.863142" lon="2.358602"><ele>39.5</ele><time>2025-03-02T07:05:05Z</time></trkpt>
      <trkpt lat="48.863197" lon="2.358789"><ele>39.4</ele><time>2025-03-02T07:05:10Z</time></trkpt>
      <trkpt lat="48.863249" lon="2.358978"><ele>39.2</ele><time>2025-03-02T07:05:15Z</time></trkpt>
      <trkpt lat="48.863299" lon="2.359168"><ele>39</ele><time>2025-03-02T07:05:20Z</time></trkpt>
      <trkpt lat="48.863347" lon="2.359360"><ele>38.9</ele><time>2025-03-02T07:05:25Z</time></trkpt>
      <trkpt lat="48.863392" lon="2.359553"><ele>38.7</ele><time>2025-03-02T07:05:30Z</time></trkpt>
      <trkpt lat="48.863435" lon="2.359747"><ele>38.5</ele><time>2025-03-02T07:05:35Z</time></trkpt>
      <trkpt lat="48.863475" lon="2.359943"><ele>38.3</ele><time>2025-03-02T07:05:40Z</time></trkpt>
      <trkpt lat="48.863513" lon="2.360139"><ele>38.2</ele><time>2025-03-02T07:05:45Z</time></trkpt>
      <trkpt lat="48.863549" lon="2.360337"><ele>38</ele><time>2025-03-02T07:05:50Z</time></trkpt>
      <trkpt lat="48.863582" lon="2.360535"><ele>37.8</ele><time>2025-03-02T07:05:55Z</time></trkpt>
      <trkpt lat="48.863613" lon="2.360735"><ele>37.6</ele><time>2025-03-02T07:06:00Z</time></trkpt>
      <trkpt lat="48.863641" lon="2.360935"><ele>37.4</ele><time>2025-03-02T07:06:05Z</time></trkpt>
      <trkpt lat="48.863667" lon="2.361136"><ele>37.1</ele><time>2025-03-02T07:06:10Z</time></trkpt>
      <trkpt lat="48.863690" lon="2.361338"><ele>36.9</ele><time>2025-03-02T07:06:15Z</time></trkpt>
      <trkpt lat="48.863711" lon="2.361541"><ele>36.7</ele><time>2025-03-02T07:06:20Z</time></trkpt>
      <trkpt lat="48.863729" lon="2.361743"><ele>36.5</ele><time>2025-03-02T07:06:25Z</time></trkpt>
      <trkpt lat="48.863745" lon="2.361947"><ele>36.3</ele><time>2025-03-02T07:06:30Z</time></trkpt>
      <trkpt lat="48.863758" lon="2.362151"><ele>36.1</ele><time>2025-03-02T07:06:35Z</time></trkpt>
      <trkpt lat="48.863769" lon="2.362355"><ele>35.8</ele><time>2025-03-02T07:06:40Z</time></trkpt>
      <trkpt lat="48.863777" lon="2.362559"><ele>35.6</ele><time>2025-03-02T07:06:45Z</time></trkpt>
      <trkpt lat="48.863783" lon="2.362764"><ele>35.4</ele><time>2025-03-02T07:06:50Z</time></trkpt>
      <trkpt lat="48.863786" lon="2.362969"><ele>35.2</ele><time>2025-03-02T07:06:55Z</time></trkpt>
      <trkpt lat="48.863786" lon="2.363174"><ele>34.9</ele><time>2025-03-02T07:07:00Z</time></trkpt>
      <trkpt lat="48.863785" lon="2.363379"><ele>34.7</ele><time>2025-03-02T07:07:05Z</time></trkpt>
      <trkpt lat="48.863780" lon="2.363583"><ele>34.5</ele><time>2025-03-02T07:07:10Z</time></trkpt>
      <trkpt lat="48.863773" lon="2.363788"><ele>34.3</ele><time>2025-03-02T07:07:15Z</time></trkpt>
      <trkpt lat="48.863764" lon="2.363992"><ele>34</ele><time>2025-03-02T07:07:20Z</time></trkpt>
      <trkpt lat="48.863752" lon="2.364196"><ele>33.8</ele><time>2025-03-02T07:07:25Z</time></trkpt>
      <trkpt lat="48.863737" lon="2.364400"><ele>33.6</ele><time>2025-03-02T07:07:30Z</time></trkpt>
      <trkpt lat="48.863720" lon="2.364603"><ele>33.4</ele><time>2025-03-02T07:07:35Z</time></trkpt>
      <trkpt lat="48.863701" lon="2.364806"><ele>33.2</ele><time>2025-03-02T07:07:40Z</time></trkpt>
      <trkpt lat="48.863679" lon="2.365008"><ele>33</ele><time>2025-03-02T07:07:45Z</time></trkpt>
      <trkpt lat="48.863654" lon="2.365210"><ele>32.7</ele><time>2025-03-02T07:07:50Z</time></trkpt>
      <trkpt lat="48.863627" lon="2.365410"><ele>32.5</ele><time>2025-03-02T07:07:55Z</time></trkpt>
      <trkpt lat="48.863598" lon="2.365610"><ele>32.3</ele><time>2025-03-02T07:08:00Z</time></trkpt>
      <trkpt lat="48.863566" lon="2.365809"><ele>32.1</ele><time>2025-03-02T07:08:05Z</time></trkpt>
      <trkpt lat="48.863531" lon="2.366007"><ele>31.9</ele><time>2025-03-02T07:08:10Z</time></trkpt>
      <trkpt lat="48.863495" lon="2.366204"><ele>31.8</ele><time>2025-03-02T07:08:15Z</time></trkpt>
      <trkpt lat="48.863455" lon="2.366400"><ele>31.6</ele><time>2025-03-02T07:08:20Z</time></trkpt>
      <trkpt lat="48.863414" lon="2.366595"><ele>31.4</ele><time>2025-03-02T07:08:25Z</time></trkpt>
      <trkpt lat="48.863370" lon="2.366789"><ele>31.2</ele><time>2025-03-02T07:08:30Z</time></trkpt>
      <trkpt lat="48.863323" lon="2.366981"><ele>31</ele><time>2025-03-02T07:08:35Z</time></trkpt>
      <trkpt lat="48.863274" lon="2.367172"><ele>30.9</ele><time>2025-03-02T07:08:40Z</time></trkpt>
      <trkpt lat="48.863223" lon="2.367362"><ele>30.7</ele><time>2025-03-02T07:08:45Z</time></trkpt>
      <trkpt lat="48.863170" lon="2.367550"><ele>30.6</ele><time>2025-03-02T07:08:50Z</time></trkpt>
      <trkpt lat="48.863114" lon="2.367736"><ele>30.4</ele><time>2025-03-02T07:08:55Z</time></trkpt>
      <trkpt lat="48.863056" lon="2.367921"><ele>30.3</ele><time>2025-03-02T07:09:00Z</time></trkpt>
      <trkpt lat="48.862996" lon="2.368104"><ele>30.1</ele><time>2025-03-02T07:09:05Z</time></trkpt>
      <trkpt lat="48.862933" lon="2.368286"><ele>30</ele><time>2025-03-02T07:09:10Z</time></trkpt>
      <trkpt lat="48.862868" lon="2.368465"><ele>29.9</ele><time>2025-03-02T07:09:15Z</time></trkpt>
      <trkpt lat="48.862801" lon="2.368643"><ele>29.8</ele><time>2025-03-02T07:09:20Z</time></trkpt>
      <trkpt lat="48.862732" lon="2.368819"><ele>29.7</ele><time>2025-03-02T07:09:25Z</time></trkpt>
      <trkpt lat="48.862661" lon="2.368993"><ele>29.6</ele><time>2025-03-02T07:09:30Z</time></trkpt>
      <trkpt lat="48.862587" lon="2.369164"><ele>29.5</ele><time>2025-03-02T07:09:35Z</time></trkpt>
      <trkpt lat="48.862511" lon="2.369334"><ele>29.4</ele><time>2025-03-02T07:09:40Z</time></trkpt>
      <trkpt lat="48.862434" lon="2.369501"><ele>29.3</ele><time>2025-03-02T07:09:45Z</time></trkpt>
      <trkpt lat="48.862354" lon="2.369666"><ele>29.2</ele><time>2025-03-02T07:09:50Z</time></trkpt>
      <trkpt lat="48.862272" lon="2.369829"><ele>29.2</ele><time>2025-03-02T07:09:55Z</time></trkpt>
      <trkpt lat="48.862188" lon="2.369990"><ele>29.1</ele><time>2025-03-02T07:10:00Z</time></trkpt>
      <trkpt lat="48.862103" lon="2.370148"><ele>29.1</ele><time>2025-03-02T07:10:05Z</time></trkpt>
      <trkpt lat="48.862015" lon="2.370304"><ele>29.1</ele><time>2025-03-02T07:10:10Z</time></trkpt>
      <trkpt lat="48.861926" lon="2.370457"><ele>29</ele><time>2025-03-02T07:10:15Z</time></trkpt>
      <trkpt lat="48.861834" lon="2.370607"><ele>29</ele><time>2025-03-02T07:10:20Z</time></trkpt>
      <trkpt lat="48.861741" lon="2.370755"><ele>29</ele><time>2025-03-02T07:10:25Z</time></trkpt>
      <trkpt lat="48.861646" lon="2.370900"><ele>29</ele><time>2025-03-02T07:10:30Z</time></trkpt>
      <trkpt lat="48.861549" lon="2.371043"><ele>29</ele><time>2025-03-02T07:10:35Z</time></trkpt>
      <trkpt lat="48.861450" lon="2.371182"><ele>29</ele><time>2025-03-02T07:10:40Z</time></trkpt>
      <trkpt lat="48.861350" lon="2.371319"><ele>29</ele><time>2025-03-02T07:10:45Z</time></trkpt>
      <trkpt lat="48.861248" lon="2.371453"><ele>29.1</ele><time>2025-03-02T07:10:50Z</time></trkpt>
      <trkpt lat="48.861144" lon="2.371584"><ele>29.1</ele><time>2025-03-02T07:10:55Z</time></trkpt>
      <trkpt lat="48.861039" lon="2.371712"><ele>29.2</ele><time>2025-03-02T07:11:00Z</time></trkpt>
      <trkpt lat="48.860932" lon="2.371837"><ele>29.2</ele><time>2025-03-02T07:11:05Z</time></trkpt>
      <trkpt lat="48.860824" lon="2.371959"><ele>29.3</ele><time>2025-03-02T07:11:10Z</time></trkpt>
      <trkpt lat="48.860714" lon="2.372078"><ele>29.4</ele><time>2025-03-02T07:11:15Z</time></trkpt>
      <trkpt lat="48.860603" lon="2.372194"><ele>29.4</ele><time>2025-03-02T07:11:20Z</time></trkpt>
      <trkpt lat="48.860490" lon="2.372306"><ele>29.5</ele><time>2025-03-02T07:11:25Z</time></trkpt>
      <trkpt lat="48.860376" lon="2.372416"><ele>29.6</ele><time>2025-03-02T07:11:30Z</time></trkpt>
      <trkpt lat="48.860261" lon="2.372522"><ele>29.7</ele><time>2025-03-02T07:11:35Z</time></trkpt>
      <trkpt lat="48.860144" lon="2.372624"><ele>29.9</ele><time>2025-03-02T07:11:40Z</time></trkpt>
      <trkpt lat="48.860027" lon="2.372724"><ele>30</ele><time>2025-03-02T07:11:45Z</time></trkpt>
      <trkpt lat="48.859908" lon="2.372820"><ele>30.1</ele><time>2025-03-02T07:11:50Z</time></trkpt>
      <trkpt lat="48.859787" lon="2.372912"><ele>30.2</ele><time>2025-03-02T07:11:55Z</time></trkpt>
      <trkpt lat="48.859666" lon="2.373001"><ele>30.4</ele><time>2025-03-02T07:12:00Z</time></trkpt>
      <trkpt lat="48.859544" lon="2.373087"><ele>30.5</ele><time>2025-03-02T07:12:05Z</time></trkpt>
      <trkpt lat="48.859420" lon="2.373169"><ele>30.7</ele><time>2025-03-02T07:12:10Z</time></trkpt>
      <trkpt lat="48.859296" lon="2.373248"><ele>30.8</ele><time>2025-03-02T07:12:15Z</time></trkpt>
      <trkpt lat="48.859170" lon="2.373323"><ele>31</ele><time>2025-03-02T07:12:20Z</time></trkpt>
      <trkpt lat="48.859044" lon="2.373394"><ele>31.2</ele><time>2025-03-02T07:12:25Z</time></trkpt>
      <trkpt lat="48.858917" lon="2.373462"><ele>31.3</ele><time>2025-03-02T07:12:30Z</time></trkpt>
      <trkpt lat="48.858789" lon="2.373526"><ele>31.5</ele><time>2025-03-02T07:12:35Z</time></trkpt>
      <trkpt lat="48.858660" lon="2.373587"><ele>31.7</ele><time>2025-03-02T07:12:40Z</time></trkpt>
      <trkpt lat="48.858530" lon="2.373644"><ele>31.9</ele><time>2025-03-02T07:12:45Z</time></trkpt>
      <trkpt lat="48.858400" lon="2.373697"><ele>32.1</ele><time>2025-03-02T07:12:50Z</time></trkpt>
      <trkpt lat="48.858269" lon="2.373746"><ele>32.3</ele><time>2025-03-02T07:12:55Z</time></trkpt>
      <trkpt lat="48.858138" lon="2.373792"><ele>32.5</ele><time>2025-03-02T07:13:00Z</time></trkpt>
      <trkpt lat="48.858006" lon="2.373834"><ele>32.7</ele><time>2025-03-02T07:13:05Z</time></trkpt>
      <trkpt lat="48.857874" lon="2.373872"><ele>32.9</ele><time>2025-03-02T07:13:10Z</time></trkpt>
      <trkpt lat="48.857741" lon="2.373907"><ele>33.1</ele><time>2025-03-02T07:13:15Z</time></trkpt>
      <trkpt lat="48.857608" lon="2.373937"><ele>33.3</ele><time>2025-03-02T07:13:20Z</time></trkpt>
      <trkpt lat="48.857474" lon="2.373964"><ele>33.6</ele><time>2025-03-02T07:13:25Z</time></trkpt>
      <trkpt lat="48.857340" lon="2.373987"><ele>33.8</ele><time>2025-03-02T07:13:30Z</time></trkpt>
      <trkpt lat="48.857206" lon="2.374006"><ele>34</ele><time>2025-03-02T07:13:35Z</time></trkpt>
      <trkpt lat="48.857071" lon="2.374022"><ele>34.2</ele><time>2025-03-02T07:13:40Z</time></trkpt>
      <trkpt lat="48.856937" lon="2.374033"><ele>34.4</ele><time>2025-03-02T07:13:45Z</time></trkpt>
      <trkpt lat="48.856802" lon="2.374041"><ele>34.7</ele><time>2025-03-02T07:13:50Z</time></trkpt>
      <trkpt lat="48.856667" lon="2.374045"><ele>34.9</ele><time>2025-03-02T07:13:55Z</time></trkpt>
      <trkpt lat="48.856533" lon="2.374045"><ele>35.1</ele><time>2025-03-02T07:14:00Z</time></trkpt>
      <trkpt lat="48.856398" lon="2.374041"><ele>35.3</ele><time>2025-03-02T07:14:05Z</time></trkpt>
      <trkpt lat="48.856263" lon="2.374033"><ele>35.6</ele><time>2025-03-02T07:14:10Z</time></trkpt>
      <trkpt lat="48.856129" lon="2.374022"><ele>35.8</ele><time>2025-03-02T07:14:15Z</time></trkpt>
      <trkpt lat="48.855994" lon="2.374006"><ele>36</ele><time>2025-03-02T07:14:20Z</time></trkpt>
      <trkpt lat="48.855860" lon="2.373987"><ele>36.2</ele><time>2025-03-02T07:14:25Z</time></trkpt>
      <trkpt lat="48.855726" lon="2.373964"><ele>36.4</ele><time>2025-03-02T07:14:30Z</time></trkpt>
      <trkpt lat="48.855592" lon="2.373937"><ele>36.7</ele><time>2025-03-02T07:14:35Z</time></trkpt>
      <trkpt lat="48.855459" lon="2.373907"><ele>36.9</ele><time>2025-03-02T07:14:40Z</time></trkpt>
      <trkpt lat="48.855326" lon="2.373872"><ele>37.1</ele><time>2025-03-02T07:14:45Z</time></trkpt>
      <trkpt lat="48.855194" lon="2.373834"><ele>37.3</ele><time>2025-03-02T07:14:50Z</time></trkpt>
      <trkpt lat="48.855062" lon="2.373792"><ele>37.5</ele><time>2025-03-02T07:14:55Z</time></trkpt>
      <trkpt lat="48.854931" lon="2.373746"><ele>37.7</ele><time>2025-03-02T07:15:00Z</time></trkpt>
      <trkpt lat="48.854800" lon="2.373697"><ele>37.9</ele><time>2025-03-02T07:15:05Z</time></trkpt>
      <trkpt lat="48.854670" lon="2.373644"><ele>38.1</ele><time>2025-03-02T07:15:10Z</time></trkpt>
      <trkpt lat="48.854540" lon="2.373587"><ele>38.3</ele><time>2025-03-02T07:15:15Z</time></trkpt>
      <trkpt lat="48.854411" lon="2.373526"><ele>38.5</ele><time>2025-03-02T07:15:20Z</time></trkpt>
      <trkpt lat="48.854283" lon="2.373462"><ele>38.7</ele><time>2025-03-02T07:15:25Z</time></trkpt>
      <trkpt lat="48.854156" lon="2.373394"><ele>38.8</ele><time>2025-03-02T07:15:30Z</time></trkpt>
      <trkpt lat="48.854030" lon="2.373323"><ele>39</ele><time>2025-03-02T07:15:35Z</time></trkpt>
      <trkpt lat="48.853904" lon="2.373248"><ele>39.2</ele><time>2025-03-02T07:15:40Z</time></trkpt>
      <trkpt lat="48.853780" lon="2.373169"><ele>39.3</ele><time>2025-03-02T07:15:45Z</time></trkpt>
      <trkpt lat="48.853656" lon="2.373087"><ele>39.5</ele><time>2025-03-02T07:15:50Z</time></trkpt>
      <trkpt lat="48.853534" lon="2.373001"><ele>39.6</ele><time>2025-03-02T07:15:55Z</time></trkpt>
      <trkpt lat="48.853413" lon="2.372912"><ele>39.8</ele><time>2025-03-02T07:16:00Z</time></trkpt>
      <trkpt lat="48.853292" lon="2.372820"><ele>39.9</ele><time>2025-03-02T07:16:05Z</time></trkpt>
      <trkpt lat="48.853173" lon="2.372724"><ele>40</ele><time>2025-03-02T07:16:10Z</time></trkpt>
      <trkpt lat="48.853056" lon="2.372624"><ele>40.1</ele><time>2025-03-02T07:16:15Z</time></trkpt>
      <trkpt lat="48.852939" lon="2.372522"><ele>40.3</ele><time>2025-03-02T07:16:20Z</time></trkpt>
      <trkpt lat="48.852824" lon="2.372416"><ele>40.4</ele><time>2025-03-02T07:16:25Z</time></trkpt>
      <trkpt lat="48.852710" lon="2.372306"><ele>40.5</ele><time>2025-03-02T07:16:30Z</time></trkpt>
      <trkpt lat="48.852597" lon="2.372194"><ele>40.6</ele><time>2025-03-02T07:16:35Z</time></trkpt>
      <trkpt lat="48.852486" lon="2.372078"><ele>40.6</ele><time>2025-03-02T07:16:40Z</time></trkpt>
      <trkpt lat="48.852376" lon="2.371959"><ele>40.7</ele><time>2025-03-02T07:16:45Z</time></trkpt>
      <trkpt lat="48.852268" lon="2.371837"><ele>40.8</ele><time>2025-03-02T07:16:50Z</time></trkpt>
      <trkpt lat="48.852161" lon="2.371712"><ele>40.8</ele><time>2025-03-02T07:16:55Z</time></trkpt>
      <trkpt lat="48.852056" lon="2.371584"><ele>40.9</ele><time>2025-03-02T07:17:00Z</time></trkpt>
      <trkpt lat="48.851952" lon="2.371453"><ele>40.9</ele><time>2025-03-02T07:17:05Z</time></trkpt>
      <trkpt lat="48.851850" lon="2.371319"><ele>41</ele><time>2025-03-02T07:17:10Z</time></trkpt>
      <trkpt lat="48.851750" lon="2.371182"><ele>41</ele><time>2025-03-02T07:17:15Z</time></trkpt>
      <trkpt lat="48.851651" lon="2.371043"><ele>41</ele><time>2025-03-02T07:17:20Z</time></trkpt>
      <trkpt lat="48.851554" lon="2.370900"><ele>41</ele><time>2025-03-02T07:17:25Z</time></trkpt>
      <trkpt lat="48.851459" lon="2.370755"><ele>41</ele><time>2025-03-02T07:17:30Z</time></trkpt>
      <trkpt lat="48.851366" lon="2.370607"><ele>41</ele><time>2025-03-02T07:17:35Z</time></trkpt>
      <trkpt lat="48.851274" lon="2.370457"><ele>41</ele><time>2025-03-02T07:17:40Z</time></trkpt>
      <trkpt lat="48.851185" lon="2.370304"><ele>40.9</ele><time>2025-03-02T07:17:45Z</time></trkpt>
      <trkpt lat="48.851097" lon="2.370148"><ele>40.9</ele><time>2025-03-02T07:17:50Z</time></trkpt>
      <trkpt lat="48.851012" lon="2.369990"><ele>40.9</ele><time>2025-03-02T07:17:55Z</time></trkpt>
      <trkpt lat="48.850928" lon="2.369829"><ele>40.8</ele><time>2025-03-02T07:18:00Z</time></trkpt>
      <trkpt lat="48.850846" lon="2.369666"><ele>40.8</ele><time>2025-03-02T07:18:05Z</time></trkpt>
      <trkpt lat="48.850766" lon="2.369501"><ele>40.7</ele><time>2025-03-02T07:18:10Z</time></trkpt>
      <trkpt lat="48.850689" lon="2.369334"><ele>40.6</ele><time>2025-03-02T07:18:15Z</time></trkpt>
      <trkpt lat="48.850613" lon="2.369164"><ele>40.5</ele><time>2025-03-02T07:18:20Z</time></trkpt>
      <trkpt lat="48.850539" lon="2.368993"><ele>40.4</ele><time>2025-03-02T07:18:25Z</time></trkpt>
      <trkpt lat="48.850468" lon="2.368819"><ele>40.3</ele><time>2025-03-02T07:18:30Z</time></trkpt>
      <trkpt lat="48.850399" lon="2.368643"><ele>40.2</ele><time>2025-03-02T07:18:35Z</time></trkpt>
      <trkpt lat="48.850332" lon="2.368465"><ele>40.1</ele><time>2025-03-02T07:18:40Z</time></trkpt>
      <trkpt lat="48.850267" lon="2.368286"><ele>40</ele><time>2025-03-02T07:18:45Z</time></trkpt>
      <trkpt lat="48.850204" lon="2.368104"><ele>39.9</ele><time>2025-03-02T07:18:50Z</time></trkpt>
      <trkpt lat="48.850144" lon="2.367921"><ele>39.7</ele><time>2025-03-02T07:18:55Z</time></trkpt>
      <trkpt lat="48.850086" lon="2.367736"><ele>39.6</ele><time>2025-03-02T07:19:00Z</time></trkpt>
      <trkpt lat="48.850030" lon="2.367550"><ele>39.4</ele><time>2025-03-02T07:19:05Z</time></trkpt>
      <trkpt lat="48.849977" lon="2.367362"><ele>39.3</ele><time>2025-03-02T07:19:10Z</time></trkpt>
      <trkpt lat="48.849926" lon="2.367172"><ele>39.1</ele><time>2025-03-02T07:19:15Z</time></trkpt>
      <trkpt lat="48.849877" lon="2.366981"><ele>39</ele><time>2025-03-02T07:19:20Z</time></trkpt>
      <trkpt lat="48.849830" lon="2.366789"><ele>38.8</ele><time>2025-03-02T07:19:25Z</time></trkpt>
      <trkpt lat="48.849786" lon="2.366595"><ele>38.6</ele><time>2025-03-02T07:19:30Z</time></trkpt>
      <trkpt lat="48.849745" lon="2.366400"><ele>38.4</ele><time>2025-03-02T07:19:35Z</time></trkpt>
      <trkpt lat="48.849705" lon="2.366204"><ele>38.2</ele><time>2025-03-02T07:19:40Z</time></trkpt>
      <trkpt lat="48.849669" lon="2.366007"><ele>38.1</ele><time>2025-03-02T07:19:45Z</time></trkpt>
      <trkpt lat="48.849634" lon="2.365809"><ele>37.9</ele><time>2025-03-02T07:19:50Z</time></trkpt>
      <trkpt lat="48.849602" lon="2.365610"><ele>37.7</ele><time>2025-03-02T07:19:55Z</time></trkpt>
      <trkpt lat="48.849573" lon="2.365410"><ele>37.5</ele><time>2025-03-02T07:20:00Z</time></trkpt>
      <trkpt lat="48.849546" lon="2.365210"><ele>37.3</ele><time>2025-03-02T07:20:05Z</time></trkpt>
      <trkpt lat="48.849521" lon="2.365008"><ele>37</ele><time>2025-03-02T07:20:10Z</time></trkpt>
      <trkpt lat="48.849499" lon="2.364806"><ele>36.8</ele><time>2025-03-02T07:20:15Z</time></trkpt>
      <trkpt lat="48.849480" lon="2.364603"><ele>36.6</ele><time>2025-03-02T07:20:20Z</time></trkpt>
      <trkpt lat="48.849463" lon="2.364400"><ele>36.4</ele><time>2025-03-02T07:20:25Z</time></trkpt>
      <trkpt lat="48.849448" lon="2.364196"><ele>36.2</ele><time>2025-03-02T07:20:30Z</time></trkpt>
      <trkpt lat="48.849436" lon="2.363992"><ele>36</ele><time>2025-03-02T07:20:35Z</time></trkpt>
      <trkpt lat="48.849427" lon="2.363788"><ele>35.7</ele><time>2025-03-02T07:20:40Z</time></trkpt>
      <trkpt lat="48.849420" lon="2.363583"><ele>35.5</ele><time>2025-03-02T07:20:45Z</time></trkpt>
      <trkpt lat="48.849415" lon="2.363379"><ele>35.3</ele><time>2025-03-02T07:20:50Z</time></trkpt>
      <trkpt lat="48.849414" lon="2.363174"><ele>35.1</ele><time>2025-03-02T07:20:55Z</time></trkpt>
      <trkpt lat="48.849414" lon="2.362969"><ele>34.8</ele><time>2025-03-02T07:21:00Z</time></trkpt>
      <trkpt lat="48.849417" lon="2.362764"><ele>34.6</ele><time>2025-03-02T07:21:05Z</time></trkpt>
      <trkpt lat="48.849423" lon="2.362559"><ele>34.4</ele><time>2025-03-02T07:21:10Z</time></trkpt>
      <trkpt lat="48.849431" lon="2.362355"><ele>34.2</ele><time>2025-03-02T07:21:15Z</time></trkpt>
      <trkpt lat="48.849442" lon="2.362151"><ele>33.9</ele><time>2025-03-02T07:21:20Z</time></trkpt>
      <trkpt lat="48.849455" lon="2.361947"><ele>33.7</ele><time>2025-03-02T07:21:25Z</time></trkpt>
      <trkpt lat="48.849471" lon="2.361743"><ele>33.5</ele><time>2025-03-02T07:21:30Z</time></trkpt>
      <trkpt lat="48.849489" lon="2.361541"><ele>33.3</ele><time>2025-03-02T07:21:35Z</time></trkpt>
      <trkpt lat="48.849510" lon="2.361338"><ele>33.1</ele><time>2025-03-02T07:21:40Z</time></trkpt>
      <trkpt lat="48.849533" lon="2.361136"><ele>32.9</ele><time>2025-03-02T07:21:45Z</time></trkpt>
      <trkpt lat="48.849559" lon="2.360935"><ele>32.6</ele><time>2025-03-02T07:21:50Z</time></trkpt>
      <trkpt lat="48.849587" lon="2.360735"><ele>32.4</ele><time>2025-03-02T07:21:55Z</time></trkpt>
      <trkpt lat="48.849618" lon="2.360535"><ele>32.2</ele><time>2025-03-02T07:22:00Z</time></trkpt>
      <trkpt lat="48.849651" lon="2.360337"><ele>32</ele><time>2025-03-02T07:22:05Z</time></trkpt>
      <trkpt lat="48.849687" lon="2.360139"><ele>31.8</ele><time>2025-03-02T07:22:10Z</time></trkpt>
      <trkpt lat="48.849725" lon="2.359943"><ele>31.7</ele><time>2025-03-02T07:22:15Z</time></trkpt>
      <trkpt lat="48.849765" lon="2.359747"><ele>31.5</ele><time>2025-03-02T07:22:20Z</time></trkpt>
      <trkpt lat="48.849808" lon="2.359553"><ele>31.3</ele><time>2025-03-02T07:22:25Z</time></trkpt>
      <trkpt lat="48.849853" lon="2.359360"><ele>31.1</ele><time>2025-03-02T07:22:30Z</time></trkpt>
      <trkpt lat="48.849901" lon="2.359168"><ele>31</ele><time>2025-03-02T07:22:35Z</time></trkpt>
      <trkpt lat="48.849951" lon="2.358978"><ele>30.8</ele><time>2025-03-02T07:22:40Z</time></trkpt>
      <trkpt lat="48.850003" lon="2.358789"><ele>30.6</ele><time>2025-03-02T07:22:45Z</time></trkpt>
      <trkpt lat="48.850058" lon="2.358602"><ele>30.5</ele><time>2025-03-02T07:22:50Z</time></trkpt>
      <trkpt lat="48.850115" lon="2.358416"><ele>30.3</ele><time>2025-03-02T07:22:55Z</time></trkpt>
      <trkpt lat="48.850174" lon="2.358232"><ele>30.2</ele><time>2025-03-02T07:23:00Z</time></trkpt>
      <trkpt lat="48.850235" lon="2.358050"><ele>30.1</ele><time>2025-03-02T07:23:05Z</time></trkpt>
      <trkpt lat="48.850299" lon="2.357870"><ele>29.9</ele><time>2025-03-02T07:23:10Z</time></trkpt>
      <trkpt lat="48.850365" lon="2.357691"><ele>29.8</ele><time>2025-03-02T07:23:15Z</time></trkpt>
      <trkpt lat="48.850433" lon="2.357514"><ele>29.7</ele><time>2025-03-02T07:23:20Z</time></trkpt>
      <trkpt lat="48.850504" lon="2.357339"><ele>29.6</ele><time>2025-03-02T07:23:25Z</time></trkpt>
      <trkpt lat="48.850576" lon="2.357167"><ele>29.5</ele><time>2025-03-02T07:23:30Z</time></trkpt>
      <trkpt lat="48.850651" lon="2.356996"><ele>29.4</ele><time>2025-03-02T07:23:35Z</time></trkpt>
      <trkpt lat="48.850727" lon="2.356827"><ele>29.3</ele><time>2025-03-02T07:23:40Z</time></trkpt>
      <trkpt lat="48.850806" lon="2.356661"><ele>29.3</ele><time>2025-03-02T07:23:45Z</time></trkpt>
      <trkpt lat="48.850887" lon="2.356497"><ele>29.2</ele><time>2025-03-02T07:23:50Z</time></trkpt>
      <trkpt lat="48.850969" lon="2.356335"><ele>29.2</ele><time>2025-03-02T07:23:55Z</time></trkpt>
      <trkpt lat="48.851054" lon="2.356176"><ele>29.1</ele><time>2025-03-02T07:24:00Z</time></trkpt>
      <trkpt lat="48.851141" lon="2.356019"><ele>29.1</ele><time>2025-03-02T07:24:05Z</time></trkpt>
      <trkpt lat="48.851229" lon="2.355865"><ele>29</ele><time>2025-03-02T07:24:10Z</time></trkpt>
      <trkpt lat="48.851320" lon="2.355713"><ele>29</ele><time>2025-03-02T07:24:15Z</time></trkpt>
      <trkpt lat="48.851412" lon="2.355564"><ele>29</ele><time>2025-03-02T07:24:20Z</time></trkpt>
      <trkpt lat="48.851506" lon="2.355417"><ele>29</ele><time>2025-03-02T07:24:25Z</time></trkpt>
      <trkpt lat="48.851602" lon="2.355273"><ele>29</ele><time>2025-03-02T07:24:30Z</time></trkpt>
      <trkpt lat="48.851700" lon="2.355132"><ele>29</ele><time>2025-03-02T07:24:35Z</time></trkpt>
      <trkpt lat="48.851800" lon="2.354994"><ele>29</ele><time>2025-03-02T07:24:40Z</time></trkpt>
      <trkpt lat="48.851901" lon="2.354859"><ele>29.1</ele><time>2025-03-02T07:24:45Z</time></trkpt>
      <trkpt lat="48.852004" lon="2.354726"><ele>29.1</ele><time>2025-03-02T07:24:50Z</time></trkpt>
      <trkpt lat="48.852108" lon="2.354597"><ele>29.1</ele><time>2025-03-02T07:24:55Z</time></trkpt>
      <trkpt lat="48.852214" lon="2.354470"><ele>29.2</ele><time>2025-03-02T07:25:00Z</time></trkpt>
      <trkpt lat="48.852322" lon="2.354347"><ele>29.3</ele><time>2025-03-02T07:25:05Z</time></trkpt>
      <trkpt lat="48.852431" lon="2.354226"><ele>29.3</ele><time>2025-03-02T07:25:10Z</time></trkpt>
      <trkpt lat="48.852541" lon="2.354109"><ele>29.4</ele><time>2025-03-02T07:25:15Z</time></trkpt>
      <trkpt lat="48.852653" lon="2.353995"><ele>29.5</ele><time>2025-03-02T07:25:20Z</time></trkpt>
      <trkpt lat="48.852766" lon="2.353884"><ele>29.6</ele><time>2025-03-02T07:25:25Z</time></trkpt>
      <trkpt lat="48.852881" lon="2.353776"><ele>29.7</ele><time>2025-03-02T07:25:30Z</time></trkpt>
      <trkpt lat="48.852997" lon="2.353672"><ele>29.8</ele><time>2025-03-02T07:25:35Z</time></trkpt>
      <trkpt lat="48.853114" lon="2.353571"><ele>29.9</ele><time>2025-03-02T07:25:40Z</time></trkpt>
      <trkpt lat="48.853233" lon="2.353473"><ele>30</ele><time>2025-03-02T07:25:45Z</time></trkpt>
      <trkpt lat="48.853352" lon="2.353379"><ele>30.2</ele><time>2025-03-02T07:25:50Z</time></trkpt>
      <trkpt lat="48.853473" lon="2.353288"><ele>30.3</ele><time>2025-03-02T07:25:55Z</time></trkpt>
      <trkpt lat="48.853595" lon="2.353201"><ele>30.4</ele><time>2025-03-02T07:26:00Z</time></trkpt>
      <trkpt lat="48.853718" lon="2.353117"><ele>30.6</ele><time>2025-03-02T07:26:05Z</time></trkpt>
      <trkpt lat="48.853842" lon="2.353036"><ele>30.7</ele><time>2025-03-02T07:26:10Z</time></trkpt>
      <trkpt lat="48.853967" lon="2.352960"><ele>30.9</ele><time>2025-03-02T07:26:15Z</time></trkpt>
      <trkpt lat="48.854093" lon="2.352886"><ele>31.1</ele><time>2025-03-02T07:26:20Z</time></trkpt>
      <trkpt lat="48.854220" lon="2.352817"><ele>31.2</ele><time>2025-03-02T07:26:25Z</time></trkpt>
      <trkpt lat="48.854347" lon="2.352751"><ele>31.4</ele><time>2025-03-02T07:26:30Z</time></trkpt>
      <trkpt lat="48.854476" lon="2.352688"><ele>31.6</ele><time>2025-03-02T07:26:35Z</time></trkpt>
      <trkpt lat="48.854605" lon="2.352629"><ele>31.8</ele><time>2025-03-02T07:26:40Z</time></trkpt>
      <trkpt lat="48.854735" lon="2.352574"><ele>32</ele><time>2025-03-02T07:26:45Z</time></trkpt>
      <trkpt lat="48.854865" lon="2.352523"><ele>32.2</ele><time>2025-03-02T07:26:50Z</time></trkpt>
      <trkpt lat="48.854996" lon="2.352475"><ele>32.4</ele><time>2025-03-02T07:26:55Z</time></trkpt>
      <trkpt lat="48.855128" lon="2.352432"><ele>32.6</ele><time>2025-03-02T07:27:00Z</time></trkpt>
      <trkpt lat="48.855260" lon="2.352392"><ele>32.8</ele><time>2025-03-02T07:27:05Z</time></trkpt>
      <trkpt lat="48.855393" lon="2.352355"><ele>33</ele><time>2025-03-02T07:27:10Z</time></trkpt>
      <trkpt lat="48.855526" lon="2.352323"><ele>33.2</ele><time>2025-03-02T07:27:15Z</time></trkpt>
      <trkpt lat="48.855659" lon="2.352294"><ele>33.4</ele><time>2025-03-02T07:27:20Z</time></trkpt>
      <trkpt lat="48.855793" lon="2.352269"><ele>33.7</ele><time>2025-03-02T07:27:25Z</time></trkpt>
      <trkpt lat="48.855927" lon="2.352248"><ele>33.9</ele><time>2025-03-02T07:27:30Z</time></trkpt>
      <trkpt lat="48.856061" lon="2.352231"><ele>34.1</ele><time>2025-03-02T07:27:35Z</time></trkpt>
      <trkpt lat="48.856196" lon="2.352217"><ele>34.3</ele><time>2025-03-02T07:27:40Z</time></trkpt>
      <trkpt lat="48.856330" lon="2.352208"><ele>34.6</ele><time>2025-03-02T07:27:45Z</time></trkpt>
      <trkpt lat="48.856465" lon="2.352202"><ele>34.8</ele><time>2025-03-02T07:27:50Z</time></trkpt>
      <trkpt lat="48.856600" lon="2.352200"><ele>35</ele><time>2025-03-02T07:27:55Z</time></trkpt>
    </trkseg>
  </trk>
</gpx>
