<?xml version="1.0" encoding="UTF-8"?>
<gpx version="1.1" creator="run-together-e2e" xmlns="http://www.topografix.com/GPX/1/1">
  <metadata><time>2025-05-04T07:15:00Z</time></metadata>
  <trk>
    <name>Seconde e2e</name>
    <type>running</type>
    <trkseg>
      <trkpt lat="48.856600" lon="2.352200"><ele>35</ele><time>2025-05-04T07:15:00Z</time></trkpt>
      <trkpt lat="48.856735" lon="2.352202"><ele>35.2</ele><time>2025-05-04T07:15:05Z</time></trkpt>
      <trkpt lat="48.856869" lon="2.352206"><ele>35.4</ele><time>2025-05-04T07:15:10Z</time></trkpt>
      <trkpt lat="48.857004" lon="2.352215"><ele>35.6</ele><time>2025-05-04T07:15:15Z</time></trkpt>
      <trkpt lat="48.857139" lon="2.352226"><ele>35.8</ele><time>2025-05-04T07:15:20Z</time></trkpt>
      <trkpt lat="48.857273" lon="2.352240"><ele>35.9</ele><time>2025-05-04T07:15:25Z</time></trkpt>
      <trkpt lat="48.857407" lon="2.352258"><ele>36.1</ele><time>2025-05-04T07:15:30Z</time></trkpt>
      <trkpt lat="48.857541" lon="2.352279"><ele>36.3</ele><time>2025-05-04T07:15:35Z</time></trkpt>
      <trkpt lat="48.857675" lon="2.352303"><ele>36.5</ele><time>2025-05-04T07:15:40Z</time></trkpt>
      <trkpt lat="48.857808" lon="2.352331"><ele>36.7</ele><time>2025-05-04T07:15:45Z</time></trkpt>
      <trkpt lat="48.857942" lon="2.352361"><ele>36.9</ele><time>2025-05-04T07:15:50Z</time></trkpt>
      <trkpt lat="48.858075" lon="2.352395"><ele>37</ele><time>2025-05-04T07:15:55Z</time></trkpt>
      <trkpt lat="48.858207" lon="2.352432"><ele>37.2</ele><time>2025-05-04T07:16:00Z</time></trkpt>
      <trkpt lat="48.858339" lon="2.352472"><ele>37.4</ele><time>2025-05-04T07:16:05Z</time></trkpt>
      <trkpt lat="48.858471" lon="2.352516"><ele>37.6</ele><time>2025-05-04T07:16:10Z</time></trkpt>
      <trkpt lat="48.858602" lon="2.352562"><ele>37.7</ele><time>2025-05-04T07:16:15Z</time></trkpt>
      <trkpt lat="48.858733" lon="2.352612"><ele>37.9</ele><time>2025-05-04T07:16:20Z</time></trkpt>
      <trkpt lat="48.858863" lon="2.352664"><ele>38.1</ele><time>2025-05-04T07:16:25Z</time></trkpt>
      <trkpt lat="48.858993" lon="2.352720"><ele>38.2</ele><time>2025-05-04T07:16:30Z</time></trkpt>
      <trkpt lat="48.859122" lon="2.352779"><ele>38.4</ele><time>2025-05-04T07:16:35Z</time></trkpt>
      <trkpt lat="48.859250" lon="2.352841"><ele>38.5</ele><time>2025-05-04T07:16:40Z</time></trkpt>
      <trkpt lat="48.859378" lon="2.352906"><ele>38.7</ele><time>2025-05-04T07:16:45Z</time></trkpt>
      <trkpt lat="48.859505" lon="2.352974"><ele>38.8</ele><time>2025-05-04T07:16:50Z</time></trkpt>
      <trkpt lat="48.859631" lon="2.353046"><ele>39</ele><time>2025-05-04T07:16:55Z</time></trkpt>
      <trkpt lat="48.859757" lon="2.353120"><ele>39.1</ele><time>2025-05-04T07:17:00Z</time></trkpt>
      <trkpt lat="48.859881" lon="2.353197"><ele>39.3</ele><time>2025-05-04T07:17:05Z</time></trkpt>
      <trkpt lat="48.860005" lon="2.353277"><ele>39.4</ele><time>2025-05-04T07:17:10Z</time></trkpt>
      <trkpt lat="48.860128" lon="2.353361"><ele>39.5</ele><time>2025-05-04T07:17:15Z</time></trkpt>
      <trkpt lat="48.860251" lon="2.353447"><ele>39.6</ele><time>2025-05-04T07:17:20Z</time></trkpt>
      <trkpt lat="48.860372" lon="2.353536"><ele>39.8</ele><time>2025-05-04T07:17:25Z</time></trkpt>
      <trkpt lat="48.860492" lon="2.353628"><ele>39.9</ele><time>2025-05-04T07:17:30Z</time></trkpt>
      <trkpt lat="48.860612" lon="2.353723"><ele>40</ele><time>2025-05-04T07:17:35Z</time></trkpt>
      <trkpt lat="48.860730" lon="2.353820"><ele>40.1</ele><time>2025-05-04T07:17:40Z</time></trkpt>
      <trkpt lat="48.860848" lon="2.353921"><ele>40.2</ele><time>2025-05-04T07:17:45Z</time></trkpt>
      <trkpt lat="48.860964" lon="2.354024"><ele>40.3</ele><time>2025-05-04T07:17:50Z</time></trkpt>
      <trkpt lat="48.861079" lon="2.354130"><ele>40.4</ele><time>2025-05-04T07:17:55Z</time></trkpt>
      <trkpt lat="48.861193" lon="2.354239"><ele>40.4</ele><time>2025-05-04T07:18:00Z</time></trkpt>
      <trkpt lat="48.861306" lon="2.354351"><ele>40.5</ele><time>2025-05-04T07:18:05Z</time></trkpt>
      <trkpt lat="48.861418" lon="2.354465"><ele>40.6</ele><time>2025-05-04T07:18:10Z</time></trkpt>
      <trkpt lat="48.861529" lon="2.354582"><ele>40.7</ele><time>2025-05-04T07:18:15Z</time></trkpt>
      <trkpt lat="48.861638" lon="2.354701"><ele>40.7</ele><time>2025-05-04T07:18:20Z</time></trkpt>
      <trkpt lat="48.861746" lon="2.354823"><ele>40.8</ele><time>2025-05-04T07:18:25Z</time></trkpt>
      <trkpt lat="48.861853" lon="2.354948"><ele>40.8</ele><time>2025-05-04T07:18:30Z</time></trkpt>
      <trkpt lat="48.861958" lon="2.355076"><ele>40.9</ele><time>2025-05-04T07:18:35Z</time></trkpt>
      <trkpt lat="48.862063" lon="2.355205"><ele>40.9</ele><time>2025-05-04T07:18:40Z</time></trkpt>
      <trkpt lat="48.862165" lon="2.355338"><ele>40.9</ele><time>2025-05-04T07:18:45Z</time></trkpt>
      <trkpt lat="48.862267" lon="2.355472"><ele>41</ele><time>2025-05-04T07:18:50Z</time></trkpt>
      <trkpt lat="48.862367" lon="2.355610"><ele>41</ele><time>2025-05-04T07:18:55Z</time></trkpt>
      <trkpt lat="48.862465" lon="2.355749"><ele>41</ele><time>2025-05-04T07:19:00Z</time></trkpt>
      <trkpt lat="48.862563" lon="2.355891"><ele>41</ele><time>2025-05-04T07:19:05Z</time></trkpt>
      <trkpt lat="48.862658" lon="2.356035"><ele>41</ele><time>2025-05-04T07:19:10Z</time></trkpt>
      <trkpt lat="48.862752" lon="2.356182"><ele>41</ele><time>2025-05-04T07:19:15Z</time></trkpt>
      <trkpt lat="48.862845" lon="2.356330"><ele>41</ele><time>2025-05-04T07:19:20Z</time></trkpt>
      <trkpt lat="48.862936" lon="2.356481"><ele>41</ele><time>2025-05-04T07:19:25Z</time></trkpt>
      <trkpt lat="48.863025" lon="2.356635"><ele>40.9</ele><time>2025-05-04T07:19:30Z</time></trkpt>
      <trkpt lat="48.863113" lon="2.356790"><ele>40.9</ele><time>2025-05-04T07:19:35Z</time></trkpt>
      <trkpt lat="48.863200" lon="2.356947"><ele>40.9</ele><time>2025-05-04T07:19:40Z</time></trkpt>
      <trkpt lat="48.863284" lon="2.357106"><ele>40.8</ele><time>2025-05-04T07:19:45Z</time></trkpt>
      <trkpt lat="48.863367" lon="2.357268"><ele>40.8</ele><time>2025-05-04T07:19:50Z</time></trkpt>
      <trkpt lat="48.863448" lon="2.357431"><ele>40.7</ele><time>2025-05-04T07:19:55Z</time></trkpt>
      <trkpt lat="48.863528" lon="2.357596"><ele>40.7</ele><time>2025-05-04T07:20:00Z</time></trkpt>
      <trkpt lat="48.863606" lon="2.357764"><ele>40.6</ele><time>2025-05-04T07:20:05Z</time></trkpt>
      <trkpt lat="48.863682" lon="2.357933"><ele>40.6</ele><time>2025-05-04T07:20:10Z</time></trkpt>
      <trkpt lat="48.863756" lon="2.358103"><ele>40.5</ele><time>2025-05-04T07:20:15Z</time></trkpt>
      <trkpt lat="48.863828" lon="2.358276"><ele>40.4</ele><time>2025-05-04T07:20:20Z</time></trkpt>
      <trkpt lat="48.863899" lon="2.358450"><ele>40.3</ele><time>2025-05-04T07:20:25Z</time></trkpt>
      <trkpt lat="48.863968" lon="2.358626"><ele>40.2</ele><time>2025-05-04T07:20:30Z</time></trkpt>
      <trkpt lat="48.864035" lon="2.358804"><ele>40.1</ele><time>2025-05-04T07:20:35Z</time></trkpt>
      <trkpt lat="48.864100" lon="2.358983"><ele>40</ele><time>2025-05-04T07:20:40Z</time></trkpt>
      <trkpt lat="48.864164" lon="2.359164"><ele>39.9</ele><time>2025-05-04T07:20:45Z</time></trkpt>
      <trkpt lat="48.864225" lon="2.359346"><ele>39.8</ele><time>2025-05-04T07:20:50Z</time></trkpt>
      <trkpt lat="48.864285" lon="2.359530"><ele>39.7</ele><time>2025-05-04T07:20:55Z</time></trkpt>
      <trkpt lat="48.864342" lon="2.359715"><ele>39.6</ele><time>2025-05-04T07:21:00Z</time></trkpt>
      <trkpt lat="48.864398" lon="2.359901"><ele>39.5</ele><time>2025-05-04T07:21:05Z</time></trkpt>
      <trkpt lat="48.864452" lon="2.360089"><ele>39.3</ele><time>2025-05-04T07:21:10Z</time></trkpt>
      <trkpt lat="48.864504" lon="2.360278"><ele>39.2</ele><time>2025-05-04T07:21:15Z</time></trkpt>
      <trkpt lat="48.864553" lon="2.360468"><ele>39.1</ele><time>2025-05-04T07:21:20Z</time></trkpt>
      <trkpt lat="48.864601" lon="2.360660"><ele>38.9</ele><time>2025-05-04T07:21:25Z</time></trkpt>
      <trkpt lat="48.864647" lon="2.360852"><ele>38.8</ele><time>2025-05-04T07:21:30Z</time></trkpt>
      <trkpt lat="48.864691" lon="2.361046"><ele>38.6</ele><time>2025-05-04T07:21:35Z</time></trkpt>
      <trkpt lat="48.864733" lon="2.361240"><ele>38.5</ele><time>2025-05-04T07:21:40Z</time></trkpt>
      <trkpt lat="48.864773" lon="2.361436"><ele>38.3</ele><time>2025-05-04T07:21:45Z</time></trkpt>
      <trkpt lat="48.864810" lon="2.361633"><ele>38.1</ele><time>2025-05-04T07:21:50Z</time></trkpt>
      <trkpt lat="48.864846" lon="2.361830"><ele>38</ele><time>2025-05-04T07:21:55Z</time></trkpt>
      <trkpt lat="48.864880" lon="2.362028"><ele>37.8</ele><time>2025-05-04T07:22:00Z</time></trkpt>
      <trkpt lat="48.864911" lon="2.362227"><ele>37.7</ele><time>2025-05-04T07:22:05Z</time></trkpt>
      <trkpt lat="48.864941" lon="2.362427"><ele>37.5</ele><time>2025-05-04T07:22:10Z</time></trkpt>
      <trkpt lat="48.864968" lon="2.362628"><ele>37.3</ele><time>2025-05-04T07:22:15Z</time></trkpt>
      <trkpt lat="48.864994" lon="2.362829"><ele>37.1</ele><time>2025-05-04T07:22:20Z</time></trkpt>
      <trkpt lat="48.865017" lon="2.363030"><ele>37</ele><time>2025-05-04T07:22:25Z</time></trkpt>
      <trkpt lat="48.865038" lon="2.363233"><ele>36.8</ele><time>2025-05-04T07:22:30Z</time></trkpt>
      <trkpt lat="48.865057" lon="2.363435"><ele>36.6</ele><time>2025-05-04T07:22:35Z</time></trkpt>
      <trkpt lat="48.865074" lon="2.363638"><ele>36.4</ele><time>2025-05-04T07:22:40Z</time></trkpt>
      <trkpt lat="48.865089" lon="2.363842"><ele>36.2</ele><time>2025-05-04T07:22:45Z</time></trkpt>
      <trkpt lat="48.865102" lon="2.364046"><ele>36</ele><time>2025-05-04T07:22:50Z</time></trkpt>
      <trkpt lat="48.865112" lon="2.364250"><ele>35.8</ele><time>2025-05-04T07:22:55Z</time></trkpt>
      <trkpt lat="48.865121" lon="2.364454"><ele>35.7</ele><time>2025-05-04T07:23:00Z</time></trkpt>
      <trkpt lat="48.865127" lon="2.364659"><ele>35.5</ele><time>2025-05-04T07:23:05Z</time></trkpt>
      <trkpt lat="48.865132" lon="2.364863"><ele>35.3</ele><time>2025-05-04T07:23:10Z</time></trkpt>
      <trkpt lat="48.865134" lon="2.365068"><ele>35.1</ele><time>2025-05-04T07:23:15Z</time></trkpt>
      <trkpt lat="48.865134" lon="2.365273"><ele>34.9</ele><time>2025-05-04T07:23:20Z</time></trkpt>
      <trkpt lat="48.865132" lon="2.365478"><ele>34.7</ele><time>2025-05-04T07:23:25Z</time></trkpt>
      <trkpt lat="48.865127" lon="2.365682"><ele>34.5</ele><time>2025-05-04T07:23:30Z</time></trkpt>
      <trkpt lat="48.865121" lon="2.365887"><ele>34.3</ele><time>2025-05-04T07:23:35Z</time></trkpt>
      <trkpt lat="48.865112" lon="2.366091"><ele>34.2</ele><time>2025-05-04T07:23:40Z</time></trkpt>
      <trkpt lat="48.865102" lon="2.366295"><ele>34</ele><time>2025-05-04T07:23:45Z</time></trkpt>
      <trkpt lat="48.865089" lon="2.366499"><ele>33.8</ele><time>2025-05-04T07:23:50Z</time></trkpt>
      <trkpt lat="48.865074" lon="2.366703"><ele>33.6</ele><time>2025-05-04T07:23:55Z</time></trkpt>
      <trkpt lat="48.865057" lon="2.366906"><ele>33.4</ele><time>2025-05-04T07:24:00Z</time></trkpt>
      <trkpt lat="48.865038" lon="2.367109"><ele>33.2</ele><time>2025-05-04T07:24:05Z</time></trkpt>
      <trkpt lat="48.865017" lon="2.367311"><ele>33</ele><time>2025-05-04T07:24:10Z</time></trkpt>
      <trkpt lat="48.864994" lon="2.367512"><ele>32.9</ele><time>2025-05-04T07:24:15Z</time></trkpt>
      <trkpt lat="48.864968" lon="2.367714"><ele>32.7</ele><time>2025-05-04T07:24:20Z</time></trkpt>
      <trkpt lat="48.864941" lon="2.367914"><ele>32.5</ele><time>2025-05-04T07:24:25Z</time></trkpt>
      <trkpt lat="48.864911" lon="2.368114"><ele>32.3</ele><time>2025-05-04T07:24:30Z</time></trkpt>
      <trkpt lat="48.864880" lon="2.368313"><ele>32.2</ele><time>2025-05-04T07:24:35Z</time></trkpt>
      <trkpt lat="48.864846" lon="2.368511"><ele>32</ele><time>2025-05-04T07:24:40Z</time></trkpt>
      <trkpt lat="48.864810" lon="2.368709"><ele>31.9</ele><time>2025-05-04T07:24:45Z</time></trkpt>
      <trkpt lat="48.864773" lon="2.368905"><ele>31.7</ele><time>2025-05-04T07:24:50Z</time></trkpt>
      <trkpt lat="48.864733" lon="2.369101"><ele>31.5</ele><time>2025-05-04T07:24:55Z</time></trkpt>
      <trkpt lat="48.864691" lon="2.369295"><ele>31.4</ele><time>2025-05-04T07:25:00Z</time></trkpt>
      <trkpt lat="48.864647" lon="2.369489"><ele>31.2</ele><time>2025-05-04T07:25:05Z</time></trkpt>
      <trkpt lat="48.864601" lon="2.369682"><ele>31.1</ele><time>2025-05-04T07:25:10Z</time></trkpt>
      <trkpt lat="48.864553" lon="2.369873"><ele>30.9</ele><time>2025-05-04T07:25:15Z</time></trkpt>
      <trkpt lat="48.864504" lon="2.370063"><ele>30.8</ele><time>2025-05-04T07:25:20Z</time></trkpt>
      <trkpt lat="48.864452" lon="2.370252"><ele>30.7</ele><time>2025-05-04T07:25:25Z</time></trkpt>
      <trkpt lat="48.864398" lon="2.370440"><ele>30.5</ele><time>2025-05-04T07:25:30Z</time></trkpt>
      <trkpt lat="48.864342" lon="2.370626"><ele>30.4</ele><time>2025-05-04T07:25:35Z</time></trkpt>
      <trkpt lat="48.864285" lon="2.370812"><ele>30.3</ele><time>2025-05-04T07:25:40Z</time></trkpt>
      <trkpt lat="48.864225" lon="2.370995"><ele>30.2</ele><time>2025-05-04T07:25:45Z</time></trkpt>
      <trkpt lat="48.864164" lon="2.371177"><ele>30.1</ele><time>2025-05-04T07:25:50Z</time></trkpt>
      <trkpt lat="48.864100" lon="2.371358"><ele>30</ele><time>2025-05-04T07:25:55Z</time></trkpt>
      <trkpt lat="48.864035" lon="2.371537"><ele>29.9</ele><time>2025-05-04T07:26:00Z</time></trkpt>
      <trkpt lat="48.863968" lon="2.371715"><ele>29.8</ele><time>2025-05-04T07:26:05Z</time></trkpt>
      <trkpt lat="48.863899" lon="2.371891"><ele>29.7</ele><time>2025-05-04T07:26:10Z</time></trkpt>
      <trkpt lat="48.863828" lon="2.372065"><ele>29.6</ele><time>2025-05-04T07:26:15Z</time></trkpt>
      <trkpt lat="48.863756" lon="2.372238"><ele>29.5</ele><time>2025-05-04T07:26:20Z</time></trkpt>
      <trkpt lat="48.863682" lon="2.372409"><ele>29.4</ele><time>2025-05-04T07:26:25Z</time></trkpt>
      <trkpt lat="48.863606" lon="2.372578"><ele>29.4</ele><time>2025-05-04T07:26:30Z</time></trkpt>
      <trkpt lat="48.863528" lon="2.372745"><ele>29.3</ele><time>2025-05-04T07:26:35Z</time></trkpt>
      <trkpt lat="48.863448" lon="2.372910"><ele>29.3</ele><time>2025-05-04T07:26:40Z</time></trkpt>
      <trkpt lat="48.863367" lon="2.373073"><ele>29.2</ele><time>2025-05-04T07:26:45Z</time></trkpt>
      <trkpt lat="48.863284" lon="2.373235"><ele>29.2</ele><time>2025-05-04T07:26:50Z</time></trkpt>
      <trkpt lat="48.863200" lon="2.373394"><ele>29.1</ele><time>2025-05-04T07:26:55Z</time></trkpt>
      <trkpt lat="48.863113" lon="2.373551"><ele>29.1</ele><time>2025-05-04T07:27:00Z</time></trkpt>
      <trkpt lat="48.863025" lon="2.373707"><ele>29.1</ele><time>2025-05-04T07:27:05Z</time></trkpt>
      <trkpt lat="48.862936" lon="2.373860"><ele>29</ele><time>2025-05-04T07:27:10Z</time></trkpt>
      <trkpt lat="48.862845" lon="2.374011"><ele>29</ele><time>2025-05-04T07:27:15Z</time></trkpt>
      <trkpt lat="48.862752" lon="2.374159"><ele>29</ele><time>2025-05-04T07:27:20Z</time></trkpt>
      <trkpt lat="48.862658" lon="2.374306"><ele>29</ele><time>2025-05-04T07:27:25Z</time></trkpt>
      <trkpt lat="48.862563" lon="2.374450"><ele>29</ele><time>2025-05-04T07:27:30Z</time></trkpt>
      <trkpt lat="48.862465" lon="2.374592"><ele>29</ele><time>2025-05-04T07:27:35Z</time></trkpt>
      <trkpt lat="48.862367" lon="2.374732"><ele>29</ele><time>2025-05-04T07:27:40Z</time></trkpt>
      <trkpt lat="48.862267" lon="2.374869"><ele>29</ele><time>2025-05-04T07:27:45Z</time></trkpt>
      <trkpt lat="48.862165" lon="2.375004"><ele>29.1</ele><time>2025-05-04T07:27:50Z</time></trkpt>
      <trkpt lat="48.862063" lon="2.375136"><ele>29.1</ele><time>2025-05-04T07:27:55Z</time></trkpt>
      <trkpt lat="48.861958" lon="2.375266"><ele>29.1</ele><time>2025-05-04T07:28:00Z</time></trkpt>
      <trkpt lat="48.861853" lon="2.375393"><ele>29.2</ele><time>2025-05-04T07:28:05Z</time></trkpt>
      <trkpt lat="48.861746" lon="2.375518"><ele>29.2</ele><time>2025-05-04T07:28:10Z</time></trkpt>
      <trkpt lat="48.861638" lon="2.375640"><ele>29.3</ele><time>2025-05-04T07:28:15Z</time></trkpt>
      <trkpt lat="48.861529" lon="2.375759"><ele>29.3</ele><time>2025-05-04T07:28:20Z</time></trkpt>
      <trkpt lat="48.861418" lon="2.375876"><ele>29.4</ele><time>2025-05-04T07:28:25Z</time></trkpt>
      <trkpt lat="48.861306" lon="2.375991"><ele>29.5</ele><time>2025-05-04T07:28:30Z</time></trkpt>
      <trkpt lat="48.861193" lon="2.376102"><ele>29.6</ele><time>2025-05-04T07:28:35Z</time></trkpt>
      <trkpt lat="48.861079" lon="2.376211"><ele>29.6</ele><time>2025-05-04T07:28:40Z</time></trkpt>
      <trkpt lat="48.860964" lon="2.376317"><ele>29.7</ele><time>2025-05-04T07:28:45Z</time></trkpt>
      <trkpt lat="48.860848" lon="2.376421"><ele>29.8</ele><time>2025-05-04T07:28:50Z</time></trkpt>
      <trkpt lat="48.860730" lon="2.376521"><ele>29.9</ele><time>2025-05-04T07:28:55Z</time></trkpt>
      <trkpt lat="48.860612" lon="2.376619"><ele>30</ele><time>2025-05-04T07:29:00Z</time></trkpt>
      <trkpt lat="48.860492" lon="2.376714"><ele>30.1</ele><time>2025-05-04T07:29:05Z</time></trkpt>
      <trkpt lat="48.860372" lon="2.376805"><ele>30.2</ele><time>2025-05-04T07:29:10Z</time></trkpt>
      <trkpt lat="48.860251" lon="2.376895"><ele>30.4</ele><time>2025-05-04T07:29:15Z</time></trkpt>
      <trkpt lat="48.860128" lon="2.376981"><ele>30.5</ele><time>2025-05-04T07:29:20Z</time></trkpt>
      <trkpt lat="48.860005" lon="2.377064"><ele>30.6</ele><time>2025-05-04T07:29:25Z</time></trkpt>
      <trkpt lat="48.859881" lon="2.377144"><ele>30.7</ele><time>2025-05-04T07:29:30Z</time></trkpt>
      <trkpt lat="48.859757" lon="2.377221"><ele>30.9</ele><time>2025-05-04T07:29:35Z</time></trkpt>
      <trkpt lat="48.859631" lon="2.377296"><ele>31</ele><time>2025-05-04T07:29:40Z</time></trkpt>
      <trkpt lat="48.859505" lon="2.377367"><ele>31.2</ele><time>2025-05-04T07:29:45Z</time></trkpt>
      <trkpt lat="48.859378" lon="2.377435"><ele>31.3</ele><time>2025-05-04T07:29:50Z</time></trkpt>
      <trkpt lat="48.859250" lon="2.377500"><ele>31.5</ele><time>2025-05-04T07:29:55Z</time></trkpt>
      <trkpt lat="48.859122" lon="2.377562"><ele>31.6</ele><time>2025-05-04T07:30:00Z</time></trkpt>
      <trkpt lat="48.858993" lon="2.377621"><ele>31.8</ele><time>2025-05-04T07:30:05Z</time></trkpt>
      <trkpt lat="48.858863" lon="2.377677"><ele>31.9</ele><time>2025-05-04T07:30:10Z</time></trkpt>
      <trkpt lat="48.858733" lon="2.377730"><ele>32.1</ele><time>2025-05-04T07:30:15Z</time></trkpt>
      <trkpt lat="48.858602" lon="2.377779"><ele>32.3</ele><time>2025-05-04T07:30:20Z</time></trkpt>
      <trkpt lat="48.858471" lon="2.377826"><ele>32.4</ele><time>2025-05-04T07:30:25Z</time></trkpt>
      <trkpt lat="48.858339" lon="2.377869"><ele>32.6</ele><time>2025-05-04T07:30:30Z</time></trkpt>
      <trkpt lat="48.858207" lon="2.377909"><ele>32.8</ele><time>2025-05-04T07:30:35Z</time></trkpt>
      <trkpt lat="48.858075" lon="2.377946"><ele>33</ele><time>2025-05-04T07:30:40Z</time></trkpt>
      <trkpt lat="48.857942" lon="2.377980"><ele>33.1</ele><time>2025-05-04T07:30:45Z</time></trkpt>
      <trkpt lat="48.857808" lon="2.378011"><ele>33.3</ele><time>2025-05-04T07:30:50Z</time></trkpt>
      <trkpt lat="48.857675" lon="2.378038"><ele>33.5</ele><time>2025-05-04T07:30:55Z</time></trkpt>
      <trkpt lat="48.857541" lon="2.378062"><ele>33.7</ele><time>2025-05-04T07:31:00Z</time></trkpt>
      <trkpt lat="48.857407" lon="2.378083"><ele>33.9</ele><time>2025-05-04T07:31:05Z</time></trkpt>
      <trkpt lat="48.857273" lon="2.378101"><ele>34.1</ele><time>2025-05-04T07:31:10Z</time></trkpt>
      <trkpt lat="48.857139" lon="2.378115"><ele>34.2</ele><time>2025-05-04T07:31:15Z</time></trkpt>
      <trkpt lat="48.857004" lon="2.378127"><ele>34.4</ele><time>2025-05-04T07:31:20Z</time></trkpt>
      <trkpt lat="48.856869" lon="2.378135"><ele>34.6</ele><time>2025-05-04T07:31:25Z</time></trkpt>
      <trkpt lat="48.856735" lon="2.378140"><ele>34.8</ele><time>2025-05-04T07:31:30Z</time></trkpt>
      <trkpt lat="48.856600" lon="2.378141"><ele>35</ele><time>2025-05-04T07:31:35Z</time></trkpt>
      <trkpt lat="48.856465" lon="2.378140"><ele>35.2</ele><time>2025-05-04T07:31:40Z</time></trkpt>
      <trkpt lat="48.856331" lon="2.378135"><ele>35.4</ele><time>2025-05-04T07:31:45Z</time></trkpt>
      <trkpt lat="48.856196" lon="2.378127"><ele>35.6</ele><time>2025-05-04T07:31:50Z</time></trkpt>
      <trkpt lat="48.856061" lon="2.378115"><ele>35.8</ele><time>2025-05-04T07:31:55Z</time></trkpt>
      <trkpt lat="48.855927" lon="2.378101"><ele>35.9</ele><time>2025-05-04T07:32:00Z</time></trkpt>
      <trkpt lat="48.855793" lon="2.378083"><ele>36.1</ele><time>2025-05-04T07:32:05Z</time></trkpt>
      <trkpt lat="48.855659" lon="2.378062"><ele>36.3</ele><time>2025-05-04T07:32:10Z</time></trkpt>
      <trkpt lat="48.855525" lon="2.378038"><ele>36.5</ele><time>2025-05-04T07:32:15Z</time></trkpt>
      <trkpt lat="48.855392" lon="2.378011"><ele>36.7</ele><time>2025-05-04T07:32:20Z</time></trkpt>
      <trkpt lat="48.855258" lon="2.377980"><ele>36.9</ele><time>2025-05-04T07:32:25Z</time></trkpt>
      <trkpt lat="48.855125" lon="2.377946"><ele>37</ele><time>2025-05-04T07:32:30Z</time></trkpt>
      <trkpt lat="48.854993" lon="2.377909"><ele>37.2</ele><time>2025-05-04T07:32:35Z</time></trkpt>
      <trkpt lat="48.854861" lon="2.377869"><ele>37.4</ele><time>2025-05-04T07:32:40Z</time></trkpt>
      <trkpt lat="48.854729" lon="2.377826"><ele>37.6</ele><time>2025-05-04T07:32:45Z</time></trkpt>
      <trkpt lat="48.854598" lon="2.377779"><ele>37.7</ele><time>2025-05-04T07:32:50Z</time></trkpt>
      <trkpt lat="48.854467" lon="2.377730"><ele>37.9</ele><time>2025-05-04T07:32:55Z</time></trkpt>
      <trkpt lat="48.854337" lon="2.377677"><ele>38.1</ele><time>2025-05-04T07:33:00Z</time></trkpt>
      <trkpt lat="48.854207" lon="2.377621"><ele>38.2</ele><time>2025-05-04T07:33:05Z</time></trkpt>
      <trkpt lat="48.854078" lon="2.377562"><ele>38.4</ele><time>2025-05-04T07:33:10Z</time></trkpt>
      <trkpt lat="48.853950" lon="2.377500"><ele>38.5</ele><time>2025-05-04T07:33:15Z</time></trkpt>
      <trkpt lat="48.853822" lon="2.377435"><ele>38.7</ele><time>2025-05-04T07:33:20Z</time></trkpt>
      <trkpt lat="48.853695" lon="2.377367"><ele>38.8</ele><time>2025-05-04T07:33:25Z</time></trkpt>
      <trkpt lat="48.853569" lon="2.377296"><ele>39</ele><time>2025-05-04T07:33:30Z</time></trkpt>
      <trkpt lat="48.853443" lon="2.377221"><ele>39.1</ele><time>2025-05-04T07:33:35Z</time></trkpt>
      <trkpt lat="48.853319" lon="2.377144"><ele>39.3</ele><time>2025-05-04T07:33:40Z</time></trkpt>
      <trkpt lat="48.853195" lon="2.377064"><ele>39.4</ele><time>2025-05-04T07:33:45Z</time></trkpt>
      <trkpt lat="48.853072" lon="2.376981"><ele>39.5</ele><time>2025-05-04T07:33:50Z</time></trkpt>
      <trkpt lat="48.852949" lon="2.376895"><ele>39.6</ele><time>2025-05-04T07:33:55Z</time></trkpt>
      <trkpt lat="48.852828" lon="2.376805"><ele>39.8</ele><time>2025-05-04T07:34:00Z</time></trkpt>
      <trkpt lat="48.852708" lon="2.376714"><ele>39.9</ele><time>2025-05-04T07:34:05Z</time></trkpt>
      <trkpt lat="48.852588" lon="2.376619"><ele>40</ele><time>2025-05-04T07:34:10Z</time></trkpt>
      <trkpt lat="48.852470" lon="2.376521"><ele>40.1</ele><time>2025-05-04T07:34:15Z</time></trkpt>
      <trkpt lat="48.852352" lon="2.376421"><ele>40.2</ele><time>2025-05-04T07:34:20Z</time></trkpt>
      <trkpt lat="48.852236" lon="2.376317"><ele>40.3</ele><time>2025-05-04T07:34:25Z</time></trkpt>
      <trkpt lat="48.852121" lon="2.376211"><ele>40.4</ele><time>2025-05-04T07:34:30Z</time></trkpt>
      <trkpt lat="48.852007" lon="2.376102"><ele>40.4</ele><time>2025-05-04T07:34:35Z</time></trkpt>
      <trkpt lat="48.851894" lon="2.375991"><ele>40.5</ele><time>2025-05-04T07:34:40Z</time></trkpt>
      <trkpt lat="48.851782" lon="2.375876"><ele>40.6</ele><time>2025-05-04T07:34:45Z</time></trkpt>
      <trkpt lat="48.851671" lon="2.375759"><ele>40.7</ele><time>2025-05-04T07:34:50Z</time></trkpt>
      <trkpt lat="48.851562" lon="2.375640"><ele>40.7</ele><time>2025-05-04T07:34:55Z</time></trkpt>
      <trkpt lat="48.851454" lon="2.375518"><ele>40.8</ele><time>2025-05-04T07:35:00Z</time></trkpt>
      <trkpt lat="48.851347" lon="2.375393"><ele>40.8</ele><time>2025-05-04T07:35:05Z</time></trkpt>
      <trkpt lat="48.851242" lon="2.375266"><ele>40.9</ele><time>2025-05-04T07:35:10Z</time></trkpt>
      <trkpt lat="48.851137" lon="2.375136"><ele>40.9</ele><time>2025-05-04T07:35:15Z</time></trkpt>
      <trkpt lat="48.851035" lon="2.375004"><ele>40.9</ele><time>2025-05-04T07:35:20Z</time></trkpt>
      <trkpt lat="48.850933" lon="2.374869"><ele>41</ele><time>2025-05-04T07:35:25Z</time></trkpt>
      <trkpt lat="48.850833" lon="2.374732"><ele>41</ele><time>2025-05-04T07:35:30Z</time></trkpt>
      <trkpt lat="48.850735" lon="2.374592"><ele>41</ele><time>2025-05-04T07:35:35Z</time></trkpt>
      <trkpt lat="48.850637" lon="2.374450"><ele>41</ele><time>2025-05-04T07:35:40Z</time></trkpt>
      <trkpt lat="48.850542" lon="2.374306"><ele>41</ele><time>2025-05-04T07:35:45Z</time></trkpt>
      <trkpt lat="48.850448" lon="2.374159"><ele>41</ele><time>2025-05-04T07:35:50Z</time></trkpt>
      <trkpt lat="48.850355" lon="2.374011"><ele>41</ele><time>2025-05-04T07:35:55Z</time></trkpt>
      <trkpt lat="48.850264" lon="2.373860"><ele>41</ele><time>2025-05-04T07:36:00Z</time></trkpt>
      <trkpt lat="48.850175" lon="2.373707"><ele>40.9</ele><time>2025-05-04T07:36:05Z</time></trkpt>
      <trkpt lat="48.850087" lon="2.373551"><ele>40.9</ele><time>2025-05-04T07:36:10Z</time></trkpt>
      <trkpt lat="48.850000" lon="2.373394"><ele>40.9</ele><time>2025-05-04T07:36:15Z</time></trkpt>
      <trkpt lat="48.849916" lon="2.373235"><ele>40.8</ele><time>2025-05-04T07:36:20Z</time></trkpt>
      <trkpt lat="48.849833" lon="2.373073"><ele>40.8</ele><time>2025-05-04T07:36:25Z</time></trkpt>
      <trkpt lat="48.849752" lon="2.372910"><ele>40.7</ele><time>2025-05-04T07:36:30Z</time></trkpt>
      <trkpt lat="48.849672" lon="2.372745"><ele>40.7</ele><time>2025-05-04T07:36:35Z</time></trkpt>
      <trkpt lat="48.849594" lon="2.372578"><ele>40.6</ele><time>2025-05-04T07:36:40Z</time></trkpt>
      <trkpt lat="48.849518" lon="2.372409"><ele>40.6</ele><time>2025-05-04T07:36:45Z</time></trkpt>
      <trkpt lat="48.849444" lon="2.372238"><ele>40.5</ele><time>2025-05-04T07:36:50Z</time></trkpt>
      <trkpt lat="48.849372" lon="2.372065"><ele>40.4</ele><time>2025-05-04T07:36:55Z</time></trkpt>
      <trkpt lat="48.849301" lon="2.371891"><ele>40.3</ele><time>2025-05-04T07:37:00Z</time></trkpt>
      <trkpt lat="48.849232" lon="2.371715"><ele>40.2</ele><time>2025-05-04T07:37:05Z</time></trkpt>
      <trkpt lat="48.849165" lon="2.371537"><ele>40.1</ele><time>2025-05-04T07:37:10Z</time></trkpt>
      <trkpt lat="48.849100" lon="2.371358"><ele>40</ele><time>2025-05-04T07:37:15Z</time></trkpt>
      <trkpt lat="48.849036" lon="2.371177"><ele>39.9</ele><time>2025-05-04T07:37:20Z</time></trkpt>
      <trkpt lat="48.848975" lon="2.370995"><ele>39.8</ele><time>2025-05-04T07:37:25Z</time></trkpt>
      <trkpt lat="48.848915" lon="2.370812"><ele>39.7</ele><time>2025-05-04T07:37:30Z</time></trkpt>
      <trkpt lat="48.848858" lon="2.370626"><ele>39.6</ele><time>2025-05-04T07:37:35Z</time></trkpt>
      <trkpt lat="48.848802" lon="2.370440"><ele>39.5</ele><time>2025-05-04T07:37:40Z</time></trkpt>
      <trkpt lat="48.848748" lon="2.370252"><ele>39.3</ele><time>2025-05-04T07:37:45Z</time></trkpt>
      <trkpt lat="48.848696" lon="2.370063"><ele>39.2</ele><time>2025-05-04T07:37:50Z</time></trkpt>
      <trkpt lat="48.848647" lon="2.369873"><ele>39.1</ele><time>2025-05-04T07:37:55Z</time></trkpt>
      <trkpt lat="48.848599" lon="2.369682"><ele>38.9</ele><time>2025-05-04T07:38:00Z</time></trkpt>
      <trkpt lat="48.848553" lon="2.369489"><ele>38.8</ele><time>2025-05-04T07:38:05Z</time></trkpt>
      <trkpt lat="48.848509" lon="2.369295"><ele>38.6</ele><time>2025-05-04T07:38:10Z</time></trkpt>
      <trkpt lat="48.848467" lon="2.369101"><ele>38.5</ele><time>2025-05-04T07:38:15Z</time></trkpt>
      <trkpt lat="48.848427" lon="2.368905"><ele>38.3</ele><time>2025-05-04T07:38:20Z</time></trkpt>
      <trkpt lat="48.848390" lon="2.368709"><ele>38.1</ele><time>2025-05-04T07:38:25Z</time></trkpt>
      <trkpt lat="48.848354" lon="2.368511"><ele>38</ele><time>2025-05-04T07:38:30Z</time></trkpt>
      <trkpt lat="48.848320" lon="2.368313"><ele>37.8</ele><time>2025-05-04T07:38:35Z</time></trkpt>
      <trkpt lat="48.848289" lon="2.368114"><ele>37.7</ele><time>2025-05-04T07:38:40Z</time></trkpt>
      <trkpt lat="48.848259" lon="2.367914"><ele>37.5</ele><time>2025-05-04T07:38:45Z</time></trkpt>
      <trkpt lat="48.848232" lon="2.367714"><ele>37.3</ele><time>2025-05-04T07:38:50Z</time></trkpt>
      <trkpt lat="48.848206" lon="2.367512"><ele>37.1</ele><time>2025-05-04T07:38:55Z</time></trkpt>
      <trkpt lat="48.848183" lon="2.367311"><ele>37</ele><time>2025-05-04T07:39:00Z</time></trkpt>
      <trkpt lat="48.848162" lon="2.367109"><ele>36.8</ele><time>2025-05-04T07:39:05Z</time></trkpt>
      <trkpt lat="48.848143" lon="2.366906"><ele>36.6</ele><time>2025-05-04T07:39:10Z</time></trkpt>
      <trkpt lat="48.848126" lon="2.366703"><ele>36.4</ele><time>2025-05-04T07:39:15Z</time></trkpt>
      <trkpt lat="48.848111" lon="2.366499"><ele>36.2</ele><time>2025-05-04T07:39:20Z</time></trkpt>
      <trkpt lat="48.848098" lon="2.366295"><ele>36</ele><time>2025-05-04T07:39:25Z</time></trkpt>
      <trkpt lat="48.848088" lon="2.366091"><ele>35.8</ele><time>2025-05-04T07:39:30Z</time></trkpt>
      <trkpt lat="48.848079" lon="2.365887"><ele>35.7</ele><time>2025-05-04T07:39:35Z</time></trkpt>
      <trkpt lat="48.848073" lon="2.365682"><ele>35.5</ele><time>2025-05-04T07:39:40Z</time></trkpt>
      <trkpt lat="48.848068" lon="2.365478"><ele>35.3</ele><time>2025-05-04T07:39:45Z</time></trkpt>
      <trkpt lat="48.848066" lon="2.365273"><ele>35.1</ele><time>2025-05-04T07:39:50Z</time></trkpt>
      <trkpt lat="48.848066" lon="2.365068"><ele>34.9</ele><time>2025-05-04T07:39:55Z</time></trkpt>
      <trkpt lat="48.848068" lon="2.364863"><ele>34.7</ele><time>2025-05-04T07:40:00Z</time></trkpt>
      <trkpt lat="48.848073" lon="2.364659"><ele>34.5</ele><time>2025-05-04T07:40:05Z</time></trkpt>
      <trkpt lat="48.848079" lon="2.364454"><ele>34.3</ele><time>2025-05-04T07:40:10Z</time></trkpt>
      <trkpt lat="48.848088" lon="2.364250"><ele>34.2</ele><time>2025-05-04T07:40:15Z</time></trkpt>
      <trkpt lat="48.848098" lon="2.364046"><ele>34</ele><time>2025-05-04T07:40:20Z</time></trkpt>
      <trkpt lat="48.848111" lon="2.363842"><ele>33.8</ele><time>2025-05-04T07:40:25Z</time></trkpt>
      <trkpt lat="48.848126" lon="2.363638"><ele>33.6</ele><time>2025-05-04T07:40:30Z</time></trkpt>
      <trkpt lat="48.848143" lon="2.363435"><ele>33.4</ele><time>2025-05-04T07:40:35Z</time></trkpt>
      <trkpt lat="48.848162" lon="2.363233"><ele>33.2</ele><time>2025-05-04T07:40:40Z</time></trkpt>
      <trkpt lat="48.848183" lon="2.363030"><ele>33</ele><time>2025-05-04T07:40:45Z</time></trkpt>
      <trkpt lat="48.848206" lon="2.362829"><ele>32.9</ele><time>2025-05-04T07:40:50Z</time></trkpt>
      <trkpt lat="48.848232" lon="2.362628"><ele>32.7</ele><time>2025-05-04T07:40:55Z</time></trkpt>
      <trkpt lat="48.848259" lon="2.362427"><ele>32.5</ele><time>2025-05-04T07:41:00Z</time></trkpt>
      <trkpt lat="48.848289" lon="2.362227"><ele>32.3</ele><time>2025-05-04T07:41:05Z</time></trkpt>
      <trkpt lat="48.848320" lon="2.362028"><ele>32.2</ele><time>2025-05-04T07:41:10Z</time></trkpt>
      <trkpt lat="48.848354" lon="2.361830"><ele>32</ele><time>2025-05-04T07:41:15Z</time></trkpt>
      <trkpt lat="48.848390" lon="2.361633"><ele>31.9</ele><time>2025-05-04T07:41:20Z</time></trkpt>
      <trkpt lat="48.848427" lon="2.361436"><ele>31.7</ele><time>2025-05-04T07:41:25Z</time></trkpt>
      <trkpt lat="48.848467" lon="2.361240"><ele>31.5</ele><time>2025-05-04T07:41:30Z</time></trkpt>
      <trkpt lat="48.848509" lon="2.361046"><ele>31.4</ele><time>2025-05-04T07:41:35Z</time></trkpt>
      <trkpt lat="48.848553" lon="2.360852"><ele>31.2</ele><time>2025-05-04T07:41:40Z</time></trkpt>
      <trkpt lat="48.848599" lon="2.360660"><ele>31.1</ele><time>2025-05-04T07:41:45Z</time></trkpt>
      <trkpt lat="48.848647" lon="2.360468"><ele>30.9</ele><time>2025-05-04T07:41:50Z</time></trkpt>
      <trkpt lat="48.848696" lon="2.360278"><ele>30.8</ele><time>2025-05-04T07:41:55Z</time></trkpt>
      <trkpt lat="48.848748" lon="2.360089"><ele>30.7</ele><time>2025-05-04T07:42:00Z</time></trkpt>
      <trkpt lat="48.848802" lon="2.359901"><ele>30.5</ele><time>2025-05-04T07:42:05Z</time></trkpt>
      <trkpt lat="48.848858" lon="2.359715"><ele>30.4</ele><time>2025-05-04T07:42:10Z</time></trkpt>
      <trkpt lat="48.848915" lon="2.359530"><ele>30.3</ele><time>2025-05-04T07:42:15Z</time></trkpt>
      <trkpt lat="48.848975" lon="2.359346"><ele>30.2</ele><time>2025-05-04T07:42:20Z</time></trkpt>
      <trkpt lat="48.849036" lon="2.359164"><ele>30.1</ele><time>2025-05-04T07:42:25Z</time></trkpt>
      <trkpt lat="48.849100" lon="2.358983"><ele>30</ele><time>2025-05-04T07:42:30Z</time></trkpt>
      <trkpt lat="48.849165" lon="2.358804"><ele>29.9</ele><time>2025-05-04T07:42:35Z</time></trkpt>
      <trkpt lat="48.849232" lon="2.358626"><ele>29.8</ele><time>2025-05-04T07:42:40Z</time></trkpt>
      <trkpt lat="48.849301" lon="2.358450"><ele>29.7</ele><time>2025-05-04T07:42:45Z</time></trkpt>
      <trkpt lat="48.849372" lon="2.358276"><ele>29.6</ele><time>2025-05-04T07:42:50Z</time></trkpt>
      <trkpt lat="48.849444" lon="2.358103"><ele>29.5</ele><time>2025-05-04T07:42:55Z</time></trkpt>
      <trkpt lat="48.849518" lon="2.357933"><ele>29.4</ele><time>2025-05-04T07:43:00Z</time></trkpt>
      <trkpt lat="48.849594" lon="2.357764"><ele>29.4</ele><time>2025-05-04T07:43:05Z</time></trkpt>
      <trkpt lat="48.849672" lon="2.357596"><ele>29.3</ele><time>2025-05-04T07:43:10Z</time></trkpt>
      <trkpt lat="48.849752" lon="2.357431"><ele>29.3</ele><time>2025-05-04T07:43:15Z</time></trkpt>
      <trkpt lat="48.849833" lon="2.357268"><ele>29.2</ele><time>2025-05-04T07:43:20Z</time></trkpt>
      <trkpt lat="48.849916" lon="2.357106"><ele>29.2</ele><time>2025-05-04T07:43:25Z</time></trkpt>
      <trkpt lat="48.850000" lon="2.356947"><ele>29.1</ele><time>2025-05-04T07:43:30Z</time></trkpt>
      <trkpt lat="48.850087" lon="2.356790"><ele>29.1</ele><time>2025-05-04T07:43:35Z</time></trkpt>
      <trkpt lat="48.850175" lon="2.356635"><ele>29.1</ele><time>2025-05-04T07:43:40Z</time></trkpt>
      <trkpt lat="48.850264" lon="2.356481"><ele>29</ele><time>2025-05-04T07:43:45Z</time></trkpt>
      <trkpt lat="48.850355" lon="2.356330"><ele>29</ele><time>2025-05-04T07:43:50Z</time></trkpt>
      <trkpt lat="48.850448" lon="2.356182"><ele>29</ele><time>2025-05-04T07:43:55Z</time></trkpt>
      <trkpt lat="48.850542" lon="2.356035"><ele>29</ele><time>2025-05-04T07:44:00Z</time></trkpt>
      <trkpt lat="48.850637" lon="2.355891"><ele>29</ele><time>2025-05-04T07:44:05Z</time></trkpt>
      <trkpt lat="48.850735" lon="2.355749"><ele>29</ele><time>2025-05-04T07:44:10Z</time></trkpt>
      <trkpt lat="48.850833" lon="2.355610"><ele>29</ele><time>2025-05-04T07:44:15Z</time></trkpt>
      <trkpt lat="48.850933" lon="2.355472"><ele>29</ele><time>2025-05-04T07:44:20Z</time></trkpt>
      <trkpt lat="48.851035" lon="2.355338"><ele>29.1</ele><time>2025-05-04T07:44:25Z</time></trkpt>
      <trkpt lat="48.851137" lon="2.355205"><ele>29.1</ele><time>2025-05-04T07:44:30Z</time></trkpt>
      <trkpt lat="48.851242" lon="2.355076"><ele>29.1</ele><time>2025-05-04T07:44:35Z</time></trkpt>
      <trkpt lat="48.851347" lon="2.354948"><ele>29.2</ele><time>2025-05-04T07:44:40Z</time></trkpt>
      <trkpt lat="48.851454" lon="2.354823"><ele>29.2</ele><time>2025-05-04T07:44:45Z</time></trkpt>
      <trkpt lat="48.851562" lon="2.354701"><ele>29.3</ele><time>2025-05-04T07:44:50Z</time></trkpt>
      <trkpt lat="48.851671" lon="2.354582"><ele>29.3</ele><time>2025-05-04T07:44:55Z</time></trkpt>
      <trkpt lat="48.851782" lon="2.354465"><ele>29.4</ele><time>2025-05-04T07:45:00Z</time></trkpt>
      <trkpt lat="48.851894" lon="2.354351"><ele>29.5</ele><time>2025-05-04T07:45:05Z</time></trkpt>
      <trkpt lat="48.852007" lon="2.354239"><ele>29.6</ele><time>2025-05-04T07:45:10Z</time></trkpt>
      <trkpt lat="48.852121" lon="2.354130"><ele>29.6</ele><time>2025-05-04T07:45:15Z</time></trkpt>
      <trkpt lat="48.852236" lon="2.354024"><ele>29.7</ele><time>2025-05-04T07:45:20Z</time></trkpt>
      <trkpt lat="48.852352" lon="2.353921"><ele>29.8</ele><time>2025-05-04T07:45:25Z</time></trkpt>
      <trkpt lat="48.852470" lon="2.353820"><ele>29.9</ele><time>2025-05-04T07:45:30Z</time></trkpt>
      <trkpt lat="48.852588" lon="2.353723"><ele>30</ele><time>2025-05-04T07:45:35Z</time></trkpt>
      <trkpt lat="48.852708" lon="2.353628"><ele>30.1</ele><time>2025-05-04T07:45:40Z</time></trkpt>
      <trkpt lat="48.852828" lon="2.353536"><ele>30.2</ele><time>2025-05-04T07:45:45Z</time></trkpt>
      <trkpt lat="48.852949" lon="2.353447"><ele>30.4</ele><time>2025-05-04T07:45:50Z</time></trkpt>
      <trkpt lat="48.853072" lon="2.353361"><ele>30.5</ele><time>2025-05-04T07:45:55Z</time></trkpt>
      <trkpt lat="48.853195" lon="2.353277"><ele>30.6</ele><time>2025-05-04T07:46:00Z</time></trkpt>
      <trkpt lat="48.853319" lon="2.353197"><ele>30.7</ele><time>2025-05-04T07:46:05Z</time></trkpt>
      <trkpt lat="48.853443" lon="2.353120"><ele>30.9</ele><time>2025-05-04T07:46:10Z</time></trkpt>
      <trkpt lat="48.853569" lon="2.353046"><ele>31</ele><time>2025-05-04T07:46:15Z</time></trkpt>
      <trkpt lat="48.853695" lon="2.352974"><ele>31.2</ele><time>2025-05-04T07:46:20Z</time></trkpt>
      <trkpt lat="48.853822" lon="2.352906"><ele>31.3</ele><time>2025-05-04T07:46:25Z</time></trkpt>
      <trkpt lat="48.853950" lon="2.352841"><ele>31.5</ele><time>2025-05-04T07:46:30Z</time></trkpt>
      <trkpt lat="48.854078" lon="2.352779"><ele>31.6</ele><time>2025-05-04T07:46:35Z</time></trkpt>
      <trkpt lat="48.854207" lon="2.352720"><ele>31.8</ele><time>2025-05-04T07:46:40Z</time></trkpt>
      <trkpt lat="48.854337" lon="2.352664"><ele>31.9</ele><time>2025-05-04T07:46:45Z</time></trkpt>
      <trkpt lat="48.854467" lon="2.352612"><ele>32.1</ele><time>2025-05-04T07:46:50Z</time></trkpt>
      <trkpt lat="48.854598" lon="2.352562"><ele>32.3</ele><time>2025-05-04T07:46:55Z</time></trkpt>
      <trkpt lat="48.854729" lon="2.352516"><ele>32.4</ele><time>2025-05-04T07:47:00Z</time></trkpt>
      <trkpt lat="48.854861" lon="2.352472"><ele>32.6</ele><time>2025-05-04T07:47:05Z</time></trkpt>
      <trkpt lat="48.854993" lon="2.352432"><ele>32.8</ele><time>2025-05-04T07:47:10Z</time></trkpt>
      <trkpt lat="48.855125" lon="2.352395"><ele>33</ele><time>2025-05-04T07:47:15Z</time></trkpt>
      <trkpt lat="48.855258" lon="2.352361"><ele>33.1</ele><time>2025-05-04T07:47:20Z</time></trkpt>
      <trkpt lat="48.855392" lon="2.352331"><ele>33.3</ele><time>2025-05-04T07:47:25Z</time></trkpt>
      <trkpt lat="48.855525" lon="2.352303"><ele>33.5</ele><time>2025-05-04T07:47:30Z</time></trkpt>
      <trkpt lat="48.855659" lon="2.352279"><ele>33.7</ele><time>2025-05-04T07:47:35Z</time></trkpt>
      <trkpt lat="48.855793" lon="2.352258"><ele>33.9</ele><time>2025-05-04T07:47:40Z</time></trkpt>
      <trkpt lat="48.855927" lon="2.352240"><ele>34.1</ele><time>2025-05-04T07:47:45Z</time></trkpt>
      <trkpt lat="48.856061" lon="2.352226"><ele>34.2</ele><time>2025-05-04T07:47:50Z</time></trkpt>
      <trkpt lat="48.856196" lon="2.352215"><ele>34.4</ele><time>2025-05-04T07:47:55Z</time></trkpt>
      <trkpt lat="48.856331" lon="2.352206"><ele>34.6</ele><time>2025-05-04T07:48:00Z</time></trkpt>
      <trkpt lat="48.856465" lon="2.352202"><ele>34.8</ele><time>2025-05-04T07:48:05Z</time></trkpt>
      <trkpt lat="48.856600" lon="2.352200"><ele>35</ele><time>2025-05-04T07:48:10Z</time></trkpt>
    </trkseg>
  </trk>
</gpx>
