<?xml version="1.0" encoding="UTF-8"?>
<gpx version="1.1" creator="run-together-e2e" xmlns="http://www.topografix.com/GPX/1/1">
  <metadata><time>2025-04-20T07:00:00Z</time></metadata>
  <trk>
    <name>Vélo e2e</name>
    <type>cycling</type>
    <trkseg>
      <trkpt lat="48.856600" lon="2.352200"><ele>35</ele><time>2025-04-20T07:00:00Z</time></trkpt>
      <trkpt lat="48.856914" lon="2.352204"><ele>35.2</ele><time>2025-04-20T07:00:05Z</time></trkpt>
      <trkpt lat="48.857229" lon="2.352217"><ele>35.4</ele><time>2025-04-20T07:00:10Z</time></trkpt>
      <trkpt lat="48.857543" lon="2.352238"><ele>35.6</ele><time>2025-04-20T07:00:15Z</time></trkpt>
      <trkpt lat="48.857857" lon="2.352267"><ele>35.8</ele><time>2025-04-20T07:00:20Z</time></trkpt>
      <trkpt lat="48.858170" lon="2.352304"><ele>36</ele><time>2025-04-20T07:00:25Z</time></trkpt>
      <trkpt lat="48.858483" lon="2.352350"><ele>36.3</ele><time>2025-04-20T07:00:30Z</time></trkpt>
      <trkpt lat="48.858796" lon="2.352405"><ele>36.5</ele><time>2025-04-20T07:00:35Z</time></trkpt>
      <trkpt lat="48.859107" lon="2.352467"><ele>36.7</ele><time>2025-04-20T07:00:40Z</time></trkpt>
      <trkpt lat="48.859418" lon="2.352538"><ele>36.9</ele><time>2025-04-20T07:00:45Z</time></trkpt>
      <trkpt lat="48.859728" lon="2.352617"><ele>37.1</ele><time>2025-04-20T07:00:50Z</time></trkpt>
      <trkpt lat="48.860038" lon="2.352704"><ele>37.3</ele><time>2025-04-20T07:00:55Z</time></trkpt>
      <trkpt lat="48.860346" lon="2.352800"><ele>37.4</ele><time>2025-04-20T07:01:00Z</time></trkpt>
      <trkpt lat="48.860653" lon="2.352904"><ele>37.6</ele><time>2025-04-20T07:01:05Z</time></trkpt>
      <trkpt lat="48.860958" lon="2.353016"><ele>37.8</ele><time>2025-04-20T07:01:10Z</time></trkpt>
      <trkpt lat="48.861263" lon="2.353136"><ele>38</ele><time>2025-04-20T07:01:15Z</time></trkpt>
      <trkpt lat="48.861566" lon="2.353264"><ele>38.2</ele><time>2025-04-20T07:01:20Z</time></trkpt>
      <trkpt lat="48.861867" lon="2.353400"><ele>38.4</ele><time>2025-04-20T07:01:25Z</time></trkpt>
      <trkpt lat="48.862167" lon="2.353544"><ele>38.5</ele><time>2025-04-20T07:01:30Z</time></trkpt>
      <trkpt lat="48.862465" lon="2.353696"><ele>38.7</ele><time>2025-04-20T07:01:35Z</time></trkpt>
      <trkpt lat="48.862761" lon="2.353856"><ele>38.9</ele><time>2025-04-20T07:01:40Z</time></trkpt>
      <trkpt lat="48.863056" lon="2.354024"><ele>39</ele><time>2025-04-20T07:01:45Z</time></trkpt>
      <trkpt lat="48.863348" lon="2.354199"><ele>39.2</ele><time>2025-04-20T07:01:50Z</time></trkpt>
      <trkpt lat="48.863638" lon="2.354383"><ele>39.3</ele><time>2025-04-20T07:01:55Z</time></trkpt>
      <trkpt lat="48.863927" lon="2.354574"><ele>39.5</ele><time>2025-04-20T07:02:00Z</time></trkpt>
      <trkpt lat="48.864213" lon="2.354772"><ele>39.6</ele><time>2025-04-20T07:02:05Z</time></trkpt>
      <trkpt lat="48.864496" lon="2.354979"><ele>39.7</ele><time>2025-04-20T07:02:10Z</time></trkpt>
      <trkpt lat="48.864778" lon="2.355193"><ele>39.9</ele><time>2025-04-20T07:02:15Z</time></trkpt>
      <trkpt lat="48.865056" lon="2.355414"><ele>40</ele><time>2025-04-20T07:02:20Z</time></trkpt>
      <trkpt lat="48.865332" lon="2.355642"><ele>40.1</ele><time>2025-04-20T07:02:25Z</time></trkpt>
      <trkpt lat="48.865606" lon="2.355878"><ele>40.2</ele><time>2025-04-20T07:02:30Z</time></trkpt>
      <trkpt lat="48.865876" lon="2.356121"><ele>40.3</ele><time>2025-04-20T07:02:35Z</time></trkpt>
      <trkpt lat="48.866144" lon="2.356372"><ele>40.4</ele><time>2025-04-20T07:02:40Z</time></trkpt>
      <trkpt lat="48.866409" lon="2.356629"><ele>40.5</ele><time>2025-04-20T07:02:45Z</time></trkpt>
      <trkpt lat="48.866671" lon="2.356894"><ele>40.6</ele><time>2025-04-20T07:02:50Z</time></trkpt>
      <trkpt lat="48.866930" lon="2.357165"><ele>40.6</ele><time>2025-04-20T07:02:55Z</time></trkpt>
      <trkpt lat="48.867186" lon="2.357443"><ele>40.7</ele><time>2025-04-20T07:03:00Z</time></trkpt>
      <trkpt lat="48.867438" lon="2.357728"><ele>40.8</ele><time>2025-04-20T07:03:05Z</time></trkpt>
      <trkpt lat="48.867687" lon="2.358020"><ele>40.8</ele><time>2025-04-20T07:03:10Z</time></trkpt>
      <trkpt lat="48.867933" lon="2.358318"><ele>40.9</ele><time>2025-04-20T07:03:15Z</time></trkpt>
      <trkpt lat="48.868175" lon="2.358623"><ele>40.9</ele><time>2025-04-20T07:03:20Z</time></trkpt>
      <trkpt lat="48.868414" lon="2.358934"><ele>40.9</ele><time>2025-04-20T07:03:25Z</time></trkpt>
      <trkpt lat="48.868649" lon="2.359251"><ele>41</ele><time>2025-04-20T07:03:30Z</time></trkpt>
      <trkpt lat="48.868880" lon="2.359575"><ele>41</ele><time>2025-04-20T07:03:35Z</time></trkpt>
      <trkpt lat="48.869108" lon="2.359904"><ele>41</ele><time>2025-04-20T07:03:40Z</time></trkpt>
      <trkpt lat="48.869332" lon="2.360240"><ele>41</ele><time>2025-04-20T07:03:45Z</time></trkpt>
      <trkpt lat="48.869552" lon="2.360582"><ele>41</ele><time>2025-04-20T07:03:50Z</time></trkpt>
      <trkpt lat="48.869768" lon="2.360929"><ele>41</ele><time>2025-04-20T07:03:55Z</time></trkpt>
      <trkpt lat="48.869980" lon="2.361282"><ele>41</ele><time>2025-04-20T07:04:00Z</time></trkpt>
      <trkpt lat="48.870187" lon="2.361641"><ele>40.9</ele><time>2025-04-20T07:04:05Z</time></trkpt>
      <trkpt lat="48.870391" lon="2.362005"><ele>40.9</ele><time>2025-04-20T07:04:10Z</time></trkpt>
      <trkpt lat="48.870590" lon="2.362375"><ele>40.9</ele><time>2025-04-20T07:04:15Z</time></trkpt>
      <trkpt lat="48.870785" lon="2.362749"><ele>40.8</ele><time>2025-04-20T07:04:20Z</time></trkpt>
      <trkpt lat="48.870976" lon="2.363129"><ele>40.8</ele><time>2025-04-20T07:04:25Z</time></trkpt>
      <trkpt lat="48.871163" lon="2.363514"><ele>40.7</ele><time>2025-04-20T07:04:30Z</time></trkpt>
      <trkpt lat="48.871345" lon="2.363904"><ele>40.6</ele><time>2025-04-20T07:04:35Z</time></trkpt>
      <trkpt lat="48.871522" lon="2.364299"><ele>40.6</ele><time>2025-04-20T07:04:40Z</time></trkpt>
      <trkpt lat="48.871695" lon="2.364698"><ele>40.5</ele><time>2025-04-20T07:04:45Z</time></trkpt>
      <trkpt lat="48.871863" lon="2.365102"><ele>40.4</ele><time>2025-04-20T07:04:50Z</time></trkpt>
      <trkpt lat="48.872027" lon="2.365510"><ele>40.3</ele><time>2025-04-20T07:04:55Z</time></trkpt>
      <trkpt lat="48.872185" lon="2.365922"><ele>40.2</ele><time>2025-04-20T07:05:00Z</time></trkpt>
      <trkpt lat="48.872339" lon="2.366339"><ele>40.1</ele><time>2025-04-20T07:05:05Z</time></trkpt>
      <trkpt lat="48.872489" lon="2.366760"><ele>40</ele><time>2025-04-20T07:05:10Z</time></trkpt>
      <trkpt lat="48.872633" lon="2.367184"><ele>39.8</ele><time>2025-04-20T07:05:15Z</time></trkpt>
      <trkpt lat="48.872772" lon="2.367613"><ele>39.7</ele><time>2025-04-20T07:05:20Z</time></trkpt>
      <trkpt lat="48.872907" lon="2.368045"><ele>39.6</ele><time>2025-04-20T07:05:25Z</time></trkpt>
      <trkpt lat="48.873036" lon="2.368480"><ele>39.4</ele><time>2025-04-20T07:05:30Z</time></trkpt>
      <trkpt lat="48.873161" lon="2.368919"><ele>39.3</ele><time>2025-04-20T07:05:35Z</time></trkpt>
      <trkpt lat="48.873280" lon="2.369361"><ele>39.1</ele><time>2025-04-20T07:05:40Z</time></trkpt>
      <trkpt lat="48.873394" lon="2.369806"><ele>39</ele><time>2025-04-20T07:05:45Z</time></trkpt>
      <trkpt lat="48.873504" lon="2.370255"><ele>38.8</ele><time>2025-04-20T07:05:50Z</time></trkpt>
      <trkpt lat="48.873607" lon="2.370706"><ele>38.7</ele><time>2025-04-20T07:05:55Z</time></trkpt>
      <trkpt lat="48.873706" lon="2.371159"><ele>38.5</ele><time>2025-04-20T07:06:00Z</time></trkpt>
      <trkpt lat="48.873800" lon="2.371616"><ele>38.3</ele><time>2025-04-20T07:06:05Z</time></trkpt>
      <trkpt lat="48.873888" lon="2.372074"><ele>38.1</ele><time>2025-04-20T07:06:10Z</time></trkpt>
      <trkpt lat="48.873971" lon="2.372535"><ele>38</ele><time>2025-04-20T07:06:15Z</time></trkpt>
      <trkpt lat="48.874048" lon="2.372998"><ele>37.8</ele><time>2025-04-20T07:06:20Z</time></trkpt>
      <trkpt lat="48.874121" lon="2.373464"><ele>37.6</ele><time>2025-04-20T07:06:25Z</time></trkpt>
      <trkpt lat="48.874188" lon="2.373931"><ele>37.4</ele><time>2025-04-20T07:06:30Z</time></trkpt>
      <trkpt lat="48.874249" lon="2.374399"><ele>37.2</ele><time>2025-04-20T07:06:35Z</time></trkpt>
      <trkpt lat="48.874305" lon="2.374869"><ele>37</ele><time>2025-04-20T07:06:40Z</time></trkpt>
      <trkpt lat="48.874356" lon="2.375341"><ele>36.8</ele><time>2025-04-20T07:06:45Z</time></trkpt>
      <trkpt lat="48.874401" lon="2.375814"><ele>36.6</ele><time>2025-04-20T07:06:50Z</time></trkpt>
      <trkpt lat="48.874441" lon="2.376288"><ele>36.4</ele><time>2025-04-20T07:06:55Z</time></trkpt>
      <trkpt lat="48.874475" lon="2.376763"><ele>36.2</ele><time>2025-04-20T07:07:00Z</time></trkpt>
      <trkpt lat="48.874504" lon="2.377239"><ele>36</ele><time>2025-04-20T07:07:05Z</time></trkpt>
      <trkpt lat="48.874528" lon="2.377716"><ele>35.8</ele><time>2025-04-20T07:07:10Z</time></trkpt>
      <trkpt lat="48.874545" lon="2.378193"><ele>35.6</ele><time>2025-04-20T07:07:15Z</time></trkpt>
      <trkpt lat="48.874558" lon="2.378670"><ele>35.4</ele><time>2025-04-20T07:07:20Z</time></trkpt>
      <trkpt lat="48.874565" lon="2.379148"><ele>35.2</ele><time>2025-04-20T07:07:25Z</time></trkpt>
      <trkpt lat="48.874566" lon="2.379626"><ele>34.9</ele><time>2025-04-20T07:07:30Z</time></trkpt>
      <trkpt lat="48.874562" lon="2.380104"><ele>34.7</ele><time>2025-04-20T07:07:35Z</time></trkpt>
      <trkpt lat="48.874552" lon="2.380582"><ele>34.5</ele><time>2025-04-20T07:07:40Z</time></trkpt>
      <trkpt lat="48.874537" lon="2.381059"><ele>34.3</ele><time>2025-04-20T07:07:45Z</time></trkpt>
      <trkpt lat="48.874517" lon="2.381536"><ele>34.1</ele><time>2025-04-20T07:07:50Z</time></trkpt>
      <trkpt lat="48.874490" lon="2.382012"><ele>33.9</ele><time>2025-04-20T07:07:55Z</time></trkpt>
      <trkpt lat="48.874459" lon="2.382488"><ele>33.7</ele><time>2025-04-20T07:08:00Z</time></trkpt>
      <trkpt lat="48.874422" lon="2.382962"><ele>33.5</ele><time>2025-04-20T07:08:05Z</time></trkpt>
      <trkpt lat="48.874379" lon="2.383436"><ele>33.3</ele><time>2025-04-20T07:08:10Z</time></trkpt>
      <trkpt lat="48.874331" lon="2.383908"><ele>33.1</ele><time>2025-04-20T07:08:15Z</time></trkpt>
      <trkpt lat="48.874278" lon="2.384379"><ele>32.9</ele><time>2025-04-20T07:08:20Z</time></trkpt>
      <trkpt lat="48.874219" lon="2.384848"><ele>32.7</ele><time>2025-04-20T07:08:25Z</time></trkpt>
      <trkpt lat="48.874155" lon="2.385316"><ele>32.5</ele><time>2025-04-20T07:08:30Z</time></trkpt>
      <trkpt lat="48.874085" lon="2.385782"><ele>32.3</ele><time>2025-04-20T07:08:35Z</time></trkpt>
      <trkpt lat="48.874010" lon="2.386246"><ele>32.1</ele><time>2025-04-20T07:08:40Z</time></trkpt>
      <trkpt lat="48.873930" lon="2.386709"><ele>31.9</ele><time>2025-04-20T07:08:45Z</time></trkpt>
      <trkpt lat="48.873844" lon="2.387168"><ele>31.8</ele><time>2025-04-20T07:08:50Z</time></trkpt>
      <trkpt lat="48.873754" lon="2.387626"><ele>31.6</ele><time>2025-04-20T07:08:55Z</time></trkpt>
      <trkpt lat="48.873658" lon="2.388081"><ele>31.4</ele><time>2025-04-20T07:09:00Z</time></trkpt>
      <trkpt lat="48.873556" lon="2.388533"><ele>31.3</ele><time>2025-04-20T07:09:05Z</time></trkpt>
      <trkpt lat="48.873450" lon="2.388983"><ele>31.1</ele><time>2025-04-20T07:09:10Z</time></trkpt>
      <trkpt lat="48.873338" lon="2.389430"><ele>30.9</ele><time>2025-04-20T07:09:15Z</time></trkpt>
      <trkpt lat="48.873221" lon="2.389873"><ele>30.8</ele><time>2025-04-20T07:09:20Z</time></trkpt>
      <trkpt lat="48.873099" lon="2.390314"><ele>30.6</ele><time>2025-04-20T07:09:25Z</time></trkpt>
      <trkpt lat="48.872972" lon="2.390751"><ele>30.5</ele><time>2025-04-20T07:09:30Z</time></trkpt>
      <trkpt lat="48.872840" lon="2.391185"><ele>30.4</ele><time>2025-04-20T07:09:35Z</time></trkpt>
      <trkpt lat="48.872703" lon="2.391615"><ele>30.2</ele><time>2025-04-20T07:09:40Z</time></trkpt>
      <trkpt lat="48.872561" lon="2.392042"><ele>30.1</ele><time>2025-04-20T07:09:45Z</time></trkpt>
      <trkpt lat="48.872415" lon="2.392464"><ele>30</ele><time>2025-04-20T07:09:50Z</time></trkpt>
      <trkpt lat="48.872263" lon="2.392883"><ele>29.9</ele><time>2025-04-20T07:09:55Z</time></trkpt>
      <trkpt lat="48.872107" lon="2.393298"><ele>29.8</ele><time>2025-04-20T07:10:00Z</time></trkpt>
      <trkpt lat="48.871945" lon="2.393708"><ele>29.7</ele><time>2025-04-20T07:10:05Z</time></trkpt>
      <trkpt lat="48.871779" lon="2.394114"><ele>29.6</ele><time>2025-04-20T07:10:10Z</time></trkpt>
      <trkpt lat="48.871609" lon="2.394515"><ele>29.5</ele><time>2025-04-20T07:10:15Z</time></trkpt>
      <trkpt lat="48.871434" lon="2.394912"><ele>29.4</ele><time>2025-04-20T07:10:20Z</time></trkpt>
      <trkpt lat="48.871254" lon="2.395305"><ele>29.3</ele><time>2025-04-20T07:10:25Z</time></trkpt>
      <trkpt lat="48.871070" lon="2.395692"><ele>29.3</ele><time>2025-04-20T07:10:30Z</time></trkpt>
      <trkpt lat="48.870881" lon="2.396074"><ele>29.2</ele><time>2025-04-20T07:10:35Z</time></trkpt>
      <trkpt lat="48.870688" lon="2.396452"><ele>29.2</ele><time>2025-04-20T07:10:40Z</time></trkpt>
      <trkpt lat="48.870491" lon="2.396824"><ele>29.1</ele><time>2025-04-20T07:10:45Z</time></trkpt>
      <trkpt lat="48.870290" lon="2.397191"><ele>29.1</ele><time>2025-04-20T07:10:50Z</time></trkpt>
      <trkpt lat="48.870084" lon="2.397552"><ele>29</ele><time>2025-04-20T07:10:55Z</time></trkpt>
      <trkpt lat="48.869874" lon="2.397908"><ele>29</ele><time>2025-04-20T07:11:00Z</time></trkpt>
      <trkpt lat="48.869660" lon="2.398258"><ele>29</ele><time>2025-04-20T07:11:05Z</time></trkpt>
      <trkpt lat="48.869442" lon="2.398603"><ele>29</ele><time>2025-04-20T07:11:10Z</time></trkpt>
      <trkpt lat="48.869220" lon="2.398941"><ele>29</ele><time>2025-04-20T07:11:15Z</time></trkpt>
      <trkpt lat="48.868995" lon="2.399274"><ele>29</ele><time>2025-04-20T07:11:20Z</time></trkpt>
      <trkpt lat="48.868765" lon="2.399601"><ele>29</ele><time>2025-04-20T07:11:25Z</time></trkpt>
      <trkpt lat="48.868532" lon="2.399921"><ele>29</ele><time>2025-04-20T07:11:30Z</time></trkpt>
      <trkpt lat="48.868295" lon="2.400236"><ele>29.1</ele><time>2025-04-20T07:11:35Z</time></trkpt>
      <trkpt lat="48.868055" lon="2.400544"><ele>29.1</ele><time>2025-04-20T07:11:40Z</time></trkpt>
      <trkpt lat="48.867811" lon="2.400845"><ele>29.1</ele><time>2025-04-20T07:11:45Z</time></trkpt>
      <trkpt lat="48.867563" lon="2.401140"><ele>29.2</ele><time>2025-04-20T07:11:50Z</time></trkpt>
      <trkpt lat="48.867312" lon="2.401428"><ele>29.3</ele><time>2025-04-20T07:11:55Z</time></trkpt>
      <trkpt lat="48.867058" lon="2.401710"><ele>29.3</ele><time>2025-04-20T07:12:00Z</time></trkpt>
      <trkpt lat="48.866801" lon="2.401985"><ele>29.4</ele><time>2025-04-20T07:12:05Z</time></trkpt>
      <trkpt lat="48.866541" lon="2.402252"><ele>29.5</ele><time>2025-04-20T07:12:10Z</time></trkpt>
      <trkpt lat="48.866277" lon="2.402513"><ele>29.6</ele><time>2025-04-20T07:12:15Z</time></trkpt>
      <trkpt lat="48.866011" lon="2.402767"><ele>29.6</ele><time>2025-04-20T07:12:20Z</time></trkpt>
      <trkpt lat="48.865741" lon="2.403014"><ele>29.7</ele><time>2025-04-20T07:12:25Z</time></trkpt>
      <trkpt lat="48.865469" lon="2.403254"><ele>29.8</ele><time>2025-04-20T07:12:30Z</time></trkpt>
      <trkpt lat="48.865195" lon="2.403486"><ele>30</ele><time>2025-04-20T07:12:35Z</time></trkpt>
      <trkpt lat="48.864917" lon="2.403711"><ele>30.1</ele><time>2025-04-20T07:12:40Z</time></trkpt>
      <trkpt lat="48.864637" lon="2.403928"><ele>30.2</ele><time>2025-04-20T07:12:45Z</time></trkpt>
      <trkpt lat="48.864355" lon="2.404138"><ele>30.3</ele><time>2025-04-20T07:12:50Z</time></trkpt>
      <trkpt lat="48.864070" lon="2.404341"><ele>30.5</ele><time>2025-04-20T07:12:55Z</time></trkpt>
      <trkpt lat="48.863783" lon="2.404536"><ele>30.6</ele><time>2025-04-20T07:13:00Z</time></trkpt>
      <trkpt lat="48.863494" lon="2.404723"><ele>30.7</ele><time>2025-04-20T07:13:05Z</time></trkpt>
      <trkpt lat="48.863202" lon="2.404903"><ele>30.9</ele><time>2025-04-20T07:13:10Z</time></trkpt>
      <trkpt lat="48.862909" lon="2.405074"><ele>31.1</ele><time>2025-04-20T07:13:15Z</time></trkpt>
      <trkpt lat="48.862613" lon="2.405238"><ele>31.2</ele><time>2025-04-20T07:13:20Z</time></trkpt>
      <trkpt lat="48.862316" lon="2.405394"><ele>31.4</ele><time>2025-04-20T07:13:25Z</time></trkpt>
      <trkpt lat="48.862017" lon="2.405542"><ele>31.6</ele><time>2025-04-20T07:13:30Z</time></trkpt>
      <trkpt lat="48.861717" lon="2.405682"><ele>31.7</ele><time>2025-04-20T07:13:35Z</time></trkpt>
      <trkpt lat="48.861414" lon="2.405814"><ele>31.9</ele><time>2025-04-20T07:13:40Z</time></trkpt>
      <trkpt lat="48.861111" lon="2.405938"><ele>32.1</ele><time>2025-04-20T07:13:45Z</time></trkpt>
      <trkpt lat="48.860806" lon="2.406054"><ele>32.3</ele><time>2025-04-20T07:13:50Z</time></trkpt>
      <trkpt lat="48.860499" lon="2.406162"><ele>32.5</ele><time>2025-04-20T07:13:55Z</time></trkpt>
      <trkpt lat="48.860192" lon="2.406262"><ele>32.6</ele><time>2025-04-20T07:14:00Z</time></trkpt>
      <trkpt lat="48.859883" lon="2.406353"><ele>32.8</ele><time>2025-04-20T07:14:05Z</time></trkpt>
      <trkpt lat="48.859573" lon="2.406436"><ele>33</ele><time>2025-04-20T07:14:10Z</time></trkpt>
      <trkpt lat="48.859263" lon="2.406511"><ele>33.2</ele><time>2025-04-20T07:14:15Z</time></trkpt>
      <trkpt lat="48.858952" lon="2.406578"><ele>33.4</ele><time>2025-04-20T07:14:20Z</time></trkpt>
      <trkpt lat="48.858639" lon="2.406637"><ele>33.6</ele><time>2025-04-20T07:14:25Z</time></trkpt>
      <trkpt lat="48.858327" lon="2.406687"><ele>33.9</ele><time>2025-04-20T07:14:30Z</time></trkpt>
      <trkpt lat="48.858014" lon="2.406728"><ele>34.1</ele><time>2025-04-20T07:14:35Z</time></trkpt>
      <trkpt lat="48.857700" lon="2.406762"><ele>34.3</ele><time>2025-04-20T07:14:40Z</time></trkpt>
      <trkpt lat="48.857386" lon="2.406787"><ele>34.5</ele><time>2025-04-20T07:14:45Z</time></trkpt>
      <trkpt lat="48.857072" lon="2.406804"><ele>34.7</ele><time>2025-04-20T07:14:50Z</time></trkpt>
      <trkpt lat="48.856757" lon="2.406812"><ele>34.9</ele><time>2025-04-20T07:14:55Z</time></trkpt>
      <trkpt lat="48.856443" lon="2.406812"><ele>35.1</ele><time>2025-04-20T07:15:00Z</time></trkpt>
      <trkpt lat="48.856128" lon="2.406804"><ele>35.3</ele><time>2025-04-20T07:15:05Z</time></trkpt>
      <trkpt lat="48.855814" lon="2.406787"><ele>35.5</ele><time>2025-04-20T07:15:10Z</time></trkpt>
      <trkpt lat="48.855500" lon="2.406762"><ele>35.7</ele><time>2025-04-20T07:15:15Z</time></trkpt>
      <trkpt lat="48.855186" lon="2.406728"><ele>35.9</ele><time>2025-04-20T07:15:20Z</time></trkpt>
      <trkpt lat="48.854873" lon="2.406687"><ele>36.1</ele><time>2025-04-20T07:15:25Z</time></trkpt>
      <trkpt lat="48.854561" lon="2.406637"><ele>36.4</ele><time>2025-04-20T07:15:30Z</time></trkpt>
      <trkpt lat="48.854248" lon="2.406578"><ele>36.6</ele><time>2025-04-20T07:15:35Z</time></trkpt>
      <trkpt lat="48.853937" lon="2.406511"><ele>36.8</ele><time>2025-04-20T07:15:40Z</time></trkpt>
      <trkpt lat="48.853627" lon="2.406436"><ele>37</ele><time>2025-04-20T07:15:45Z</time></trkpt>
      <trkpt lat="48.853317" lon="2.406353"><ele>37.2</ele><time>2025-04-20T07:15:50Z</time></trkpt>
      <trkpt lat="48.853008" lon="2.406262"><ele>37.4</ele><time>2025-04-20T07:15:55Z</time></trkpt>
      <trkpt lat="48.852701" lon="2.406162"><ele>37.5</ele><time>2025-04-20T07:16:00Z</time></trkpt>
      <trkpt lat="48.852394" lon="2.406054"><ele>37.7</ele><time>2025-04-20T07:16:05Z</time></trkpt>
      <trkpt lat="48.852089" lon="2.405938"><ele>37.9</ele><time>2025-04-20T07:16:10Z</time></trkpt>
      <trkpt lat="48.851786" lon="2.405814"><ele>38.1</ele><time>2025-04-20T07:16:15Z</time></trkpt>
      <trkpt lat="48.851483" lon="2.405682"><ele>38.3</ele><time>2025-04-20T07:16:20Z</time></trkpt>
      <trkpt lat="48.851183" lon="2.405542"><ele>38.4</ele><time>2025-04-20T07:16:25Z</time></trkpt>
      <trkpt lat="48.850884" lon="2.405394"><ele>38.6</ele><time>2025-04-20T07:16:30Z</time></trkpt>
      <trkpt lat="48.850587" lon="2.405238"><ele>38.8</ele><time>2025-04-20T07:16:35Z</time></trkpt>
      <trkpt lat="48.850291" lon="2.405074"><ele>38.9</ele><time>2025-04-20T07:16:40Z</time></trkpt>
      <trkpt lat="48.849998" lon="2.404903"><ele>39.1</ele><time>2025-04-20T07:16:45Z</time></trkpt>
      <trkpt lat="48.849706" lon="2.404723"><ele>39.3</ele><time>2025-04-20T07:16:50Z</time></trkpt>
      <trkpt lat="48.849417" lon="2.404536"><ele>39.4</ele><time>2025-04-20T07:16:55Z</time></trkpt>
      <trkpt lat="48.849130" lon="2.404341"><ele>39.5</ele><time>2025-04-20T07:17:00Z</time></trkpt>
      <trkpt lat="48.848845" lon="2.404138"><ele>39.7</ele><time>2025-04-20T07:17:05Z</time></trkpt>
      <trkpt lat="48.848563" lon="2.403928"><ele>39.8</ele><time>2025-04-20T07:17:10Z</time></trkpt>
      <trkpt lat="48.848283" lon="2.403711"><ele>39.9</ele><time>2025-04-20T07:17:15Z</time></trkpt>
      <trkpt lat="48.848005" lon="2.403486"><ele>40</ele><time>2025-04-20T07:17:20Z</time></trkpt>
      <trkpt lat="48.847731" lon="2.403254"><ele>40.2</ele><time>2025-04-20T07:17:25Z</time></trkpt>
      <trkpt lat="48.847459" lon="2.403014"><ele>40.3</ele><time>2025-04-20T07:17:30Z</time></trkpt>
      <trkpt lat="48.847189" lon="2.402767"><ele>40.4</ele><time>2025-04-20T07:17:35Z</time></trkpt>
      <trkpt lat="48.846923" lon="2.402513"><ele>40.4</ele><time>2025-04-20T07:17:40Z</time></trkpt>
      <trkpt lat="48.846659" lon="2.402252"><ele>40.5</ele><time>2025-04-20T07:17:45Z</time></trkpt>
      <trkpt lat="48.846399" lon="2.401985"><ele>40.6</ele><time>2025-04-20T07:17:50Z</time></trkpt>
      <trkpt lat="48.846142" lon="2.401710"><ele>40.7</ele><time>2025-04-20T07:17:55Z</time></trkpt>
      <trkpt lat="48.845888" lon="2.401428"><ele>40.7</ele><time>2025-04-20T07:18:00Z</time></trkpt>
      <trkpt lat="48.845637" lon="2.401140"><ele>40.8</ele><time>2025-04-20T07:18:05Z</time></trkpt>
      <trkpt lat="48.845389" lon="2.400845"><ele>40.9</ele><time>2025-04-20T07:18:10Z</time></trkpt>
      <trkpt lat="48.845145" lon="2.400544"><ele>40.9</ele><time>2025-04-20T07:18:15Z</time></trkpt>
      <trkpt lat="48.844905" lon="2.400236"><ele>40.9</ele><time>2025-04-20T07:18:20Z</time></trkpt>
      <trkpt lat="48.844668" lon="2.399921"><ele>41</ele><time>2025-04-20T07:18:25Z</time></trkpt>
      <trkpt lat="48.844435" lon="2.399601"><ele>41</ele><time>2025-04-20T07:18:30Z</time></trkpt>
      <trkpt lat="48.844205" lon="2.399274"><ele>41</ele><time>2025-04-20T07:18:35Z</time></trkpt>
      <trkpt lat="48.843980" lon="2.398941"><ele>41</ele><time>2025-04-20T07:18:40Z</time></trkpt>
      <trkpt lat="48.843758" lon="2.398603"><ele>41</ele><time>2025-04-20T07:18:45Z</time></trkpt>
      <trkpt lat="48.843540" lon="2.398258"><ele>41</ele><time>2025-04-20T07:18:50Z</time></trkpt>
      <trkpt lat="48.843326" lon="2.397908"><ele>41</ele><time>2025-04-20T07:18:55Z</time></trkpt>
      <trkpt lat="48.843116" lon="2.397552"><ele>41</ele><time>2025-04-20T07:19:00Z</time></trkpt>
      <trkpt lat="48.842910" lon="2.397191"><ele>40.9</ele><time>2025-04-20T07:19:05Z</time></trkpt>
      <trkpt lat="48.842709" lon="2.396824"><ele>40.9</ele><time>2025-04-20T07:19:10Z</time></trkpt>
      <trkpt lat="48.842512" lon="2.396452"><ele>40.8</ele><time>2025-04-20T07:19:15Z</time></trkpt>
      <trkpt lat="48.842319" lon="2.396074"><ele>40.8</ele><time>2025-04-20T07:19:20Z</time></trkpt>
      <trkpt lat="48.842130" lon="2.395692"><ele>40.7</ele><time>2025-04-20T07:19:25Z</time></trkpt>
      <trkpt lat="48.841946" lon="2.395305"><ele>40.7</ele><time>2025-04-20T07:19:30Z</time></trkpt>
      <trkpt lat="48.841766" lon="2.394912"><ele>40.6</ele><time>2025-04-20T07:19:35Z</time></trkpt>
      <trkpt lat="48.841591" lon="2.394515"><ele>40.5</ele><time>2025-04-20T07:19:40Z</time></trkpt>
      <trkpt lat="48.841421" lon="2.394114"><ele>40.4</ele><time>2025-04-20T07:19:45Z</time></trkpt>
      <trkpt lat="48.841255" lon="2.393708"><ele>40.3</ele><time>2025-04-20T07:19:50Z</time></trkpt>
      <trkpt lat="48.841093" lon="2.393298"><ele>40.2</ele><time>2025-04-20T07:19:55Z</time></trkpt>
      <trkpt lat="48.840937" lon="2.392883"><ele>40.1</ele><time>2025-04-20T07:20:00Z</time></trkpt>
      <trkpt lat="48.840785" lon="2.392464"><ele>40</ele><time>2025-04-20T07:20:05Z</time></trkpt>
      <trkpt lat="48.840639" lon="2.392042"><ele>39.9</ele><time>2025-04-20T07:20:10Z</time></trkpt>
      <trkpt lat="48.840497" lon="2.391615"><ele>39.8</ele><time>2025-04-20T07:20:15Z</time></trkpt>
      <trkpt lat="48.840360" lon="2.391185"><ele>39.6</ele><time>2025-04-20T07:20:20Z</time></trkpt>
      <trkpt lat="48.840228" lon="2.390751"><ele>39.5</ele><time>2025-04-20T07:20:25Z</time></trkpt>
      <trkpt lat="48.840101" lon="2.390314"><ele>39.4</ele><time>2025-04-20T07:20:30Z</time></trkpt>
      <trkpt lat="48.839979" lon="2.389873"><ele>39.2</ele><time>2025-04-20T07:20:35Z</time></trkpt>
      <trkpt lat="48.839862" lon="2.389430"><ele>39.1</ele><time>2025-04-20T07:20:40Z</time></trkpt>
      <trkpt lat="48.839750" lon="2.388983"><ele>38.9</ele><time>2025-04-20T07:20:45Z</time></trkpt>
      <trkpt lat="48.839644" lon="2.388533"><ele>38.7</ele><time>2025-04-20T07:20:50Z</time></trkpt>
      <trkpt lat="48.839542" lon="2.388081"><ele>38.6</ele><time>2025-04-20T07:20:55Z</time></trkpt>
      <trkpt lat="48.839446" lon="2.387626"><ele>38.4</ele><time>2025-04-20T07:21:00Z</time></trkpt>
      <trkpt lat="48.839356" lon="2.387168"><ele>38.2</ele><time>2025-04-20T07:21:05Z</time></trkpt>
      <trkpt lat="48.839270" lon="2.386709"><ele>38.1</ele><time>2025-04-20T07:21:10Z</time></trkpt>
      <trkpt lat="48.839190" lon="2.386246"><ele>37.9</ele><time>2025-04-20T07:21:15Z</time></trkpt>
      <trkpt lat="48.839115" lon="2.385782"><ele>37.7</ele><time>2025-04-20T07:21:20Z</time></trkpt>
      <trkpt lat="48.839045" lon="2.385316"><ele>37.5</ele><time>2025-04-20T07:21:25Z</time></trkpt>
      <trkpt lat="48.838981" lon="2.384848"><ele>37.3</ele><time>2025-04-20T07:21:30Z</time></trkpt>
      <trkpt lat="48.838922" lon="2.384379"><ele>37.1</ele><time>2025-04-20T07:21:35Z</time></trkpt>
      <trkpt lat="48.838869" lon="2.383908"><ele>36.9</ele><time>2025-04-20T07:21:40Z</time></trkpt>
      <trkpt lat="48.838821" lon="2.383436"><ele>36.7</ele><time>2025-04-20T07:21:45Z</time></trkpt>
      <trkpt lat="48.838778" lon="2.382962"><ele>36.5</ele><time>2025-04-20T07:21:50Z</time></trkpt>
      <trkpt lat="48.838741" lon="2.382488"><ele>36.3</ele><time>2025-04-20T07:21:55Z</time></trkpt>
      <trkpt lat="48.838710" lon="2.382012"><ele>36.1</ele><time>2025-04-20T07:22:00Z</time></trkpt>
      <trkpt lat="48.838683" lon="2.381536"><ele>35.9</ele><time>2025-04-20T07:22:05Z</time></trkpt>
      <trkpt lat="48.838663" lon="2.381059"><ele>35.7</ele><time>2025-04-20T07:22:10Z</time></trkpt>
      <trkpt lat="48.838648" lon="2.380582"><ele>35.5</ele><time>2025-04-20T07:22:15Z</time></trkpt>
      <trkpt lat="48.838638" lon="2.380104"><ele>35.3</ele><time>2025-04-20T07:22:20Z</time></trkpt>
      <trkpt lat="48.838634" lon="2.379626"><ele>35.1</ele><time>2025-04-20T07:22:25Z</time></trkpt>
      <trkpt lat="48.838635" lon="2.379148"><ele>34.8</ele><time>2025-04-20T07:22:30Z</time></trkpt>
      <trkpt lat="48.838642" lon="2.378670"><ele>34.6</ele><time>2025-04-20T07:22:35Z</time></trkpt>
      <trkpt lat="48.838655" lon="2.378193"><ele>34.4</ele><time>2025-04-20T07:22:40Z</time></trkpt>
      <trkpt lat="48.838672" lon="2.377716"><ele>34.2</ele><time>2025-04-20T07:22:45Z</time></trkpt>
      <trkpt lat="48.838696" lon="2.377239"><ele>34</ele><time>2025-04-20T07:22:50Z</time></trkpt>
      <trkpt lat="48.838725" lon="2.376763"><ele>33.8</ele><time>2025-04-20T07:22:55Z</time></trkpt>
      <trkpt lat="48.838759" lon="2.376288"><ele>33.6</ele><time>2025-04-20T07:23:00Z</time></trkpt>
      <trkpt lat="48.838799" lon="2.375814"><ele>33.4</ele><time>2025-04-20T07:23:05Z</time></trkpt>
      <trkpt lat="48.838844" lon="2.375341"><ele>33.2</ele><time>2025-04-20T07:23:10Z</time></trkpt>
      <trkpt lat="48.838895" lon="2.374869"><ele>33</ele><time>2025-04-20T07:23:15Z</time></trkpt>
      <trkpt lat="48.838951" lon="2.374399"><ele>32.8</ele><time>2025-04-20T07:23:20Z</time></trkpt>
      <trkpt lat="48.839012" lon="2.373931"><ele>32.6</ele><time>2025-04-20T07:23:25Z</time></trkpt>
      <trkpt lat="48.839079" lon="2.373464"><ele>32.4</ele><time>2025-04-20T07:23:30Z</time></trkpt>
      <trkpt lat="48.839152" lon="2.372998"><ele>32.2</ele><time>2025-04-20T07:23:35Z</time></trkpt>
      <trkpt lat="48.839229" lon="2.372535"><ele>32</ele><time>2025-04-20T07:23:40Z</time></trkpt>
      <trkpt lat="48.839312" lon="2.372074"><ele>31.9</ele><time>2025-04-20T07:23:45Z</time></trkpt>
      <trkpt lat="48.839400" lon="2.371616"><ele>31.7</ele><time>2025-04-20T07:23:50Z</time></trkpt>
      <trkpt lat="48.839494" lon="2.371159"><ele>31.5</ele><time>2025-04-20T07:23:55Z</time></trkpt>
      <trkpt lat="48.839593" lon="2.370706"><ele>31.3</ele><time>2025-04-20T07:24:00Z</time></trkpt>
      <trkpt lat="48.839696" lon="2.370255"><ele>31.2</ele><time>2025-04-20T07:24:05Z</time></trkpt>
      <trkpt lat="48.839806" lon="2.369806"><ele>31</ele><time>2025-04-20T07:24:10Z</time></trkpt>
      <trkpt lat="48.839920" lon="2.369361"><ele>30.9</ele><time>2025-04-20T07:24:15Z</time></trkpt>
      <trkpt lat="48.840039" lon="2.368919"><ele>30.7</ele><time>2025-04-20T07:24:20Z</time></trkpt>
      <trkpt lat="48.840164" lon="2.368480"><ele>30.6</ele><time>2025-04-20T07:24:25Z</time></trkpt>
      <trkpt lat="48.840293" lon="2.368045"><ele>30.4</ele><time>2025-04-20T07:24:30Z</time></trkpt>
      <trkpt lat="48.840428" lon="2.367613"><ele>30.3</ele><time>2025-04-20T07:24:35Z</time></trkpt>
      <trkpt lat="48.840567" lon="2.367184"><ele>30.2</ele><time>2025-04-20T07:24:40Z</time></trkpt>
      <trkpt lat="48.840711" lon="2.366760"><ele>30</ele><time>2025-04-20T07:24:45Z</time></trkpt>
      <trkpt lat="48.840861" lon="2.366339"><ele>29.9</ele><time>2025-04-20T07:24:50Z</time></trkpt>
      <trkpt lat="48.841015" lon="2.365922"><ele>29.8</ele><time>2025-04-20T07:24:55Z</time></trkpt>
      <trkpt lat="48.841173" lon="2.365510"><ele>29.7</ele><time>2025-04-20T07:25:00Z</time></trkpt>
      <trkpt lat="48.841337" lon="2.365102"><ele>29.6</ele><time>2025-04-20T07:25:05Z</time></trkpt>
      <trkpt lat="48.841505" lon="2.364698"><ele>29.5</ele><time>2025-04-20T07:25:10Z</time></trkpt>
      <trkpt lat="48.841678" lon="2.364299"><ele>29.4</ele><time>2025-04-20T07:25:15Z</time></trkpt>
      <trkpt lat="48.841855" lon="2.363904"><ele>29.4</ele><time>2025-04-20T07:25:20Z</time></trkpt>
      <trkpt lat="48.842037" lon="2.363514"><ele>29.3</ele><time>2025-04-20T07:25:25Z</time></trkpt>
      <trkpt lat="48.842224" lon="2.363129"><ele>29.2</ele><time>2025-04-20T07:25:30Z</time></trkpt>
      <trkpt lat="48.842415" lon="2.362749"><ele>29.2</ele><time>2025-04-20T07:25:35Z</time></trkpt>
      <trkpt lat="48.842610" lon="2.362375"><ele>29.1</ele><time>2025-04-20T07:25:40Z</time></trkpt>
      <trkpt lat="48.842809" lon="2.362005"><ele>29.1</ele><time>2025-04-20T07:25:45Z</time></trkpt>
      <trkpt lat="48.843013" lon="2.361641"><ele>29.1</ele><time>2025-04-20T07:25:50Z</time></trkpt>
      <trkpt lat="48.843220" lon="2.361282"><ele>29</ele><time>2025-04-20T07:25:55Z</time></trkpt>
      <trkpt lat="48.843432" lon="2.360929"><ele>29</ele><time>2025-04-20T07:26:00Z</time></trkpt>
      <trkpt lat="48.843648" lon="2.360582"><ele>29</ele><time>2025-04-20T07:26:05Z</time></trkpt>
      <trkpt lat="48.843868" lon="2.360240"><ele>29</ele><time>2025-04-20T07:26:10Z</time></trkpt>
      <trkpt lat="48.844092" lon="2.359904"><ele>29</ele><time>2025-04-20T07:26:15Z</time></trkpt>
      <trkpt lat="48.844320" lon="2.359575"><ele>29</ele><time>2025-04-20T07:26:20Z</time></trkpt>
      <trkpt lat="48.844551" lon="2.359251"><ele>29</ele><time>2025-04-20T07:26:25Z</time></trkpt>
      <trkpt lat="48.844786" lon="2.358934"><ele>29.1</ele><time>2025-04-20T07:26:30Z</time></trkpt>
      <trkpt lat="48.845025" lon="2.358623"><ele>29.1</ele><time>2025-04-20T07:26:35Z</time></trkpt>
      <trkpt lat="48.845267" lon="2.358318"><ele>29.1</ele><time>2025-04-20T07:26:40Z</time></trkpt>
      <trkpt lat="48.845513" lon="2.358020"><ele>29.2</ele><time>2025-04-20T07:26:45Z</time></trkpt>
      <trkpt lat="48.845762" lon="2.357728"><ele>29.2</ele><time>2025-04-20T07:26:50Z</time></trkpt>
      <trkpt lat="48.846014" lon="2.357443"><ele>29.3</ele><time>2025-04-20T07:26:55Z</time></trkpt>
      <trkpt lat="48.846270" lon="2.357165"><ele>29.4</ele><time>2025-04-20T07:27:00Z</time></trkpt>
      <trkpt lat="48.846529" lon="2.356894"><ele>29.4</ele><time>2025-04-20T07:27:05Z</time></trkpt>
      <trkpt lat="48.846791" lon="2.356629"><ele>29.5</ele><time>2025-04-20T07:27:10Z</time></trkpt>
      <trkpt lat="48.847056" lon="2.356372"><ele>29.6</ele><time>2025-04-20T07:27:15Z</time></trkpt>
      <trkpt lat="48.847324" lon="2.356121"><ele>29.7</ele><time>2025-04-20T07:27:20Z</time></trkpt>
      <trkpt lat="48.847594" lon="2.355878"><ele>29.8</ele><time>2025-04-20T07:27:25Z</time></trkpt>
      <trkpt lat="48.847868" lon="2.355642"><ele>29.9</ele><time>2025-04-20T07:27:30Z</time></trkpt>
      <trkpt lat="48.848144" lon="2.355414"><ele>30</ele><time>2025-04-20T07:27:35Z</time></trkpt>
      <trkpt lat="48.848422" lon="2.355193"><ele>30.1</ele><time>2025-04-20T07:27:40Z</time></trkpt>
      <trkpt lat="48.848704" lon="2.354979"><ele>30.3</ele><time>2025-04-20T07:27:45Z</time></trkpt>
      <trkpt lat="48.848987" lon="2.354772"><ele>30.4</ele><time>2025-04-20T07:27:50Z</time></trkpt>
      <trkpt lat="48.849273" lon="2.354574"><ele>30.5</ele><time>2025-04-20T07:27:55Z</time></trkpt>
      <trkpt lat="48.849562" lon="2.354383"><ele>30.7</ele><time>2025-04-20T07:28:00Z</time></trkpt>
      <trkpt lat="48.849852" lon="2.354199"><ele>30.8</ele><time>2025-04-20T07:28:05Z</time></trkpt>
      <trkpt lat="48.850144" lon="2.354024"><ele>31</ele><time>2025-04-20T07:28:10Z</time></trkpt>
      <trkpt lat="48.850439" lon="2.353856"><ele>31.1</ele><time>2025-04-20T07:28:15Z</time></trkpt>
      <trkpt lat="48.850735" lon="2.353696"><ele>31.3</ele><time>2025-04-20T07:28:20Z</time></trkpt>
      <trkpt lat="48.851033" lon="2.353544"><ele>31.5</ele><time>2025-04-20T07:28:25Z</time></trkpt>
      <trkpt lat="48.851333" lon="2.353400"><ele>31.6</ele><time>2025-04-20T07:28:30Z</time></trkpt>
      <trkpt lat="48.851634" lon="2.353264"><ele>31.8</ele><time>2025-04-20T07:28:35Z</time></trkpt>
      <trkpt lat="48.851937" lon="2.353136"><ele>32</ele><time>2025-04-20T07:28:40Z</time></trkpt>
      <trkpt lat="48.852242" lon="2.353016"><ele>32.2</ele><time>2025-04-20T07:28:45Z</time></trkpt>
      <trkpt lat="48.852547" lon="2.352904"><ele>32.4</ele><time>2025-04-20T07:28:50Z</time></trkpt>
      <trkpt lat="48.852854" lon="2.352800"><ele>32.6</ele><time>2025-04-20T07:28:55Z</time></trkpt>
      <trkpt lat="48.853162" lon="2.352704"><ele>32.7</ele><time>2025-04-20T07:29:00Z</time></trkpt>
      <trkpt lat="48.853472" lon="2.352617"><ele>32.9</ele><time>2025-04-20T07:29:05Z</time></trkpt>
      <trkpt lat="48.853782" lon="2.352538"><ele>33.1</ele><time>2025-04-20T07:29:10Z</time></trkpt>
      <trkpt lat="48.854093" lon="2.352467"><ele>33.3</ele><time>2025-04-20T07:29:15Z</time></trkpt>
      <trkpt lat="48.854404" lon="2.352405"><ele>33.5</ele><time>2025-04-20T07:29:20Z</time></trkpt>
      <trkpt lat="48.854717" lon="2.352350"><ele>33.7</ele><time>2025-04-20T07:29:25Z</time></trkpt>
      <trkpt lat="48.855030" lon="2.352304"><ele>34</ele><time>2025-04-20T07:29:30Z</time></trkpt>
      <trkpt lat="48.855343" lon="2.352267"><ele>34.2</ele><time>2025-04-20T07:29:35Z</time></trkpt>
      <trkpt lat="48.855657" lon="2.352238"><ele>34.4</ele><time>2025-04-20T07:29:40Z</time></trkpt>
      <trkpt lat="48.855971" lon="2.352217"><ele>34.6</ele><time>2025-04-20T07:29:45Z</time></trkpt>
      <trkpt lat="48.856286" lon="2.352204"><ele>34.8</ele><time>2025-04-20T07:29:50Z</time></trkpt>
      <trkpt lat="48.856600" lon="2.352200"><ele>35</ele><time>2025-04-20T07:29:55Z</time></trkpt>
    </trkseg>
  </trk>
</gpx>
